Company Name,ISO Country Code,Country,City,Address,NACE Rev. 2 Code principal,"NACE Principal Rev. 2, description ",Sector,Main activity,Description in English,Website,"Operating result [=EBIT]
mEUR 2021","Operating result [=EBIT]
mEUR 2020","Operating result [=EBIT]
mEUR 2019","Turnover
mEUR 2021","Turnover
mEUR 2020","Turnover
mEUR 2019",Operating margin 2019,Operating margin 2020,Operating margin 2021,Weighted Average Operating margin 2019-2021
ITX HELLAS SINGLE MEMBER S.A.,GR,Grèce,ATHENS,,4771.0,Commerce de détail d'habillement en magasin spécialisé,Engaged in the retail of fashion clothing,Retail,"Exclusive imports and trade of garments, shoes, accessories, leather goods, perfumes, cosmetics, white linen, decoratives, tableware and small furniture (also via internet)","www.zara.com
www.fashionwear1.gr",31.307345,17.46834,21.701402,458.949985,351.67791,299.740253,0.07240069287590814,0.049671416666460515,0.06821515638572251,0.06347181979863493
RANDEVU,RU,Fédération de Russie,MOSCOW,"UL. SKAKOVAYA D. 17, STR. 2, KOM. 2",4772.0,Commerce de détail de chaussures et d'articles en cuir en magasin spécialisé,"Engaged in the wholesale trade and marketing of clothing, including underwear and footwear",Wholesale,"Engaged in the wholesale trade and marketing of clothing, including underwear and footwear [source: Bureau van Dijk]","www.rendez-vous.ru
www.rest-randevu.ru",15.3730595814697,13.6424331847772,1.34749010819731,305.885437216023,230.450400476783,336.809459836145,0.004000748995746298,0.05919899968302127,0.0502575726434891,0.034774261466417
ZEEMAN TEXTIELSUPERS,FR,France,PARIS,,4771.0,Commerce de détail d'habillement en magasin spécialisé,Engaged in the retail sale of clothing and outerwear as well as fashion apparels and accessories,Retail,Engaged in the retail sale of clothing and outerwear as well as fashion apparels and accessories [source: Bureau van Dijk],www.zeeman.com,3.839119,3.082213,4.175004,163.539998,137.038689,147.293323,0.028344828638294763,0.02249155346195701,0.02347510729454699,0.02477568535707333
ANSWEAR.COM S.A.,PL,Pologne,KRAKOW,,4771.0,Commerce de détail d'habillement en magasin spécialisé,"Digital platform for the sale of branded clothing, footwear and accessories in the CEE region",Wholesale; Retail; Services,The main activities of the Company are Electronic Shopping and Mail-Order Houses.,www.answear.com,7.88564227982966,5.44609296819251,1.21767253793363,149.141088720011,89.5726935318401,73.0544924466725,0.01666800352931742,0.06080081722960141,0.052873707356620656,0.046667377557979284
REGENT GOLD,RU,Fédération de Russie,"AGALATOVSKOE SELSKOE POSELENIE, D. SKOTNOE","UL. SAVUSHKINA D. 126, LIT. A, POMESHCH. 133-N",4777.0,Commerce de détail d'articles d'horlogerie et de bijouterie en magasin spécialisé,Operates as other miscellaneous store retailer,Retail,Operates as other miscellaneous store retailer [source: Bureau van Dijk],www.zolotoy.ru,22.3166709025715,15.7900774199501,4.56895070385942,140.67139592868,102.690046487783,116.821429322497,0.039110553006900674,0.15376443930063505,0.15864398554689815,0.11848342154734647
WOLW-POL SP. Z O.O.,PL,Pologne,WARSZAWA,,4771.0,Commerce de détail d'habillement en magasin spécialisé,Engaged in the wholesale distribution of clothing products,Wholesale,Engaged in the wholesale distribution of clothing products [source: Bureau van Dijk],www.dieselshop.pl,10.8482220426084,5.56448157991497,1.49214694446304,135.210896450719,105.496612295389,98.7613293909136,0.015108615423318946,0.05274559494227646,0.08023186242657823,0.05274372359255957
SAKURA LLC,RU,Fédération de Russie,VELIKII NOVGOROD,,4772.0,Commerce de détail de chaussures et d'articles en cuir en magasin spécialisé,Engaged in the retail sale of footwear,Retail,Engaged in the retail sale of footwear [source: Bureau van Dijk],"xn--23-6kca3cvbes.xn--p1ai
ilovesakura.ru/spb",-0.128553703065335,4.35471298878484,4.54472173573068,93.6612545730934,68.6219711698496,131.204665073131,0.034638415739238676,0.06345945641821155,-0.001372538769113022,0.029884984341472576
LIMITED LIABILITY COMPANY HUGO BOSS RUS,RU,Fédération de Russie,MOSCOW,"PROEZD 1-I KRASNOGVARDEISKII D. 22, STR. 1, FLOOR/POMESHCH./KOM. 26/A26/7",4771.0,Commerce de détail d'habillement en magasin spécialisé,"Engaged in the retail sale of clothing, perfume, and accessories",Retail,"Trade with clothes, footwear, accessories.","www.hugoboss.com/ru
www.emg.ru",6.5492032834177,2.71706945177179,6.05389167635503,90.4721196925563,48.5375980782652,66.3754666872253,0.09120676627227646,0.05597865488503592,0.07238918802470086,0.07459235412705198
B & B COLLECTION SRL,RO,Roumanie,BUCURESTI SECTORUL 3,,4777.0,Commerce de détail d'articles d'horlogerie et de bijouterie en magasin spécialisé,Engaged in the import and distribution of more than 100 international brands of watches and jewelry,Wholesale,Engaged in the import and distribution of more than 100 international brands of watches and jewelry [source: Bureau van Dijk],www.bbcollection.ro,11.1447430847445,6.60106559476333,10.2032153788243,88.2167311612345,69.6048335197968,86.0665534670902,0.1185502958791741,0.09483631036752461,0.12633366639232135,0.11459772731264317
GRUPPO PRITELLI S.R.L.,IT,Italie,CATTOLICA,VIA RESPIGHI 54 INT.4,4771.0,Commerce de détail d'habillement en magasin spécialisé,Engaged in the management and operation of clothing stores,Retail,Engaged in the management and operation of clothing stores [source: Bureau van Dijk],"www.gruppopritelli.it
www.gpracingapparels.com",1.762103,0.467166,0.898372,73.890612,66.615576,62.974075,0.014265743482536265,0.007012864378745295,0.023847454396507095,0.0153707340156131
SUGAR S.R.L.,IT,Italie,AREZZO,CORSO ITALIA 60,4771.0,Commerce de détail d'habillement en magasin spécialisé,,,,"www.sugar.it
www.sugarmondialsrl.com",8.786703,7.200907,7.645169,71.76766,74.726826,76.998969,0.09928923853512896,0.09636307850142062,0.12243262494555344,0.10574259993430234
TREID MANAGEMENT,RU,Fédération de Russie,MOSCOW,,4771.0,Commerce de détail d'habillement en magasin spécialisé,Engaged in the wholesale of clothing apparel,Wholesale,Engaged in the wholesale of clothing apparel [source: Bureau van Dijk],lgcity.ru,7.6877063476918,6.46251290233139,11.4559018867656,69.6995193564136,61.7245903696345,92.8965814762028,0.12331887465310276,0.1046991622565815,0.11029783876098413,0.11414961767259327
WISE S.R.L.,IT,Italie,CREMONA,CORSO GIUSEPPE MAZZINI 71,4771.0,Commerce de détail d'habillement en magasin spécialisé,Engaged in the operation of a chain of family clothing stores,Retail,Engaged in the operation of a chain of family clothing stores [source: Bureau van Dijk],"www.wiseboutique.com
www.netwise.it",1.751859,0.932504,0.863258,69.422718,64.812987,70.324041,0.012275432238030804,0.01438761031026081,0.025234664537334882,0.017342713165081857
ETERNA MODE GMBH ZWEIGNIEDERLASSUNG OESTERREICH,AT,Autriche,PARNDORF,,4771.0,Commerce de détail d'habillement en magasin spécialisé,,,,,-4.22772012,1.68297121,10.83142577,67.34875369,79.24065493,108.13048013,0.10016995908071345,0.021238734226600112,-0.06277354647808034,0.0325325081628515
NEW YORKER HUNGARY KERESKEDELMI KORLATOLT FELELOSSEGU TARSASAG,HU,Hongrie,BUDAPEST,,4751.0,Commerce de détail de textiles en magasin spécialisé,Engaged in the retail trade of clothing apparels and footwear for men and women,Retail,Engaged in the retail trade of clothing apparels and footwear for men and women [source: Bureau van Dijk],www.newyorker.de,21.5671387774725,13.0894017331872,17.3538302024257,67.0318169351289,54.9678192201782,67.2070514870856,0.25821442569549996,0.23812845259071505,0.3217448036407015,0.27488653472644076
ARENA,RU,Fédération de Russie,MOSCOW,,4772.0,Commerce de détail de chaussures et d'articles en cuir en magasin spécialisé,Retail sale of leather goods,Retail,sale of footwear and accessories,"www.noone.ru
arena-city65.ru",5.68374462405495,3.18622199849687,0.941507505142781,64.280916002155,47.7775775712287,68.9773846592702,0.013649510050193638,0.0666886468604802,0.08842040495913911,0.054196296466082934
"TORRES JOALHEIROS, S.A.",PT,Portugal,LISBOA,,4777.0,Commerce de détail d'articles d'horlogerie et de bijouterie en magasin spécialisé,Engaged in the retail sale of watches and jewelry,Retail,Engaged in the retail sale of watches and jewelry [source: Bureau van Dijk],"www.torres.pt
torres.pt",15.26488692,7.74969815,12.26668891,63.62610163,45.6458685,67.56634837,0.1815502717836163,0.169778742406884,0.23991548325196363,0.19951147624150248
C & A MODE KERESKEDELMI KORLATOLT FELELOSSEGU TARSASAG,HU,Hongrie,BUDAPEST,,4771.0,Commerce de détail d'habillement en magasin spécialisé,Engaged in the retail sale of clothing apparels and footwear for men and women,Retail,Engaged in the retail sale of clothing apparels and footwear for men and women [source: Bureau van Dijk],"www.c-and-a.com/hu
www.c-and-a.hu
www.c-and-a.com/eu/en/shop",2.11386361468873,-4.81308339279875,2.91351171706331,63.6858653128192,51.8008079020274,78.9262052005212,0.036914377292829356,-0.09291521865647144,0.03319203726455821,0.0011022517679896192
"JOINT STOCK COMPANY STOLESHNIKOV,12 JSC STOLESHNIKOV,12",RU,Fédération de Russie,MOSCOW,"PER. NIZHNII KISELNYI D. 4, ET 5 POM.I KOM 15",4771.0,Commerce de détail d'habillement en magasin spécialisé,Retail distribution of knitted and crocheted apparel,Retail,Retail distribution of knitted and crocheted apparel [source: Bureau van Dijk],hermes.com,16.1259609586163,8.11632802724707,6.91030301925099,62.0183732050879,36.831861464635,38.1767007590688,0.18100838683943796,0.22036160282151795,0.2600190899121061,0.227346484161162
AXEL KAUFMANN APS,DK,Danemark,AARHUS C,,4771.0,Commerce de détail d'habillement en magasin spécialisé,Engaged in the retail sale of clothing principally in Denmark,Retail,Engaged in the retail sale of clothing principally in Denmark [source: Bureau van Dijk],www.kaufmann.dk,1.22699761988203,0.00778923767660825,1.31299234664078,57.2156897588525,61.801557589827,70.2920357475157,0.01867910543033582,0.00012603626802264314,0.021445125018215605,0.013458289855256572
OCHNIK S.A.,PL,Pologne,GARWOLIN,,4771.0,Commerce de détail d'habillement en magasin spécialisé,Primarily engaged in the retail sale of clothing and accessories in Poland,Retail,Primarily engaged in the retail sale of clothing and accessories in Poland [source: Bureau van Dijk],www.ochnik.com,9.22786075563311,4.24898028445676,6.19501158375088,58.3449671243976,44.2905673507124,54.8116717291799,0.11302358399794733,0.09593420311849801,0.15816035573314047,0.12494253215465921
ME AND EM LIMITED,GB,Royaume-Uni,LONDON,,4771.0,Commerce de détail d'habillement en magasin spécialisé,Engaged in the retail distribution of clothing,Retail,Design and retail contemporary clothing and accessories.,www.meandem.com,11.6630228490627,1.94760463089357,0.444201137601358,57.344297055446,25.5811029609706,19.7966432126723,0.022438204943604496,0.07613450576642665,0.20338592411004297,0.13682388098738257
CARRY SP. Z O.O.,PL,Pologne,POZNAN,,4771.0,Commerce de détail d'habillement en magasin spécialisé,Engaged in the retail sale of clothing,Retail,Trade: outwear,www.carry.pl,8.86577492248134,2.20233173858069,6.20204337896512,56.2055074087536,49.8420391930754,78.8259555653519,0.07868021813986407,0.044186228618163396,0.15773854433881615,0.09341603765589819
NEWFASHION LIMITED LIABILITY COMPANY,RU,Fédération de Russie,MOSCOW,,4751.0,Commerce de détail de textiles en magasin spécialisé,Engaged in the retail sale of textiles in specialised stores,Retail,"Sale of clothing, trademark FINN FLARE.",www.finn-flare.ru,6.76779330472497,4.85261257375976,7.61213785924846,55.498227313183,46.6565864837434,83.374007454015,0.09130109121175374,0.10400702107623241,0.12194611670267447,0.10366337482260912
PANCLUB JSC,RU,Fédération de Russie,MOSCOW,,4777.0,Commerce de détail d'articles d'horlogerie et de bijouterie en magasin spécialisé,Engaged in selling jewelry and other related personal adornment,Retail,Engaged in selling jewelry and other related personal adornment [source: Bureau van Dijk],"pandora.net
pandorarussia.ru",3.97448070710305,1.37627272953353,13.4259542525902,54.7207251996636,41.4944523649905,77.2855337786395,0.17371885262570214,0.03316763208314353,0.07263209127074002,0.10822265536464941
PLANETA SPORT D.O.O. BEOGRAD,RS,Serbie,BEOGRAD-VRACAR,,4771.0,Commerce de détail d'habillement en magasin spécialisé,"Engaged in the retail of sports equipment, accessories, and clothing products",Retail,Retail sale of clothing in specialised stores,"www.planetasport.rs
www.planplus.rs",9.10995422121389,6.68342797759878,6.96504649357384,54.0530996211295,43.9428489383521,41.9673705790423,0.1659633757720349,0.15209364297192096,0.16853712895407733,0.1626028078818432
MYUNTS GRUPP,RU,Fédération de Russie,MOSCOW,,4772.0,Commerce de détail de chaussures et d'articles en cuir en magasin spécialisé,"Engaged in the operation of a chain of shoe stores; Involved in the retail trade of footwear for men, women and children",Retail,"Engaged in the operation of a chain of shoe stores; Involved in the retail trade of footwear for men, women and children [source: Bureau van Dijk]",thomas-muenz.ru,8.08949460628779,4.07337589610494,3.20985657353755,52.6902018113922,29.3185042193428,46.7763595940903,0.06862134209227949,0.13893532445006324,0.15352939119961298,0.11936731174027487
NEW YORKER FINLAND OY,FI,Finlande,HELSINKI,,4771.0,Commerce de détail d'habillement en magasin spécialisé,Engaged in the retail trade of clothing apparels and accessories,Retail,"Bolagets verksamhetsomrade ar detaljforsaljning, grosshandel och tillverkning av textilier, accessoarer och skor och allt annat som ar forknippat med de. Bolaget kann aga fastigheter, vardepapper och aktier.","www.newyorker.de
porinpuuvilla.fi",9.434,5.345,3.81,48.226,39.376,36.757,0.10365372582093207,0.13574258431531896,0.19562061958279764,0.14947852588071628
IRIDE METALLI SPA,IT,Italie,MILANO,VIALE CERTOSA 95,4777.0,Commerce de détail d'articles d'horlogerie et de bijouterie en magasin spécialisé,Engaged in the retail sale of watches and jewelry products,Retail,Engaged in the retail sale of watches and jewelry products [source: Bureau van Dijk],www.iridemetalli.com,0.159094,0.252557,0.132795,46.018086,48.354566,51.590072,0.002574041765245065,0.005223022785480072,0.003457205934205956,0.003730034525801259
SZINGA-SPORT KERESKEDELMI KORLATOLT FELELOSSEGU TARSASAG,HU,Hongrie,BUDAPEST,,4771.0,Commerce de détail d'habillement en magasin spécialisé,Engaged in the retail sale of clothing and footwear products,Retail,Engaged in the retail sale of clothing and footwear products [source: Bureau van Dijk],"www.playersroom.hu
sportfactory.hu",0.941655516937665,-0.0976046921717942,3.46990711371267,44.8324458899829,35.5269240328855,52.9588516346984,0.06552081487052493,-0.0027473442981285514,0.021003884535955312,0.032358351979783755
VERTIKALNOE INTEGRIROVANIE,RU,Fédération de Russie,MOSCOW,,4772.0,Commerce de détail de chaussures et d'articles en cuir en magasin spécialisé,Engaged in the retail sale of footwear,Retail,Engaged in the retail sale of footwear [source: Bureau van Dijk],www.tervolina.ru,0.616919915514609,2.23619084915278,3.20263821033243,38.6379878536985,34.680819651649,72.3659029117393,0.04425617703186142,0.06447918104630072,0.01596666777396785,0.041567498453767476
LUX TRADE LIMITED LIABILITY COMPANY,RU,Fédération de Russie,MOSCOW,,4771.0,Commerce de détail d'habillement en magasin spécialisé,"Engaged in the wholesale distribution of clothing, footwear and other fashion accessories",Wholesale,"Wholesale of kids apparel and shoes under trade marks Gulliver, Gulliver Baby and Button Blue.","gulliver-wear.com
wokster-light.ru
www.gulliver.ru/brands/gulliver",4.70284076994535,3.3439997759671,6.02537770377385,37.8124608243903,30.904334694706,46.9846855823688,0.12824131159100272,0.10820487834478237,0.12437277731767886,0.12162522135170928
CROCKID LIMITED TRADE DEVELOPMENT,RU,Fédération de Russie,PERM,"UL. YAKHTENNAYA D. 24, K. 2 LIT. A, POMESHCH. 54-N, POMESHCH. 1",4771.0,Commerce de détail d'habillement en magasin spécialisé,Engaged in the retail sale of clothing in specialised stores,Retail,children's wear.,crockid.ru,7.1680603583665,2.94237960382586,2.8653019537744,35.5693371593198,18.8359176806237,18.6468583184419,0.1536613784929439,0.15621110973810703,0.20152358550455415,0.17762308788842093
"DEICHMANN TRGOVINA OBUCOM, D.O.O.",HR,Croatie,ZAGREB,,4772.0,Commerce de détail de chaussures et d'articles en cuir en magasin spécialisé,Engaged in the retail sale of footwear for men and women,Retail,"buying and selling goods;mediation on foreign and domestic market;Brands: Elefanten, AM Shoes, Gallus","www.deichmann.hr
www.deichmann.com",4.56060739441281,1.59921851184357,4.97475893624264,35.1133924595174,29.4222900327291,36.9845669756986,0.1345090491261233,0.05435397822754834,0.12988227781382225,0.10967846218713984
OFFPRAIS,RU,Fédération de Russie,MOSCOW,,4771.0,Commerce de détail d'habillement en magasin spécialisé,Engaged in the operation and management of clothing stores,Retail,Sale of clothes,www.offprice.eu,4.28137192225108,1.78414753355798,3.65115451530079,34.2890292706974,22.5790115075658,32.8595710227615,0.11111388255104339,0.0790179646686546,0.12486127526245953,0.10829079004863122
VALTER FRANCO RICCI SOCIETA' PER AZIONI SIGLABILE IN VALTER FRANCO RICCI S.P.A.,IT,Italie,ALESSANDRIA,CORSO ROMA 144,4777.0,Commerce de détail d'articles d'horlogerie et de bijouterie en magasin spécialisé,Engaged in the retail sale of jewelry products,Retail,Engaged in the retail sale of jewelry products [source: Bureau van Dijk],www.astrua.com,3.365818,2.323486,1.594892,32.687173,25.92786,29.563084,0.053948769350315416,0.08961348911942597,0.10297060562563792,0.08260775176226545
OKAIDI BELGIUM,BE,Belgique,FROYENNES,,4641.0,Commerce de gros de textiles,Engaged in the retail sale of infant and children's wear,Retail,Engaged in the retail sale of infant and children's wear [source: Bureau van Dijk],"nl.okaidi.be
fr.okaidi.be",1.479187,-1.66644,0.47198,32.287479,22.572271,29.827053,0.015823889809026725,-0.07382686482897534,0.04581302244129993,0.003362117707997551
UAB ARMITANA,LT,Lituanie,VILNIAUS M.,,4772.0,Commerce de détail de chaussures et d'articles en cuir en magasin spécialisé,Engaged in the retail sale of clothing apparels and footwear for men and women,Retail,Engaged in the retail sale of clothing apparels and footwear for men and women [source: Bureau van Dijk],www.armitana.lt,2.719526,1.136983,1.285615,32.103919,22.533503,26.70857,0.04813492448304046,0.050457445520121755,0.08471009411654697,0.06321299763607284
DIANITA STRUMICA DOOEL,MK,Macédoine du Nord,STRUMICA,,4771.0,Commerce de détail d'habillement en magasin spécialisé,Engaged in the operation and management of clothing stores,Retail,Engaged in the operation and management of clothing stores [source: Bureau van Dijk],,2.13089345497656,0.650220548862985,0.963295946505922,31.9700432077608,60.9244098256853,7.70870020386497,0.12496217533832059,0.010672578539921393,0.06665281748694292,0.03721960823149193
LAGRANGE 12 S.R.L.,IT,Italie,BRESCIA,VIA CODIGNOLE 45,4771.0,Commerce de détail d'habillement en magasin spécialisé,"Engaged in the retail sale of clothing, shoes and accessories",Retail,"Engaged in the retail sale of clothing, shoes and accessories [source: Bureau van Dijk]",www.lagrange12.it,1.044648,0.319423,0.278367,32.228508,28.343863,26.503197,0.010503147978713661,0.011269564773157421,0.032413787197347145,0.01886221402540837
"GAP RETAIL, A LIMITED LIABILITY COMPANY",RU,Fédération de Russie,MOSCOW,"PL. PAVELETSKAYA D. 2, STR. 2, POMESHCH. I KOMN 40-41 ET 1",4771.0,Commerce de détail d'habillement en magasin spécialisé,Operates as a clothing and apparel store,Retail,Operates as a clothing and apparel store [source: Bureau van Dijk],marks-and-spencer.ru,5.99307214401285,0.947041722112426,1.83014265668949,31.5852776147692,20.9782118338507,30.681307702335,0.059650086444985755,0.045144063260161564,0.18974258251288897,0.10535501103943963
MASS SHOES D.O.O.,HR,Croatie,KLANJEC,,4772.0,Commerce de détail de chaussures et d'articles en cuir en magasin spécialisé,"Primarily engaged in the retail distribution of footwear and leather goods for men, women and children",Retail,"Trgovina obucom;Note COVID-19:;The company's business operations are directly / indirectly affected by the consequences of official measures and recommendations to reduce the risk of corona infections. The Croatian Government proposed a set of measures to mitigate the effects of the special circumstances caused by the coronavirus epidemic. Employment protection measures:;-Croatian Employment Fund (CEF) is providing grants to support job preservation in COVID 19 affected sectors;Tax measures:;-Employers utilizing the grant provided by CEF to support job preservation are exempted from paying contributions on supported net salaries ;-Possibility to defer payment of VAT until issued invoices are settled. -Taxpayers whose business activities are during special circumstances banned, disabled or significantly impeded by decisions of the competent authority may be fully or partially exempted from paying their tax obligations ;The subject has received: ;- HRK 541.125,00 for 167 employees as support for salaries in March 2020;- HRK 666.000,00 for 167 employees as support for salaries in April 2020;- HRK 666.000,00 for 167 employees as support for salaries in May 2020;from Croatian Employment Fund (CEF). Further development remains to be seen.",www.mass-shoes.com,3.46609787472871,1.00587920674799,3.05190327226278,31.5300905436346,25.2183109759244,32.6024236386732,0.09360970540369867,0.039886858707876595,0.10992984209582161,0.08420605339027784
OOO JEWELLERY HOUSE KRISTALL (LIMITED LIABILITY COMPANY),RU,Fédération de Russie,LIPETSK,,4777.0,Commerce de détail d'articles d'horlogerie et de bijouterie en magasin spécialisé,"Engaged in the design, manufacture, and retail marketing of jewelry and related fashion accessories",Manufacturing; Retail,"Engaged in the design, manufacture, and retail marketing of jewelry and related fashion accessories [source: Bureau van Dijk]","kristall-shop.ru
www.kristall-shop.ru",3.73643590055793,3.68044822823879,2.82114340117893,31.5255465514793,26.3838794765644,37.6952416849711,0.0748408360067288,0.13949609766478674,0.11852089207895436,0.10708710960335184
NEWPORT COLLECTION AB,SE,Suède,NORRKOPING,SODRA PROMENADEN 120,4771.0,Commerce de détail d'habillement en magasin spécialisé,"Marketing and trade of home textiles and furnishings, clothing and sportswear, as well as other general merchandise",Wholesale,"Bolaget skall bedriva forsaljning av hemtextilier, heminredningoch sportklader samt forvalta fast och los egendom och darmedforenlig verksamhet.",www.newportcollection.se,3.49964973293499,1.31103513608031,0.83906441432441,29.5948447934372,21.821265740757,13.2734547267458,0.06321371727239243,0.060080618221499606,0.11825200494753242,0.08733633099171663
SALVADORI S.P.A.,IT,Italie,VENEZIA,SESTIERE SAN MARCO 67,4777.0,Commerce de détail d'articles d'horlogerie et de bijouterie en magasin spécialisé,"Engaged in the retail sale of jewelry, watches, precious stones, and precious metals",Retail,"Engaged in the retail sale of jewelry, watches, precious stones, and precious metals [source: Bureau van Dijk]","salvadori-venezia.com
www.salvadori-venezia.net
www.luigisalvadori.it",4.83434,2.864021,3.797238,30.120974,22.457887,28.070763,0.1352737722163092,0.1275285159285021,0.1604974659849977,0.14253753991463122
PERE QUERA SA,ES,Espagne,GIRONA,,4777.0,Commerce de détail d'articles d'horlogerie et de bijouterie en magasin spécialisé,"Engaged in the wholesale distribution of jewelry, watches, precious stones, and precious metals",Wholesale,"Engaged in the wholesale distribution of jewelry, watches, precious stones, and precious metals [source: Bureau van Dijk]",www.perequera.com,5.12519765,1.21799534,2.42272105,29.942786849,19.49970147,22.96078382,0.10551560735002817,0.062462255736266924,0.17116635388169174,0.12107068894857641
5 KARMANOV-A,RU,Fédération de Russie,DOLGOPRUDNYI,"PR-D LIKHACHEVSKII D. 4, STR. 2, KABINET 203",4771.0,Commerce de détail d'habillement en magasin spécialisé,Engaged in the management and operation of department stores,Retail,Trade in clothes,"5karmanov.ru
www.iloveiphone.ru",0.816696909924175,0.980774816113962,-0.695594263043237,29.1772458251047,21.7726934872773,38.0246693762645,-0.018293236324033263,0.045046094856709844,0.027990884226004372,0.01238417880376139
ZOLOTOI KVADRAT,RU,Fédération de Russie,MOSCOW,,4771.0,Commerce de détail d'habillement en magasin spécialisé,Engaged in the operation and management of clothing stores,Retail,Engaged in the operation and management of clothing stores [source: Bureau van Dijk],,2.21097632599379,0.530904626587929,1.07675835037657,29.0453169485466,19.7434901384008,33.5032707184596,0.03213890247984949,0.02689011025235742,0.0761216112707775,0.046403486274682264
ALINA S.R.L.,IT,Italie,VILLARICCA,VIA ANIELLO PALUMBO 57,4771.0,Commerce de détail d'habillement en magasin spécialisé,Engaged in the operation of a chain of family clothing stores,Retail,Engaged in the operation of a chain of family clothing stores [source: Bureau van Dijk],"www.danielloboutique.it
www.antoniodaniello.it",1.130865,0.41334,0.376918,28.212,20.293203,17.13231,0.02200041909117918,0.020368396255632984,0.04008453849425776,0.029268674454499825
MYRTO,BE,Belgique,BRUXELLES,ISIDORE GERARDLAAN 29,4777.0,Commerce de détail d'articles d'horlogerie et de bijouterie en magasin spécialisé,Engaged in the retail distribution of jewellery,Retail,Engaged in the retail distribution of jewellery [source: Bureau van Dijk],myrto.okinawa,5.638977,2.783904,2.464807,27.948328,17.854996,22.831999,0.10795406043947356,0.15591736900977185,0.201764377461149,0.15863097198508122
ORN (INT) LIMITED,GB,Royaume-Uni,BUCKINGHAM,,4771.0,Commerce de détail d'habillement en magasin spécialisé,"Engaged in the supply of high quality, cost effective products for the corporate clothing, workwear and promotional clothing markets",Wholesale,"Manufacture, design, import and distribution of workwear clothing.",www.ornclothing.com,2.31776626258771,1.99326226975741,0.963890752911067,26.8212501076179,19.7792696770254,23.125997371148,0.041679964649378426,0.10077532195603171,0.08641529583027925,0.07565155267213955
DIESEL DEUTSCHLAND GMBH ZWEIGNIEDERLASSUNG OESTERREICH,AT,Autriche,WIEN,,4771.0,Commerce de détail d'habillement en magasin spécialisé,Engaged in the provision of management services to its holding businesses,Services,Engaged in the provision of management services to its holding businesses [source: Bureau van Dijk],,0.29178367,-1.23159206,3.88614412,26.27532623,29.21761932,62.2665147,0.06241146045709219,-0.0421523754728693,0.01110485432020457,0.025019949342031736
CALZEDONIA CROATIA D.O.O.,HR,Croatie,JALZABET,,4771.0,Commerce de détail d'habillement en magasin spécialisé,Primarily engaged in the retail sale of clothing and related accessories,Retail,Primarily engaged in the retail sale of clothing and related accessories [source: Bureau van Dijk],www.calzedonia.com,3.98351005894863,2.10262803437189,3.18734920215611,26.2085898359882,19.6252588636704,25.8940826279069,0.12309179853782498,0.10713886879037311,0.15199253694598602,0.12928697543397252
DOMANI S.R.L.,IT,Italie,TREVIGLIO,VIA ROMA 8,4772.0,Commerce de détail de chaussures et d'articles en cuir en magasin spécialisé,Engaged in the management and operation of shoe stores,Retail; Services,Engaged in the management and operation of shoe stores [source: Bureau van Dijk],"www.pozzilei.it
www.ufficiodomani.it",2.448041,1.509156,1.459383,26.068981,23.439671,24.55004,0.05944523919309297,0.06438469208889493,0.09390627888370473,0.07313901790217954
GIOIELLERIA B. S.R.L.,IT,Italie,ROMA,VIA DELLA CROCE 13,4777.0,Commerce de détail d'articles d'horlogerie et de bijouterie en magasin spécialisé,Operates as a retailer of miscellaneous shopping goods,Retail,Operates as a retailer of miscellaneous shopping goods [source: Bureau van Dijk],www.gioielleriabonanno.it,1.177158,0.509034,0.354442,26.068318,15.500835,12.024145,0.02947752210240312,0.03283913414986999,0.045156653375181315,0.038076290807854365
V.Y.B.Y.,BE,Belgique,TIENEN,,4511.0,Commerce de voitures et de véhicules automobiles légers,"Engaged in the wholesale of motor vehicles, spare parts and accessories",Wholesale,"Engaged in the wholesale of motor vehicles, spare parts and accessories [source: Bureau van Dijk]","www.australianhouse.net
www.automagna.eu/nl/1/automagna_partner_voor_de_professionele_autohandelaar.aspx",0.351206,0.211803,0.239541,24.707762,22.98033,19.660591,0.01218381482021573,0.009216708376250472,0.014214399507328912,0.011916342892703633
BENVENUTI SRL,RO,Roumanie,ORADEA,,4772.0,Commerce de détail de chaussures et d'articles en cuir en magasin spécialisé,Engaged in the operation of a chain of shoe stores; Involved in the retail trade of footwear,Retail,Engaged in the operation of a chain of shoe stores; Involved in the retail trade of footwear [source: Bureau van Dijk],www.benvenuti.ro,1.18978227005722,-1.49707292772629,1.45003637471873,25.22951221214,20.432381252861,27.8181523272462,0.052125545854406256,-0.07326962575723599,0.04715835407569702,0.015551782864705698
FABRIKA OBUVI,RU,Fédération de Russie,MOSCOW,,4772.0,Commerce de détail de chaussures et d'articles en cuir en magasin spécialisé,Engaged in the wholesale distribution of footwear,Wholesale,Engaged in the wholesale distribution of footwear [source: Bureau van Dijk],www.kapika.ru,1.37456317373021,0.401300270334156,0.097433524059555,24.3671838746975,15.5973090034436,19.9799979754864,0.004876553249860029,0.025728814518296474,0.056410423986562305,0.03125052763727928
MAX MARA S A S,FR,France,PARIS,,4771.0,Commerce de détail d'habillement en magasin spécialisé,Engaged in the wholesale distribution of a range of suits and overcoats for women and children,Wholesale,Engaged in the wholesale distribution of a range of suits and overcoats for women and children [source: Bureau van Dijk],www.maxmara.com,1.720444,1.109068,1.854727,23.993468,19.379516,39.951951,0.04642394059804489,0.057228880225904506,0.0717046822910302,0.05621653350224635
GOLD MOVING COMPANY S.R.L.,IT,Italie,ROMA,VIA SILICELLA 47,4777.0,Commerce de détail d'articles d'horlogerie et de bijouterie en magasin spécialisé,Engaged in the wholesale distribution of jewelry,Wholesale,Engaged in the wholesale distribution of jewelry [source: Bureau van Dijk],,0.032429,0.022221,0.01121,23.971997,6.062631,4.06522,0.0027575383374085533,0.0036652403882076945,0.0013527867536442624,0.0019313869082348987
SPORT VISION SKOPJE DOOEL,MK,Macédoine du Nord,SKOPJE,,4772.0,Commerce de détail de chaussures et d'articles en cuir en magasin spécialisé,"Operates a shoe store specializing in selling men's, women's and children's footwear",Retail,"Operates a shoe store specializing in selling men's, women's and children's footwear [source: Bureau van Dijk]",sportvision.mk,1.50018939269759,1.65997500382972,1.97107388586679,23.6412291654858,17.9994875778072,18.4101022343746,0.10706479848799971,0.09222345895426583,0.06345648875515068,0.08544826481554506
BEO-SPORT SYSTEM DOO BEOGRAD,RS,Serbie,BEOGRAD (PALILULA),,4771.0,Commerce de détail d'habillement en magasin spécialisé,"Engaged in the wholesale distribution of fashion, casual and sportswear",Wholesale,Retail sale of clothing in specialised stores,"www.beosport.com
rs.beosport.com",1.64887602309613,0.813501374208184,0.867878735164426,22.9242056669129,16.9567877022452,18.09737529639,0.04795605555782155,0.047974969581088205,0.07192729148630853,0.05743963152325885
EMMEPI S.R.L.,IT,Italie,RIPALIMOSANI,VIALE UNITA' D'ITALIA 18,4772.0,Commerce de détail de chaussures et d'articles en cuir en magasin spécialisé,Specialises in manufacturing mechanical parts for companies and clients on the national and international markets,Manufacturing,Specialises in manufacturing mechanical parts for companies and clients on the national and international markets [source: Bureau van Dijk],"mecapoce.com
www.meca.moda
www.emmepi-cb.com",1.661366,0.551261,1.018801,22.728831,18.917818,22.534004,0.04521171647968111,0.029139777113829934,0.07309509230809098,0.05034894238299508
SCHOOLBLAZER LIMITED,GB,Royaume-Uni,PETERBOROUGH,,4771.0,Commerce de détail d'habillement en magasin spécialisé,Operates as the leading supplier of high quality uniforms to the UK's most prestigious schools,Wholesale,Retail sale of clothing. Trading as 'Schoolblazer.com',www.schoolblazer.com,2.72985231096242,2.01214632726815,1.60386341690464,22.2215861937365,17.599046464399,16.7486467091134,0.09576077666214868,0.11433269020219408,0.1228468700282013,0.11217859103238254
YUVELIRNAYA SET EPL DAIMOND,RU,Fédération de Russie,MOSCOW,PER. 1-I SHCHIPKOVSKII D. 20,4777.0,Commerce de détail d'articles d'horlogerie et de bijouterie en magasin spécialisé,Engaged in the retail distribution of jewelry,Retail,Sale of jewellery.,epldiamond.com,0.949243775994959,0.136123734460086,1.54639771420614,22.7169023029719,15.5088285760446,22.6097972348914,0.06839502796689136,0.008777177063543458,0.041785792945492214,0.04326033333241542
BASSETTI (DEUTSCHLAND) GMBH  ZWEIGNIEDERLASSUNG OESTERREICH,AT,Autriche,WALS-HIMMELREICH,,4771.0,Commerce de détail d'habillement en magasin spécialisé,Engaged in the retail sale of home textiles,Retail,Engaged in the retail sale of home textiles [source: Bureau van Dijk],www.zucchibassetti.com,5.65146988,5.29572509,4.60801786,22.37489075,19.77665269,18.62675215,0.2473870819180895,0.2677766138188677,0.2525808927134091,0.2559336795972827
FANTASIA S.R.L.,IT,Italie,GINOSA,VIA PITAGORA 56,4771.0,Commerce de détail d'habillement en magasin spécialisé,"Engaged in the retail distribution of a general line of new clothing for men, women, and children",Retail,"Engaged in the retail distribution of a general line of new clothing for men, women, and children [source: Bureau van Dijk]",www.fantasiacalzature.it,0.247284,0.197672,0.50239,22.029103,21.970507,22.669546,0.022161449549982164,0.008997152409819216,0.011225332234362879,0.014209659411317582
CUPCAKE CLOTHING LIMITED,GB,Royaume-Uni,LONDON,,4771.0,Commerce de détail d'habillement en magasin spécialisé,Engaged in the design and manufacture of clothing,Manufacturing,The design and manufacture of clothing.,www.cupcakeclothing.co.uk,0.675168511866492,-0.39773861954296,0.0929734359664018,22.3312272159501,13.9205849198174,21.8858399331691,0.004248109108460391,-0.028571976093959797,0.030234277110585853,0.00637114357233981
LAURAMAR,FR,France,LYON,,4777.0,Commerce de détail d'articles d'horlogerie et de bijouterie en magasin spécialisé,Engaged in the rental and sale of real estate properties,Retail; Services,Engaged in the rental and sale of real estate properties [source: Bureau van Dijk],"www.maier.fr
www.lauramar.com.ar",3.165204,1.532263,1.501474,21.944181,15.050313,15.665828,0.09584389666476614,0.10180937765214584,0.1442388759006317,0.1177155923961118
KATAPULT D.O.O.,HR,Croatie,ZAGREB,,4772.0,Commerce de détail de chaussures et d'articles en cuir en magasin spécialisé,Primarily engaged in the wholesale of footwear products,Wholesale,Primarily engaged in the wholesale of footwear products [source: Bureau van Dijk],www.officeshoes.hr,0.256550462733029,0.42531533086486,1.11197648169372,21.5353116012873,24.6176865964816,27.0150839300715,0.04116131878664783,0.017276819623077286,0.011913013727541949,0.024516732202401866
VALENTI & C. S.R.L.,IT,Italie,PISA,BORGO STRETTO 28,4772.0,Commerce de détail de chaussures et d'articles en cuir en magasin spécialisé,Engaged in the retail sale of footwear products in Italy,Retail,Engaged in the retail sale of footwear products in Italy [source: Bureau van Dijk],www.valentipisa.it,0.25067,0.197746,0.262296,21.036095,19.437646,21.963982,0.011942096838360183,0.010173351238107742,0.01191618501437648,0.011382734120525182
PILAR PRIETO GUMIEL SL,ES,Espagne,ALCORCON,,4771.0,Commerce de détail d'habillement en magasin spécialisé,Engaged in the production and retail distribution of clothing and accessories,Manufacturing; Retail,Engaged in the production and retail distribution of clothing and accessories [source: Bureau van Dijk],www.pilarprieto.es,2.42530603,-0.00734,2.147210259,20.47886785,15.217511,24.40002294,0.08800033771607593,-0.00048233906320159714,0.11842969287972624,0.07596422003687485
NIELSENS A/S,DK,Danemark,ODENSE SV,,4771.0,Commerce de détail d'habillement en magasin spécialisé,"Engaged in the retail sale of specialized lines of men's, women's, and children's clothing",Retail,"Engaged in the retail sale of specialized lines of men's, women's, and children's clothing [source: Bureau van Dijk]","www.nielsens.dk
nielsens.dk",3.50737888252338,-0.748391458407085,2.59274000763882,19.9643970470416,30.0303165444614,36.8500923951244,0.0703591182306469,-0.024921197793538196,0.17568168346176607,0.0616240357837772
VIGORA,RU,Fédération de Russie,MOSCOW,"PROEZD 2-I KAPOTNINSKII D. 1, STR. 3, POMESHCH. 2",4771.0,Commerce de détail d'habillement en magasin spécialisé,Engaged in the retail trade of clothing and footwear products,Retail,Engaged in the retail trade of clothing and footwear products [source: Bureau van Dijk],www.vigorasildenafil.com,1.30511066002828,0.718300898954861,1.59941385989793,19.9300072887516,7.95817519248579,14.753270329758,0.10841080141206667,0.09025949813634285,0.06548470560594717,0.0849601779502902
STADIO SPORT SOCIEDAD LIMITADA,ES,Espagne,ARUCAS,,4771.0,Commerce de détail d'habillement en magasin spécialisé,Engaged in the operation of sporting goods store,Retail,Engaged in the operation of sporting goods store [source: Bureau van Dijk],www.estadiosport.net,2.50952755,1.07250184,2.02233053,19.85952038,18.32671189,22.76011734,0.08885413461581038,0.05852123645732721,0.12636395552267612,0.09195562910433021
N PEAL (RETAIL) LIMITED,IE,Irlande,KILDARE,,4771.0,Commerce de détail d'habillement en magasin spécialisé,,,Design and sale of luxury cashmere clothing. Accounts data converted from Sterling.,,1.905657,-0.400756,1.805472,19.399543,12.466876,17.725489,0.10185738740409361,-0.03214566343645353,0.09823205629122293,0.0667522814407544
DESPI ASTIGI S.L.,ES,Espagne,CORNELLA DE LLOBREGAT,,4777.0,Commerce de détail d'articles d'horlogerie et de bijouterie en magasin spécialisé,Engaged in the operation of a jewelry store,Retail,Engaged in the operation of a jewelry store [source: Bureau van Dijk],,0.36141,0.1854559,0.04242018,19.3380299,23.90342285,8.64584713,0.004906422628363081,0.007758549943402772,0.018689080628632188,0.011357038839231273
DONATOR,ME,Monténégro,TUZI,,4771.0,Commerce de détail d'habillement en magasin spécialisé,Primarily engaged in the wholesale of non-durable goods,Wholesale,Retail sale of clothing in specialised stores,www.donator.co.me,1.503968,0.721736,1.632063,19.211308,16.773099,22.683022,0.07195086263197205,0.043029376980366005,0.07828555973388174,0.06575653758408265
TOMASINI FRANCIA SRL,IT,Italie,SPOLETO,CORSO GIUSEPPE GARIBALDI 50,4777.0,Commerce de détail d'articles d'horlogerie et de bijouterie en magasin spécialisé,Engaged in the retail trade of luxury watch and jewelry,Retail,Engaged in the retail trade of luxury watch and jewelry [source: Bureau van Dijk],"www.tomasinifrancia.it
tomasinifrancia.it",1.593885,1.143813,0.36608,19.119403,16.292973,17.814843,0.020549156677945466,0.07020284143354316,0.08336478916208838,0.058311857322472564
DESNUDOS SOCIEDAD LIMITADA,ES,Espagne,LAS PALMAS DE GRAN CANARIA,,4771.0,Commerce de détail d'habillement en magasin spécialisé,Engaged in the retail sale and marketing of clothing and apparel products,Retail,Engaged in the retail sale and marketing of clothing and apparel products [source: Bureau van Dijk],www.desnudos.es,2.70336603,1.35153905,2.32490608,18.96759794,17.63078039,22.79892556,0.10197437040976065,0.0766579255202214,0.14252548153706807,0.10740910348077416
IRINIK SRL,RO,Roumanie,BOTOSANI,,4777.0,Commerce de détail d'articles d'horlogerie et de bijouterie en magasin spécialisé,"Engaged in the retail sale of jewelry, luggage and leather goods",Retail,"Engaged in the retail sale of jewelry, luggage and leather goods [source: Bureau van Dijk]",www.sabrini.ro,0.821564758757554,0.674481093330839,1.11817033702836,18.9426141094186,11.9217581168416,13.5805163473709,0.08233636398109638,0.05657563982765384,0.043371245067440695,0.05881927647958494
"VISAO DO TEMPO II - DISTRIBUICAO, S.A.",PT,Portugal,CARNAXIDE,,4777.0,Commerce de détail d'articles d'horlogerie et de bijouterie en magasin spécialisé,"Engaged in the retail sale of jewelry, watches, precious stones, and precious metals",Retail,"Engaged in the retail sale of jewelry, watches, precious stones, and precious metals [source: Bureau van Dijk]","www.pandoraonline.pt/acerca-visao-do-tempo
pandoraonline.pt",1.689071,0.732294,1.648787,18.913793,18.030416,27.709999,0.0595015178455979,0.040614370738867034,0.08930366320494255,0.06295262328478296
"EQUACAO DO TEMPO - RELOJOARIA, LDA",PT,Portugal,PORTO,,4777.0,Commerce de détail d'articles d'horlogerie et de bijouterie en magasin spécialisé,Engaged in the retail sale of watches,Retail,Engaged in the retail sale of watches [source: Bureau van Dijk],www.marcolino.pt,4.3039434,4.79562005,9.025789,18.77050384,19.988585299,35.4815958,0.254379454939848,0.23991793207295756,0.22929290746198744,0.24414311997380858
LE SAC S.R.L.,IT,Italie,MILANO,VIA BERNARDO DAVANZATI 28,4772.0,Commerce de détail de chaussures et d'articles en cuir en magasin spécialisé,,,,"www.lesacoutlet.it
lesacsrl.it",2.543972,0.483832,0.166646,18.572693,12.596955,10.838373,0.015375554984129073,0.038408647169097615,0.13697378188505027,0.07604381077604204
"ARCO PAWEL NAGLY, JACEK DUDAK SP.J.",PL,Pologne,KATOWICE,,4771.0,Commerce de détail d'habillement en magasin spécialisé,"Engaged in the wholesale and retail distribution of a general line of new clothing and accessories for men, women, and children",Wholesale; Retail,"Engaged in the wholesale and retail distribution of a general line of new clothing and accessories for men, women, and children [source: Bureau van Dijk]",www.sportjam.pl,3.44427352880346,0.189725339298819,1.24415896657396,18.5433615057168,13.7066258267835,20.2932922019668,0.06130887754394912,0.013841870471730924,0.18574159424878886,0.09284075676083918
SERGIO CAPONE S.R.L.,IT,Italie,PISA,BORGO STRETTO 6,4777.0,Commerce de détail d'articles d'horlogerie et de bijouterie en magasin spécialisé,Operates as a retailer of jewelry goods and watches,Retail,Operates as a retailer of jewelry goods and watches [source: Bureau van Dijk],"www.sergiocapone.it
www.sergiocapone.com",2.166297,1.076693,1.991636,18.159264,12.521517,15.821035,0.12588531660539276,0.0859874246866414,0.11929431721461839,0.11256820593845195
SPORTROOM SP. Z O.O. SP.K.,PL,Pologne,LODZ,,4771.0,Commerce de détail d'habillement en magasin spécialisé,Engaged in the retail distribution of footwear,Retail,Engaged in the retail distribution of footwear [source: Bureau van Dijk],www.wbsport.pl,1.15389034877075,0.534266555465475,0.497616707994821,17.8631185711229,13.9110955353078,12.7463007916902,0.0390400882677456,0.03840578580669302,0.06459624304549498,0.049095874502639726
VAN GRAAF RUHAZATI ES KERESKEDELMI BETETI TARSASAG,HU,Hongrie,BUDAPEST,,4771.0,Commerce de détail d'habillement en magasin spécialisé,Engaged in the retail sale of fashion clothing and accessories,Retail,Engaged in the retail sale of fashion clothing and accessories [source: Bureau van Dijk],"www.vangraaf.com/hu
company.vangraaf.com/en",0.558765051112705,-1.40071434513124,1.9815023862201,17.8434498429183,14.3924236885431,20.8248940283531,0.09515065879914125,-0.09732303435774062,0.03131485536887181,0.021476377832585367
AZEL D.O.O. SARAJEVO,BA,Bosnie-Herzégovine,ILIDZA,,4772.0,Commerce de détail de chaussures et d'articles en cuir en magasin spécialisé,Engaged in the provision of general construction and civil engineering services,Services,Engaged in the provision of general construction and civil engineering services [source: Bureau van Dijk],www.azel.ba,2.53882142672198,0.588465081159215,2.64093814762491,17.6694194176576,15.4853306835132,19.6237083530131,0.13457895419748275,0.038001453968673556,0.14368448485550447,0.10929126815087645
LANCERTO S.A.,PL,Pologne,LANCUT,,4771.0,Commerce de détail d'habillement en magasin spécialisé,"Engaged in the retail sale of clothing, particularly for men",Retail,"Engaged in the retail sale of clothing, particularly for men [source: Bureau van Dijk]",www.lancerto.com,2.64485759927438,-0.20251824789154,1.07305194969397,17.5777992839787,11.0513383924368,16.4972947521429,0.0650441157665918,-0.01832522366975364,0.15046579816649958,0.07790093548037898
NEWMAX NOWAK I WSPOLNICY SP.K.,PL,Pologne,RZESZOW,,4772.0,Commerce de détail de chaussures et d'articles en cuir en magasin spécialisé,Engaged in the wholesale and retail trade of New Balance sports shoes,Wholesale; Retail,Trade: footwear,"www.nbsklep.pl
nbsklep.pl",1.48379077453125,1.51932051710494,14.2325879068081,17.3772928946899,17.3170448264002,74.9769852582474,0.1898260894031149,0.08773555374694786,0.08538676211095354,0.15715775765458362
EVOLUTION S.R.L.,IT,Italie,POLIGNANO A MARE,STRADA COMUNALE QUINTAVALLE,4772.0,Commerce de détail de chaussures et d'articles en cuir en magasin spécialisé,Engaged in the retail sale of footwear,Retail,Engaged in the retail sale of footwear [source: Bureau van Dijk],"www.evolutionboutique.it
www.idievolution.it",0.463529,0.160081,0.707399,17.188694,11.747523,15.315017,0.04618989322702025,0.013626787536402356,0.026967086621007972,0.030078460636826534
MAGAZZINI BERTON S.R.L.,IT,Italie,BOLZANO VICENTINO,VIA ZUCCOLA 24/C,4771.0,Commerce de détail d'habillement en magasin spécialisé,"Engaged in the retail distribution of clothing, footwear and accessories",Retail,"Engaged in the retail distribution of clothing, footwear and accessories [source: Bureau van Dijk]",www.bertonmagazzini.it,0.788221,-0.362609,0.176986,16.458473,12.519877,15.368935,0.011515827218997283,-0.02896266472905445,0.04789150244983237,0.013588159906519643
"GOFAS, G., & CO P.C. ""GOFAS JEWELRY""",GR,Grèce,ATHENS,,4777.0,Commerce de détail d'articles d'horlogerie et de bijouterie en magasin spécialisé,Engaged in the operation of jewelry stores,Retail,"Imports and trade of jewellery, watches, garments, shoes, accessories and costume jewellery",www.gofas.gr,0.91961,0.267622,0.671291,16.394452,7.60059,15.637521,0.04292822372548692,0.03521068759135804,0.05609275625681175,0.046893838281415204
TWA RETAIL SP. Z O.O. SP.K.,PL,Pologne,KRAKOW,,4771.0,Commerce de détail d'habillement en magasin spécialisé,Engaged in the retail trade of clothing apparels,Retail,Engaged in the retail trade of clothing apparels [source: Bureau van Dijk],www.reporteryoung.pl,1.25697064001035,0.406987956415867,0.643643655277333,16.3686718171175,13.1649870867053,15.3593158933041,0.041905750213649146,0.030914421239870787,0.076791242078412,0.05140230207803546
"NIVEL PRECIOSO, LDA",PT,Portugal,VIZELA,,4777.0,Commerce de détail d'articles d'horlogerie et de bijouterie en magasin spécialisé,Engaged in the retail trade of a wide range of merchandise,Retail,Engaged in the retail trade of a wide range of merchandise [source: Bureau van Dijk],,0.07567992,0.11587089,0.05279257,16.16836178,19.94209667,12.20881045,0.004324137082495207,0.005810366478380931,0.004680741378116292,0.005056851760437128
LIMITED LIABILITY COMPANY U4 GROUP,RU,Fédération de Russie,KRASNODAR,"UL. STAVROPOLSKAYA D. 133, POMESHCH. 2",4771.0,Commerce de détail d'habillement en magasin spécialisé,Engaged in wholesaling of miscellaneous non-durable goods,Wholesale,Engaged in wholesaling of miscellaneous non-durable goods [source: Bureau van Dijk],"www.u4group.ru
u4group.ru
yufogroup.ru",1.46106982110125,0.200423997682764,0.0143073135240935,16.0596102768918,8.16793149805779,10.3404347042213,0.0013836278583387593,0.02453791363583568,0.09097791265853979,0.04847842723214852
MEGAFORT OU,EE,Estonie,TALLINN,,4777.0,Commerce de détail d'articles d'horlogerie et de bijouterie en magasin spécialisé,Engaged in the retail trade of watches and jewelry,Retail,Retail sale of watches and jewellery in specialised stores,www.goldtime.ee,3.495364,2.490469,0.226213,16.054008,12.986375,12.857266,0.01759417593133719,0.19177553397310643,0.21772531818845486,0.14826717365454084
ADRENALINE.PL SP. Z O.O. SP.K.,PL,Pologne,OLSZTYN,,4771.0,Commerce de détail d'habillement en magasin spécialisé,Engaged in the retail of sportswear,Retail,Engaged in the retail of sportswear [source: Bureau van Dijk],adrenaline.pl,2.21883588927779,0.888781903755269,1.91522662318685,15.8637088714248,13.2183270106681,17.9788940037846,0.10652638715060506,0.0672386076572293,0.13986867177539833,0.10673066657204351
SA TURRI ET FILS,FR,France,PARAY LE MONIAL,,4772.0,Commerce de détail de chaussures et d'articles en cuir en magasin spécialisé,Engaged in the operation and management of a shoe store,Retail,Engaged in the operation and management of a shoe store [source: Bureau van Dijk],www.chaussures.turri.fr,0.388364,0.084071,-0.161634,15.982549,13.499001,16.712781,-0.009671280919674589,0.006227942349215324,0.024299252891387974,0.006728119950476175
CENERE GB SRL,IT,Italie,BASSANO DEL GRAPPA,VIA JACOPO DA PONTE 18/20,4771.0,Commerce de détail d'habillement en magasin spécialisé,,,,www.ceneregb.com,0.417205,0.804525,0.244762,15.528726,12.369736,12.185427,0.02008645244848621,0.06503978742957812,0.026866659892125083,0.036585571824131136
NEW YORKER ESTONIA OU,EE,Estonie,TALLINN,,4771.0,Commerce de détail d'habillement en magasin spécialisé,Operates as a clothing store,Retail,Retail sale of clothing in specialised stores,"www.newyorker.de
www.kristiine.com/stores/-/shops/Mood/1004402/New-Yorker",3.705385,2.40481,2.412554,15.486377,14.272351,15.83578,0.1523482897590141,0.16849431463674064,0.23926738965479147,0.1869249033238828
STELLA SITI RITEIL,RU,Fédération de Russie,MOSCOW,,4771.0,Commerce de détail d'habillement en magasin spécialisé,Engaged in the retail sale of fashion clothing and accessories for women,Retail,Engaged in the retail sale of fashion clothing and accessories for women [source: Bureau van Dijk],world.marella.com,1.79315599330747,0.320067273529936,1.99384995766618,15.446588449073,9.95238790232606,18.075716114244,0.11030544765498886,0.032159847131272914,0.11608751014629921,0.09447043766322905
HYLTON,FR,France,AIX EN PROVENCE,,4772.0,Commerce de détail de chaussures et d'articles en cuir en magasin spécialisé,Engaged in offering shoes of all styles for men and women,Retail,Engaged in offering shoes of all styles for men and women [source: Bureau van Dijk],www.hylton.fr,1.132412,0.538293,1.156517,15.350263,11.837258,11.443548,0.1010627997540623,0.0454744671443336,0.07377150476184023,0.07318518677285374
MYSHOE N. I. MINOGLOU S.A.,GR,Grèce,OINOFYTA,,4772.0,Commerce de détail de chaussures et d'articles en cuir en magasin spécialisé,Engaged in the wholesale of clothing and footwear products,Wholesale,"Exclusive imports, imports and trade of shoes, slippers, garments, travelling goods, white linen, tableware, decoratives and small furniture (also via internet: www.myshoe.gr, www.laredoute.gr and www.samsonite.gr)",www.myshoe.gr,0.310886,0.022891,0.080716,15.073145,11.354509,12.205451,0.006613110814176387,0.0020160272892469416,0.020625158186960982,0.010728959010672324
ROBERT GATWARD JEWELLERS LIMITED,GB,Royaume-Uni,HUNGERFORD,,4777.0,Commerce de détail d'articles d'horlogerie et de bijouterie en magasin spécialisé,Engaged in the wholesale and retail of jewelry and related services,Wholesale; Retail; Services,Jewellery retailers.,www.robertgatwardjewellers.co.uk,3.30995847266569,1.60665778008127,1.62232790917749,14.7154034554506,11.1341063675976,13.5112908325796,0.12007201453066141,0.14430055965308133,0.22493154759135592,0.16612833207165753
GLOBAL BRANDS DISTRIBUTION OOD,BG,Bulgarie,SOFIA,"KV. ZHILISHTNA GRUPA YUZHEN PARK, UL. KOZYAK 12, BL. 122, VH. A, ET. 1, AP. 1",4771.0,Commerce de détail d'habillement en magasin spécialisé,Engaged in the retail sale of branded apparel and footwear in specialised stores,Retail,Engaged in the retail sale of branded apparel and footwear in specialised stores [source: Bureau van Dijk],www.globalbrands.bg,1.10742561714946,0.786860678252762,0.683082764938541,14.9911479780421,12.2446565194772,12.8410356597541,0.05319530161258206,0.06426155580608789,0.07387196889601338,0.06431068542895106
MANZONI SRL,IT,Italie,BELLUNO,VIA ROMA 19,4772.0,Commerce de détail de chaussures et d'articles en cuir en magasin spécialisé,Engaged in the retail sale of footwear products,Retail,Engaged in the retail sale of footwear products [source: Bureau van Dijk],"www.manzonisrl.it
www.manzonitende.it",0.968651,0.781709,0.676662,14.949755,15.156903,18.425584,0.03672404630431252,0.05157445422722571,0.0647937708678169,0.050008445931675694
SICAR,FR,France,NICE,,4771.0,Commerce de détail d'habillement en magasin spécialisé,Engaged in the retail sale of clothing principally in France,Retail,Engaged in the retail sale of clothing principally in France [source: Bureau van Dijk],www.hermes.com,3.551795,1.297253,2.776264,14.945482,9.905439,14.235613,0.1950224412534957,0.1309637058993549,0.2376500804724799,0.1950879553556731
S. D. KELLS LIMITED,GB,Royaume-Uni,ENNISKILLEN,,4771.0,Commerce de détail d'habillement en magasin spécialisé,"Engaged in the retail sale of apparel, accessories and other textile products",Retail,"Ladies, gents and childrens outfitters, together with the sale of household goods.",www.sdkells.co.uk,2.3667706064599,1.12579234091353,0.951064328193919,15.1034824238296,11.196673899832,15.1139401437755,0.06292629977005723,0.10054703307295766,0.15670363562814593,0.10729745798175908
MATTIOLI & STEFANI S.R.L.,IT,Italie,MODENA,VIA SARAGOZZA 130,4777.0,Commerce de détail d'articles d'horlogerie et de bijouterie en magasin spécialisé,,,,www.watchesforpassion.com/about-us,1.544848,0.707701,0.737827,14.824106,9.056603,7.887461,0.09354429771506953,0.07814199209129516,0.10421188299651932,0.09413120113623163
RETAIL SHOES LLC,RU,Fédération de Russie,MOSCOW,,4772.0,Commerce de détail de chaussures et d'articles en cuir en magasin spécialisé,Engaged in the retail trade of footwear and other related products,Retail,Engaged in the retail trade of footwear and other related products [source: Bureau van Dijk],respect-shoes.ru,1.52847821564563,0.746672879913641,1.01107412105189,14.8060066658684,11.3509875717743,15.3204294929046,0.06599515513061512,0.06578043321713607,0.10323365713249069,0.07922925102483935
PAPINI S.R.L.,IT,Italie,CATANIA,CORSO ITALIA 171,4771.0,Commerce de détail d'habillement en magasin spécialisé,Operates as the exclusive fashion store of luxury brands with a wide selection of haute-couture clothings of international designers,Retail,Operates as the exclusive fashion store of luxury brands with a wide selection of haute-couture clothings of international designers [source: Bureau van Dijk],www.papinistore.com,0.275959,-0.183821,0.16457,14.695368,13.792795,14.612698,0.011262122846855523,-0.013327320532205403,0.018778638275679792,0.005955983106694782
DAVID-ANDERSEN AS,NO,Norvège,OSLO,POSTBOKS 773  SENTRUM,4777.0,Commerce de détail d'articles d'horlogerie et de bijouterie en magasin spécialisé,Engaged in the retail sale and marketing of gold and silver wares and related fashion accessories as well as in redesigning fashionable items,Retail,Engaged in the retail sale and marketing of gold and silver wares and related fashion accessories as well as in redesigning fashionable items [source: Bureau van Dijk],www.david-andersen.no,1.24300079711192,1.36216544796284,0.355960612667011,14.642823677019,12.86872798956,12.028143299972,0.029593978371361743,0.1058508229459759,0.08488805332421862,0.07488997728097714
COLELLA GROUP S.R.L.,IT,Italie,NAPOLI,VIA VINCENZO RUIZ ARANGIO 42,4771.0,Commerce de détail d'habillement en magasin spécialisé,Engaged in the retail sale of clothing in specialised stores,Retail,Engaged in the retail sale of clothing in specialised stores [source: Bureau van Dijk],"lnx.spadaroma.com
www.spadaroma.com",0.602005,0.555129,0.62813,14.587989,12.12113,19.060658,0.03295426632176077,0.045798452784517614,0.041267168490461574,0.03900530256024625
ROBERTO JOYERO VIGO SL,ES,Espagne,VIGO,,4777.0,Commerce de détail d'articles d'horlogerie et de bijouterie en magasin spécialisé,"Primarily engaged in the wholesale and retail sale of jewelry, watches, precious stones, and precious metals",Wholesale; Retail,"Primarily engaged in the wholesale and retail sale of jewelry, watches, precious stones, and precious metals [source: Bureau van Dijk]",www.robertojoyero.com,5.14066007,2.70678674,3.18189501,14.56622178,9.3199937,10.776498579,0.29526241632885386,0.29042795812190303,0.35291650420003423,0.318190370241256
GARIBALDINA S.R.L.,IT,Italie,RHO,CORSO GIUSEPPE GARIBALDI 23,4772.0,Commerce de détail de chaussures et d'articles en cuir en magasin spécialisé,Engaged in the retail trade of footwear and other related leather products,Retail,Engaged in the retail trade of footwear and other related leather products [source: Bureau van Dijk],www.garibaldinacalzature.it,1.510979,0.485415,1.108136,14.393447,10.760742,14.494441,0.0764524827138901,0.045109807483535984,0.10497686898767196,0.07830106614024242
MGCGROUP MEGACALZADO IBERICA SL,ES,Espagne,ORKOIEN,,4772.0,Commerce de détail de chaussures et d'articles en cuir en magasin spécialisé,Engaged in the retail distribution of footwear and related products,Retail,Engaged in the retail distribution of footwear and related products [source: Bureau van Dijk],www.megacalzado.com,0.60141029,0.58921448,0.38262085,14.35645861,12.70357495,16.17198241,0.02365948962221262,0.04638178483766099,0.04189127042661393,0.03639075311897836
CUMINI TRE S.R.L.,IT,Italie,GEMONA DEL FRIULI,VIA SAN DANIELE 3,4771.0,Commerce de détail d'habillement en magasin spécialisé,Engaged in the sale of clothing and accessories,Retail,Engaged in the sale of clothing and accessories [source: Bureau van Dijk],"www.cumini.it
www.cumini.com",0.435806,0.554449,0.44367,14.340965,12.899452,14.585983,0.03041755910451836,0.04298236855333079,0.030388889450605312,0.03428277355928313
SUIT S.R.L.,IT,Italie,LECCE,VIA 140 REGGIMENTO FANTERIA 12,4771.0,Commerce de détail d'habillement en magasin spécialisé,,,,www.suitnegozi.com,1.822914,1.00396,0.54537,14.267327,12.008573,8.877409,0.06143346555284318,0.08360360552415345,0.12776843202654567,0.09592963211514456
M&A EXPORT S.R.L.,IT,Italie,MAZZE,VIA ITALIA 21,4771.0,Commerce de détail d'habillement en magasin spécialisé,,,,maexport.app,2.176399,0.574867,0.73697,14.259646,6.75549,7.359988,0.10013195673688598,0.08509626984867123,0.1526264396745894,0.12293289009063009
BIG BRAND SOLE SHAREHOLDER CO. LTD,GR,Grèce,RETHYMNO,,4771.0,Commerce de détail d'habillement en magasin spécialisé,Operates as an online clothing store that caters to all those who love athletic and casual outfits,Retail,"Trade of sportswear, sports shoes and sports goods (also sales via internet)",www.heavenofbrands.com,1.269439,0.231812,-0.548456,13.923971,11.848299,12.306058,-0.04456796806905997,0.019565002537495043,0.09116932231473335,0.025021975754817804
BRENTA,RU,Fédération de Russie,MOSCOW,,4771.0,Commerce de détail d'habillement en magasin spécialisé,Engaged in the marketing and sale of furniture and home furnishings,Wholesale; Retail,Engaged in the marketing and sale of furniture and home furnishings [source: Bureau van Dijk],,1.18507808159064,0.233307697231023,1.21054251623403,13.7572428094935,7.67235947450679,10.5545411347477,0.11469399766217002,0.03040885897046957,0.08614212149929126,0.08219473820626713
ADAMAKOS BROS S.A.,GR,Grèce,PERISTERI,,4771.0,Commerce de détail d'habillement en magasin spécialisé,Engaged in the wholesale and retail marketing of men's fashion and clothing items,Wholesale; Retail,"Imports and trade of men's wear, shoes and accessories (also via internet). Real Estate lessors",www.adamakos.gr,3.390475,0.682597,1.465473,13.747056,9.284679,14.731469,0.09947908114255272,0.07351864291700337,0.24663280632595078,0.14666512407156976
GLEN,RU,Fédération de Russie,MOSCOW,"UL. KASATKINA D. 3, ET 4 POM4",4771.0,Commerce de détail d'habillement en magasin spécialisé,Engaged in the operation of a chain of family clothing store,Retail,"Retail sale of clothing (brands Glenfield, Flo&Jo, Braccialini)","www.flo-jo.ru
glenfield.ru",0.730047649588652,0.577334513001422,0.293781630764576,13.6150101462518,9.88784495497387,20.5654331139989,0.014285214862049207,0.058388305604549974,0.053620793649546666,0.036333696138473676
PROGETTO MODA S.R.L.,IT,Italie,ALTAMURA,PIAZZA ZANARDELLI N. 11,4771.0,Commerce de détail d'habillement en magasin spécialisé,Engaged in the retail distribution of clothing and accessories,Retail,Engaged in the retail distribution of clothing and accessories [source: Bureau van Dijk],"www.anteprimaextra.com
www.progettomoda.it",0.714603,0.852242,0.317995,13.596093,11.15043,10.813372,0.029407570552460422,0.07643131251440528,0.052559437479575935,0.05300465594738118
"UNIFATO - CONFECCOES DO CENTRO, LDA",PT,Portugal,REGUENGO DO FETAL,,4771.0,Commerce de détail d'habillement en magasin spécialisé,Engaged in the retail sale of clothing,Retail,Engaged in the retail sale of clothing [source: Bureau van Dijk],www.unifato.pt,0.79616192,-0.36129377,1.41200789,13.32746899,16.2998126,27.64323864,0.05107968383837676,-0.022165516798640986,0.059738418494718254,0.032248284677402865
MARC TENSEN,BE,Belgique,ANTWERPEN,,4777.0,Commerce de détail d'articles d'horlogerie et de bijouterie en magasin spécialisé,Engaged in the operation of jewelry and watch stores,Retail,Engaged in the operation of jewelry and watch stores [source: Bureau van Dijk],www.tensen.be,1.584071,0.258974,0.107552,12.977054,8.94107,10.506475,0.010236734965818697,0.028964542275141565,0.12206707315851502,0.06015793749677521
CAMPARINI S.R.L.,IT,Italie,REGGIO NELL'EMILIA,VIA EMILIA SAN PIETRO 29/C,4777.0,Commerce de détail d'articles d'horlogerie et de bijouterie en magasin spécialisé,"Engaged in the wholesale of jewelry, watches, precious stones, and precious metals",Wholesale,"Engaged in the wholesale of jewelry, watches, precious stones, and precious metals [source: Bureau van Dijk]",www.camparinigioielli.com,1.946484,1.490668,1.332705,13.200859,11.045743,11.74519,0.11346815164335358,0.1349540723516743,0.14745131358497202,0.13252624376135538
NIKOLAOS P. SAKELLARIS S.A.,GR,Grèce,ATHENS,,4772.0,Commerce de détail de chaussures et d'articles en cuir en magasin spécialisé,,,"Representation, imports and trade of anatomic shoes (sales also via internet)",www.sakellaris.gr,3.69718,1.675193,3.250056,13.185842,8.397243,10.689627,0.30403829806222427,0.19949321461817884,0.28039013359935605,0.2671739827752933
FILNUM S.P.A.,IT,Italie,PARMA,GALLERIA POLIDORO 2/C,4777.0,Commerce de détail d'articles d'horlogerie et de bijouterie en magasin spécialisé,Engaged in the professional operator in the gold trade,Wholesale,Engaged in the professional operator in the gold trade [source: Bureau van Dijk],www.filnum.it,0.054363,0.213313,0.188272,13.169115,16.934133,16.431068,0.011458293520542912,0.012596629541057698,0.004128067831437421,0.009798102544367472
LOSCHI SRL,IT,Italie,TREVISO,VIA MARTIRI DELLA LIBERTA' 10,4771.0,Commerce de détail d'habillement en magasin spécialisé,Operates as a clothing store,Retail,Operates as a clothing store [source: Bureau van Dijk],"loschiboutique.com
www.loschiboutique.com",0.681697,0.46465,0.327022,13.088696,11.976614,12.049832,0.027139133558044624,0.03879644113102418,0.05208288128932018,0.039697248093513965
GROUP 88 NUF,NO,Norvège,OSLO,,4772.0,Commerce de détail de chaussures et d'articles en cuir en magasin spécialisé,,,,group88.dk,0.61546075559982,0.0325249106210397,0.401289117047672,12.6805375272736,11.1400071294694,12.1159610679613,0.03312070043777346,0.00291964899510696,0.04853585696001234,0.029198019176005063
YAR,RU,Fédération de Russie,KRASNOYARSK,,4771.0,Commerce de détail d'habillement en magasin spécialisé,Engaged in the retail sale of clothing in specialised stores,Retail,Engaged in the retail sale of clothing in specialised stores [source: Bureau van Dijk],,1.56439291386727,0.386463445143814,1.33753969517352,12.6302319732738,8.1201999422224,13.3906245346719,0.09988628175708106,0.047592848438907244,0.12386098031909497,0.09631793494686697
LAATUKORU OY,FI,Finlande,HYVINKAA,,4777.0,Commerce de détail d'articles d'horlogerie et de bijouterie en magasin spécialisé,Engaged in the retail sale of jewelry products and other valuable goods in Finland,Retail,"Yhtion toimialana on kello- ja kultasepanalan kauppa ja valmistustoiminta seka kaikki niihin liittyva toiminta. Yhtio voi harjoittaa kaytettyjen tavaroiden osto-, myynti- ja valitysliiketoimintaa. Yhtio voi myos omistaa ja hallita kiinteistoja seka vuokrata niissa sijaitsevia huoneistoja ulkopuolisille. Lisaksi yhtio voi kayda arvopaperikauppaa ja harjoittaa sijoitustoimintaa. Yhtio voi antaa vakuuksia ja takauksia muiden yhtioiden ja henkiloiden veloista ja vastuista.",www.laatukoru.fi,0.11,0.24,0.119,12.332,9.873,9.359,0.012715033657442034,0.024308720753570344,0.008919883230619525,0.014858699784564692
"BUDMIL PRODUCTION, TRADE AND SERVICE PRIVATE COMPANY LIMITED BY SHARES",HU,Hongrie,BUDAPEST,,4771.0,Commerce de détail d'habillement en magasin spécialisé,"Engaged in the wholesale distribution of clothing, footwear, and leather goods for men, women, and children",Wholesale,"Engaged in the wholesale distribution of clothing, footwear, and leather goods for men, women, and children [source: Bureau van Dijk]","www.budmil.eu
budmil.eu",2.33958739324082,0.717100563463377,0.508331226380016,12.5990068744653,9.44343689934094,10.1005167634557,0.050327249415514086,0.07593639594430114,0.18569617562337523,0.11091135114798903
CROSS POLAND SP. Z O.O.,PL,Pologne,ZAKRET,,4771.0,Commerce de détail d'habillement en magasin spécialisé,"Engaged in the wholesale trade of wearing apparel, accessories and other textile products",Wholesale,"Engaged in the wholesale trade of wearing apparel, accessories and other textile products [source: Bureau van Dijk]",www.crossjeans.pl,0.716125314455726,0.15915245605181,0.573325703134871,12.5466546894044,11.7406376537293,11.7112205361532,0.04895524777840039,0.013555690989343902,0.05707699240822264,0.04024064767619652
LLC BRAND OUTLET,RU,Fédération de Russie,MOSCOW,"UL. MOLODOGVARDEISKAYA D. 2, K. 3, KV. 71",4771.0,Commerce de détail d'habillement en magasin spécialisé,,,"Trade in clothing, footwear, household goods.",wossoutlet.com,0.880088372635693,0.392133428896852,0.319894275347243,12.5366422153336,8.01431244407958,11.5854585650089,0.02761170596331914,0.048929141661619775,0.07020128336750765,0.04954243231070537
FERNER JACOBSEN AKTIESELSKAP,NO,Norvège,OSLO,,4771.0,Commerce de détail d'habillement en magasin spécialisé,Engaged in the retail trade of clothing apparels,Retail,Engaged in the retail trade of clothing apparels [source: Bureau van Dijk],,0.846886264280165,0.456284344190666,0.51736457033317,12.4778580460986,9.89600109386553,11.4003711229187,0.045381379672200996,0.04610795207707827,0.06787112508824841,0.05390308423415739
RECMAN SP. Z O.O.,PL,Pologne,SUWALKI,,4771.0,Commerce de détail d'habillement en magasin spécialisé,Engaged in the wholesale trade of clothing and footwear products,Wholesale,Engaged in the wholesale trade of clothing and footwear products [source: Bureau van Dijk],www.recman.pl,0.614567305998142,-0.527978515648714,0.428939508069016,12.3881198111055,9.50274596584006,15.5538622275649,0.02757768468006871,-0.055560626112353385,0.049609409286403956,0.013767713798224017
JS GROUP,RU,Fédération de Russie,MOSCOW,"PR-KT VOLGOGRADSKII D. 42, K. 23",4771.0,Commerce de détail d'habillement en magasin spécialisé,Engaged in selling pantyhose and underwear,Retail,Engaged in selling pantyhose and underwear [source: Bureau van Dijk],"js-company.ru
www.js-company.ru",0.627045435992714,1.02506466974907,2.15932590142022,12.3503659148948,12.3657381660193,19.2617852157865,0.11210414181394195,0.08289555026855726,0.05077140550438947,0.08666709721896439
SARL MAILLOCHON,FR,France,LIMOGES,,4771.0,Commerce de détail d'habillement en magasin spécialisé,Engaged in the retail of clothing,Retail,Engaged in the retail of clothing [source: Bureau van Dijk],www.imajeans.fr,1.023579,0.248027,0.329749,12.252962,9.430987,11.061576,0.02981030912774093,0.026299156175276246,0.08353727041673678,0.04890301804597728
"VESNA, A.S.",CZ,République tchèque,CEPERKA,,4751.0,Commerce de détail de textiles en magasin spécialisé,Engaged in the wholesale of textile products. It is a privately held company based in Czech Republic,Wholesale,Engaged in the wholesale of textile products. It is a privately held company based in Czech Republic [source: Bureau van Dijk],"www.vesna.cz
www.ivesna.cz",0.275001212422797,0.189414927199084,0.215760580048002,12.2079300837272,11.4326445236288,12.0574866555733,0.01789432459776114,0.016567901399156107,0.022526440644459887,0.019053603910311325
SMART RETAIL EOOD,BG,Bulgarie,SOFIA,,4771.0,Commerce de détail d'habillement en magasin spécialisé,Engaged in the operation and management of clothing stores,Retail,Engaged in the operation and management of clothing stores [source: Bureau van Dijk],"www.orsay-fashion.bg
orsay-fashion.bg",0.340510369816038,0.527641468457993,1.77059552019623,12.075847484512,10.8820940064534,13.9873467069039,0.12658551741784568,0.04848712647998502,0.02819763749523692,0.07142310933772719
RETAIL 2000 S.R.L.,IT,Italie,RHO,VIA ACHILLE GRANDI 2,4771.0,Commerce de détail d'habillement en magasin spécialisé,Engaged in the operation of a chain of family clothing stores,Retail,Engaged in the operation of a chain of family clothing stores [source: Bureau van Dijk],www.matiasfashionoutlet.com,2.627153,2.514958,2.849025,11.972171,11.795704,15.800758,0.18030938768886912,0.21320965666822428,0.21943831239964748,0.2019563324312973
ROCALE' SRL,IT,Italie,MILANO,VIA BENEDETTO CROCE 9,4772.0,Commerce de détail de chaussures et d'articles en cuir en magasin spécialisé,Operates as a shoe store,Retail,Operates as a shoe store [source: Bureau van Dijk],www.rocalecalzature.it,0.33638,0.299484,0.189089,11.912008,9.371064,12.052466,0.01568882251980632,0.03195837740516978,0.02823873187459243,0.02474695323651294
3F AZZARO S.R.L.,IT,Italie,MOLFETTA,VIA ADRIANO OLIVETTI 8/A,4771.0,Commerce de détail d'habillement en magasin spécialisé,,,,www.fratelliazzaro.it,0.309759,0.215051,0.140309,11.862047,9.619712,8.358661,0.016786061786690475,0.022355243067567927,0.026113452425201147,0.02228919700191887
RABINO MARIO & C. S.R.L.,IT,Italie,CUNEO,CORSO NIZZA 10,4777.0,Commerce de détail d'articles d'horlogerie et de bijouterie en magasin spécialisé,,,,"www.gioielleriarabino.com
www.gioielleriaerredue.com",1.571183,0.349933,0.181453,11.840437,9.215148,9.231671,0.01965548815593623,0.037973671177066286,0.13269636923029107,0.06942091419572641
LU.CA S.R.L.,IT,Italie,BRESCIA,CORSO GIUSEPPE ZANARDELLI 15/A,4777.0,Commerce de détail d'articles d'horlogerie et de bijouterie en magasin spécialisé,,,,www.pasinigioielli.com,0.635317,0.547846,0.345847,11.680987,6.482358,6.564414,0.052685129243828926,0.08451338232167988,0.0543889827118205,0.06183374724737491
MONTI - S.R.L.,IT,Italie,CESENA,VIA FANTAGUZZI 13,4772.0,Commerce de détail de chaussures et d'articles en cuir en magasin spécialisé,"Engaged in the wholesale trade of apparel, accessories and other textile products",Wholesale,"Engaged in the wholesale trade of apparel, accessories and other textile products [source: Bureau van Dijk]","www.montiboutique.com
www.omvvicariemonti.it",1.056149,0.80404,0.846438,11.655234,11.243164,12.054039,0.07022028052174048,0.0715136771108204,0.09061585550320139,0.07743743304651403
MARASMA S.R.L.,IT,Italie,NOVATE MILANESE,VIA ENRICO FERMI 7,4771.0,Commerce de détail d'habillement en magasin spécialisé,,,,,0.336303,0.026877,0.08229,11.609677,8.748297,11.069638,0.00743384743024117,0.003072255091476661,0.028967472566204903,0.014174478162706098
SOLUX INVEST,BE,Belgique,WAREGEM,,2611.0,Fabrication de composants électroniques,"Engaged in the development, manufacture and sale of a wide variety of electrical and electronic equipment and components and related products principally in Belgium",Manufacturing; Wholesale,"Engaged in the development, manufacture and sale of a wide variety of electrical and electronic equipment and components and related products principally in Belgium [source: Bureau van Dijk]",,3.35857,3.710702,4.047987,11.532561,11.536777,11.488617,0.3523476324434873,0.3216411307941551,0.29122499330374235,0.32169898363488236
RONCHI - OREFICERIA OROLOGERIA S.R.L.,IT,Italie,MILANO,VIA MAURIZIO GONZAGA 0005,4777.0,Commerce de détail d'articles d'horlogerie et de bijouterie en magasin spécialisé,Engaged in the retail distribution of a wide range of watches,Retail,Engaged in the retail distribution of a wide range of watches [source: Bureau van Dijk],www.ronchigioielli.com,2.340515,1.828246,1.971636,11.51454,9.490069,12.632031,0.15608226420596974,0.1926483358550923,0.20326604449678407,0.18255084336604369
"VIEIRA & FRANK - IMPORTACAO E REPRESENTACAO DE CALCADO E CONFECCAO, LDA",PT,Portugal,LISBOA,,4772.0,Commerce de détail de chaussures et d'articles en cuir en magasin spécialisé,Engaged in the retail sale of clothing products and accessories in Portugal,Retail,Engaged in the retail sale of clothing products and accessories in Portugal [source: Bureau van Dijk],"www.stivali.pt
stivali.pt",0.84930731,0.67030306,1.00060562,11.39130385,9.23385272,12.12500392,0.0825241481653888,0.07259191589098683,0.07455751520489905,0.07695278289611826
GRIFO MODA S.R.L.,IT,Italie,ISCHIA,VIA FASOLARA 49/16,4771.0,Commerce de détail d'habillement en magasin spécialisé,,,,www.grifo210.com/it,0.190739,0.134241,0.095855,11.343398,8.956114,7.366541,0.01301221292327023,0.014988755167698849,0.0168149790741716,0.015211241010779529
HEREDEROS DE ANTONIO MOYA BARRIONUEVO SL,ES,Espagne,TORREMOLINOS,,4771.0,Commerce de détail d'habillement en magasin spécialisé,Engaged in the manufacture and distribution of clothing and other related products,Manufacturing,Engaged in the manufacture and distribution of clothing and other related products [source: Bureau van Dijk],www.basesantagema.es,0.22899867,0.14107988,0.39878007,11.29596249,8.81983173,11.37523589,0.035056861576872315,0.01599575641790617,0.02027261246686381,0.024415162581672686
ORA - KESSARIS S.A.,GR,Grèce,ATHENS,,4777.0,Commerce de détail d'articles d'horlogerie et de bijouterie en magasin spécialisé,Engaged in importing and trading of watches and jewelry,Wholesale,"Representations, exclusive imports and trade of watches and jewellery (also sales via internet)",www.kessaris.gr,1.26552,0.209519,0.921178,11.270171,6.003045,11.218794,0.08211025177929107,0.03490212050717594,0.11228933438543214,0.08410136736579835
"MUNDO DOS FATOS - COMERCIO DE VESTUARIO, LDA",PT,Portugal,SANTA MARTA,,4771.0,Commerce de détail d'habillement en magasin spécialisé,Engaged in the retail trade of clothing apparels,Retail,Engaged in the retail trade of clothing apparels [source: Bureau van Dijk],"www.mundodosfatos.com
suitsinc.com/pt",1.35255903,-0.39493261,1.47610327,11.184273059,5.449976609,11.07689417,0.13325967074758105,-0.07246501009707361,0.12093401358004166,0.0878249452360264
GROENHAUG RETAIL AS,NO,Norvège,BERGEN,,4771.0,Commerce de détail d'habillement en magasin spécialisé,Engaged in the retail sale of family clothing,Retail,Engaged in the retail sale of family clothing [source: Bureau van Dijk],,0.545871252851033,0.200532001351802,0.223958129701347,11.1768965933108,8.80907752103111,11.8353101796949,0.018922877922167,0.022764245276879973,0.04883925052842741,0.03049409869626236
ABATE & C. S.R.L.,IT,Italie,SANREMO,CORSO IMPERATRICE 3,4777.0,Commerce de détail d'articles d'horlogerie et de bijouterie en magasin spécialisé,Engaged in the operation of jewelry stores,Wholesale; Retail,Engaged in the operation of jewelry stores [source: Bureau van Dijk],"www.abategioielli.it
abate1920.com",1.73575,1.590337,1.438846,11.091574,8.739831,12.149721,0.11842625851243828,0.1819642736798915,0.15649266731664954,0.14899203361382585
DENIS SHOES SRL,RO,Roumanie,SUCEAVA,,4772.0,Commerce de détail de chaussures et d'articles en cuir en magasin spécialisé,Operates as a shoe store engaged in the retail distribution of shoes,Retail,Operates as a shoe store engaged in the retail distribution of shoes [source: Bureau van Dijk],www.denisshoes.com,0.924301664595818,0.105624658816571,0.209065049240677,11.0437109391739,8.07828451977616,11.1138463899802,0.0188112235768493,0.013075134771249396,0.08369484403264889,0.04097757154715708
RAZZIA SL,ES,Espagne,ARAFO,,4771.0,Commerce de détail d'habillement en magasin spécialisé,Engaged in the retail sale of apparel,Retail,Engaged in the retail sale of apparel [source: Bureau van Dijk],razzia.es,2.36864033,0.03623479,0.70094204,11.01600909,7.24174104,12.90650948,0.05430918724277728,0.00500360200673511,0.21501800794174905,0.09965958437220193
KUBENZ BERNACIAK SP.K.,PL,Pologne,ELK,,4771.0,Commerce de détail d'habillement en magasin spécialisé,Operates as a clothing store,Retail,Operates as a clothing store [source: Bureau van Dijk],kubenz.pl,0.969694132146396,-0.474204933767449,2.61231192209245,10.9391240715918,9.13326941936556,16.9988961440925,0.15367538573969622,-0.05192061155690615,0.08864458669635433,0.08383309971318231
"MODARTE, LDA",PT,Portugal,BRAGA,,4772.0,Commerce de détail de chaussures et d'articles en cuir en magasin spécialisé,Engaged in the wholesale and retail distribution of travel products in Portugal,Wholesale; Retail,Engaged in the wholesale and retail distribution of travel products in Portugal [source: Bureau van Dijk],www.modarte.pt,0.47469037,-1.15617037,1.2760215,10.919741899,8.727032229,18.35246346,0.06952862228992554,-0.13248150570110606,0.0434708415629742,0.01564614286334402
MAX FASHION SRL,IT,Italie,MILANO,VIALE SAN GIMIGNANO 4/A,4771.0,Commerce de détail d'habillement en magasin spécialisé,,,,,-0.204153,0.147119,0.495764,10.916687,7.858534,9.407811,0.05269706204769632,0.018720921739347314,-0.018701003335535774,0.015567168216677325
TORELLI SRL,IT,Italie,TREVIGLIO,VIA ROMA 2/4,4777.0,Commerce de détail d'articles d'horlogerie et de bijouterie en magasin spécialisé,"Involved in the retail distribution of a range of jewelry and other related products; and provision of engraving, personalization, and customization services, as well as jewelry repair services",Retail,"Involved in the retail distribution of a range of jewelry and other related products; and provision of engraving, personalization, and customization services, as well as jewelry repair services [source: Bureau van Dijk]",www.gioiellerietorelli.com,0.374002,0.282568,0.327695,10.876676,8.057733,10.735244,0.030525156205112806,0.035067927914712485,0.03438568915723885,0.0331741325050212
"ROFINOR - TEXTEIS, LDA",PT,Portugal,CARVALHOSA,,4751.0,Commerce de détail de textiles en magasin spécialisé,Engaged in the manufacture of workwear fabrics,Manufacturing,Engaged in the manufacture of workwear fabrics [source: Bureau van Dijk],www.rofinor.pt,0.72592872,1.15110686,0.36690575,10.87401187,11.73345833,10.22493746,0.03588342241068338,0.09810465317432121,0.06675813201958551,0.06834531762755287
SPORT & MODA D.O.O.,HR,Croatie,ZADAR,,4771.0,Commerce de détail d'habillement en magasin spécialisé,,,"-maloprodaja sportske odjece, obuce i opreme poznatih svjetskih brandova; Nike, Converse, Adidas, Puma, Reebok i 4F. Note COVID-19:;The company's business operations are directly / indirectly affected by the consequences of official measures and recommendations to reduce the risk of corona infections. The Croatian Government proposed a set of measures to mitigate the effects of the special circumstances caused by the coronavirus epidemic. Employment protection measures:;-Croatian Employment Fund (CEF) is providing grants to support job preservation in COVID 19 affected sectors. Tax measures:;-Employers utilizing the grant provided by CEF to support job preservation are exempted from paying contributions on supported net salaries. -Possibility to defer payment of VAT until issued invoices are settled. -Taxpayers whose business activities are during special circumstances banned, disabled or significantly impeded by decisions of the competent authority may be fully or partially exempted from paying their tax obligations. The subject has received: ;- HRK 221.000,00 for 69 employees as support for salaries in March 2020;- HRK 224.000,00 for 56 employees as support for salaries in April 2020;from Croatian Employment Fund (CEF). Further development remains to be seen.",www.sport-moda.hr,1.70536597810322,0.53091704997435,0.325194721258051,10.795955413438,6.95331275175832,6.83286800553938,0.04759271231266532,0.0763545476708342,0.15796341433390024,0.10420077944182017
LARIO SPORT SL,ES,Espagne,VALENCIA,,4772.0,Commerce de détail de chaussures et d'articles en cuir en magasin spécialisé,Engaged in the manufacture and sale of leather and allied products,Manufacturing,Engaged in the manufacture and sale of leather and allied products [source: Bureau van Dijk],www.yacare.es,0.65184376,-1.23442686,0.91753703,10.78341504,8.45243331,13.40534652,0.06844560329948114,-0.14604396328564465,0.060448731462347575,0.01026169327850957
"IZLATO, S.R.O.",SK,Slovaquie,BRATISLAVA,,4777.0,Commerce de détail d'articles d'horlogerie et de bijouterie en magasin spécialisé,,,,izlato.sk,1.672398,1.175668,0.750678,10.615774,7.425527,4.854493,0.15463571582037505,0.1583278870307791,0.15753896041871276,0.15717926183298117
MALI' S.R.L.,IT,Italie,RENDE,VIA GUGLIELMO MARCONI 38,4771.0,Commerce de détail d'habillement en magasin spécialisé,,,,"www.maliziashop.it
www.maligestione.it",0.145964,0.052159,0.082434,10.535079,6.025606,6.521403,0.012640531492993148,0.008656224784693854,0.013855045605258395,0.01215474960497508
CUSI MONTENAPOLEONE S.R.L.,IT,Italie,MILANO,VIA MONTE NAPOLEONE 21/A,4777.0,Commerce de détail d'articles d'horlogerie et de bijouterie en magasin spécialisé,Engaged in the sale of jewelries,Retail,Engaged in the sale of jewelries [source: Bureau van Dijk],www.cusimontenapoleone.com,0.601428,-0.224376,0.920284,10.447562,6.488519,9.603788,0.0958251056770516,-0.034580464355579446,0.057566348972133405,0.04888253216321452
"MALALAN DRUZBA ZA PROIZVODNJO IN TRGOVINO Z ZLATOM IN DRAGIMI KAMNI, URARSTVO, OPTIKA, STARINARNICA, D.O.O., LJUBLJANA",SI,Slovénie,LJUBLJANA,,4777.0,Commerce de détail d'articles d'horlogerie et de bijouterie en magasin spécialisé,,,,"malalan.si
malalan.eu/si",1.9057755,1.14616407,1.27652223,10.40190203,7.01163849,7.90249269,0.16153412348173904,0.16346593904330056,0.18321413665535166,0.17097709440080167
M & G SRL UNIPERSONALE,IT,Italie,ROMA,CIRCONVALLAZIONE CORNELIA 113,4777.0,Commerce de détail d'articles d'horlogerie et de bijouterie en magasin spécialisé,,,,www.mgservice.biz,0.125532,0.062826,0.040923,10.293263,6.786483,4.875503,0.008393595491583125,0.009257519690243092,0.0121955496522337,0.010443106338716542
PUNTO BLU S.P.A. L'INSEGNA RAPPRESENTATIVA DELLA DITTA E' PUNTO BLU,IT,Italie,LEGNAGO,VIALE EUROPA 38,4751.0,Commerce de détail de textiles en magasin spécialisé,Engaged in the retail sale of textiles and related products in Italy,Retail,Engaged in the retail sale of textiles and related products in Italy [source: Bureau van Dijk],"puntoblu.com
www.puntoblu.com",0.344709,0.009656,0.357779,10.254424,8.343734,11.312958,0.03162559252849697,0.001157275627434911,0.03361563750435909,0.02380867367168781
DOCKYARD ISLANDS KERESKEDELMI ES SZOLGALTATO KORLATOLT FELELOSSEGU TARSASAG,HU,Hongrie,BUDAPEST,,4771.0,Commerce de détail d'habillement en magasin spécialisé,"Engaged in the retail sale of apparel, accessories and other textile products",Retail,"Engaged in the retail sale of apparel, accessories and other textile products [source: Bureau van Dijk]","www.dcy.hu
www.dockyard.hu",0.265552190566555,0.910090102217771,0.222855859848743,10.2329135981335,9.48621140545963,9.59476171336588,0.023226825897958055,0.0959382058145978,0.02595078987229914,0.047707701340879975
"SANTOS & JUNIORES, S.A.",PT,Portugal,LISBOA,,4772.0,Commerce de détail de chaussures et d'articles en cuir en magasin spécialisé,Engaged in the retail sale of footwear and leather goods,Retail,Engaged in the retail sale of footwear and leather goods [source: Bureau van Dijk],"www.profonlinestore.com
www.prof.com.pt",0.64040806,0.08525982,0.87543965,10.05840836,7.68329865,10.124980129,0.0864633449988275,0.011096772868512666,0.06366892624351553,0.05745596963189848
LINEA S.A.,GR,Grèce,ATHENS,,4771.0,Commerce de détail d'habillement en magasin spécialisé,Engaged in the retail sale of women's clothing and accessories in Greece,Retail,Exclusive imports and trade of women's wear and accessories,www.lineapiu.gr,3.865414,0.401661,2.907989,10.041588,5.831557,12.248325,0.23741932060098014,0.06887714550333641,0.3849405094094679,0.2551454102506021
MENICHINI MARIO E RENATO - S.P.A.,IT,Italie,ROMA,PIAZZA DI SPAGNA 1,4777.0,Commerce de détail d'articles d'horlogerie et de bijouterie en magasin spécialisé,Engaged in the retail distribution of jewellery,Retail,Engaged in the retail distribution of jewellery [source: Bureau van Dijk],www.menichinigioiellieri.it,0.885295,0.684055,0.24108,9.998059,8.696775,5.558046,0.04337495587478045,0.07865616852223956,0.08854668691192961,0.07464804179957184
TEODOR OOD,BG,Bulgarie,SOFIA,"ZH.K. STORGOZIA, DO BL. 15",4771.0,Commerce de détail d'habillement en magasin spécialisé,Engaged in the retail distribution of men's clothing and accessories,Retail,Engaged in the retail distribution of men's clothing and accessories [source: Bureau van Dijk],www.teodor.bg,1.61665734137885,0.449926833568831,1.10847562454099,9.99443950324912,7.0541369576695,9.00125155444837,0.12314683328599868,0.06378198159020078,0.1617556783302642,0.12188409833706691
US FASHION STORE S.R.L.,IT,Italie,ROGNO,VIA SANTA RITA DA CASCIA 5,4771.0,Commerce de détail d'habillement en magasin spécialisé,,,,www.usfashionstore.it,0.91791,0.05805,0.284877,9.946399,7.294177,9.886534,0.028814648288267658,0.007958402983640237,0.09228566036813927,0.04647885454808861
MORETTO ABBIGLIAMENTO DI MORETTO GRAZIANO - S.R.L.,IT,Italie,CESSALTO,VIA MAGGIORE 193,4771.0,Commerce de détail d'habillement en magasin spécialisé,Engaged in the retail trade of clothing apparels,Retail,Engaged in the retail trade of clothing apparels [source: Bureau van Dijk],"www.morettoabbigliamento.com
morettoshop.com",0.468377,-0.294867,0.038215,9.88173,7.885156,10.476163,0.0036478050217431707,-0.03739520181972303,0.04739827945106778,0.0074965348110963516
MDL EOOD,BG,Bulgarie,SOFIA,,4771.0,Commerce de détail d'habillement en magasin spécialisé,Engaged in the retail sale and marketing of clothing and fashion apparel items,Retail,Engaged in the retail sale and marketing of clothing and fashion apparel items [source: Bureau van Dijk],www.mdl.bg,0.401352312771156,0.289896039356281,0.393181621435433,9.82929708665665,8.09357019931204,12.0735901281877,0.032565427288896324,0.03581806696146558,0.04083224967490249,0.03615193482984724
MAIKL I KO,RU,Fédération de Russie,SAINT-PETERSBURG,,4771.0,Commerce de détail d'habillement en magasin spécialisé,Engaged in wholesaling of miscellaneous non-durable goods,Wholesale,"Sale of children clothes, footwear and toys",www.juniorshop.ru,0.871555363594285,0.349564426361887,1.05112021970978,9.82332360637144,7.02918034473128,13.9071545009156,0.07558125708897372,0.04973046773851846,0.08872306344758828,0.07387078153713558
JACOBER,FR,France,LYON,,4777.0,Commerce de détail d'articles d'horlogerie et de bijouterie en magasin spécialisé,"Engaged in the retail sale of jewelry, watches, precious stones, and precious metals",Retail,"Engaged in the retail sale of jewelry, watches, precious stones, and precious metals [source: Bureau van Dijk]",www.silvana-jacober.ch,1.489988,1.733584,1.40482,9.816189,8.563461,7.912524,0.17754385326350983,0.20243964443815415,0.15178884595640937,0.1760368693741339
GIOIELLERIA DUCA - SOCIETA' A RESPONSABILITA' LIMITATA,IT,Italie,ROMA,VIA DI VIGNA STELLUTI 151,4777.0,Commerce de détail d'articles d'horlogerie et de bijouterie en magasin spécialisé,,,,"ducagioielli.com
www.duca1962.com",0.015554,0.049968,0.144859,9.804386,10.534224,11.77522,0.012302020684114607,0.0047433963811667566,0.0015864328475031482,0.006551102749189367
G & G SPORT S.R.L.,IT,Italie,NAPOLI,VIA COLONNELLO CARLO LAHALLE 24/A,4771.0,Commerce de détail d'habillement en magasin spécialisé,,,,www.ggteamwear.com,0.461105,0.762455,0.508079,9.764495,9.283716,7.501601,0.06772940869555712,0.08212821245285831,0.04722261622336844,0.06522226974714547
ONIBROX S.R.L.,IT,Italie,NOLA,"PRESSO IL CIS,ISOLA 1,TORRE 1",4771.0,Commerce de détail d'habillement en magasin spécialisé,,,,,2.096007,0.399061,1.593418,9.720572,6.12648,9.958205,0.16001056415287696,0.0651370770817827,0.21562589115126146,0.15843616670820215
CASA FRUMOASA STORES SRL,RO,Roumanie,BUCURESTI SECTORUL 1,,4771.0,Commerce de détail d'habillement en magasin spécialisé,,,,"casafrumoasa.ro
www.casafrumoasa.ro",0.366978181492568,0.579980454104831,0.358889496224463,9.70103860100631,7.41830778196666,6.95183954869967,0.05162511213188064,0.0781823120786009,0.037828751805451075,0.05424943064826894
VENDRAMINI ABBIGLIAMENTO S.R.L.,IT,Italie,CASTELFRANCO VENETO,GALLERIA EUROPA 25,4771.0,Commerce de détail d'habillement en magasin spécialisé,Engaged in the retail sale of men's and boys ready-to-wear clothing and accessories,Retail,Engaged in the retail sale of men's and boys ready-to-wear clothing and accessories [source: Bureau van Dijk],"vendraminiabbigliamento.it
www.vendraminiabbigliamento.it",2.045696,0.527543,1.541862,9.676229,8.320057,11.186637,0.1378306992530463,0.06340617618364874,0.21141459136612,0.1410105834840465
MIA MARA DOO,RS,Serbie,BEOGRAD (VRACAR),,4771.0,Commerce de détail d'habillement en magasin spécialisé,,,Retail sale of clothing in specialised stores,miamara.rs,0.394675421616176,0.152663547448949,0.308088339476072,9.65533455293962,7.52134393397251,9.13714861455822,0.03371821478149046,0.02029737621216817,0.04087641080194523,0.032508661900168746
"SPORTINO, LDA",PT,Portugal,BOMBARRAL,,4772.0,Commerce de détail de chaussures et d'articles en cuir en magasin spécialisé,Engaged in the retail of shoes,Retail,Engaged in the retail of shoes [source: Bureau van Dijk],www.sportino.pt,0.53115963,0.12399976,1.04296135,9.62833876,8.850726128,11.42090356,0.09132038848947253,0.014010122808762161,0.05516627979549818,0.056793395717231486
DIARIO SRL,IT,Italie,VICENZA,CONTRA' PORTI 3,4771.0,Commerce de détail d'habillement en magasin spécialisé,,,,"www.diariosrl.it
www.ilnuovodiario.com",0.26682,0.043603,0.062265,9.592487,7.505275,9.428446,0.006603951488930414,0.005809647214792263,0.02781551854070795,0.014049803123009519
ROSSINI 1882 S.P.A.,IT,Italie,ROMA,VIA DI VILLA EMILIANI 48,4777.0,Commerce de détail d'articles d'horlogerie et de bijouterie en magasin spécialisé,"Engaged in the retail sale of jewelry, watches, precious stones, and precious metals",Retail,"Engaged in the retail sale of jewelry, watches, precious stones, and precious metals [source: Bureau van Dijk]",www.rossini-spa.it,1.172228,0.389351,0.504649,9.573703,6.825973,8.264742,0.06106046625532897,0.05703963376356748,0.12244248646526845,0.08377363698587983
TIC S.R.L.,IT,Italie,FOLLONICA,VIA BICOCCHI 12,4771.0,Commerce de détail d'habillement en magasin spécialisé,,,,www.tictac.it,0.300199,0.162013,0.215291,9.523388,7.392153,8.097649,0.026586852554364854,0.02191688943667697,0.03152229017656321,0.027085829516347172
KAMEX II MLEK I KANIA SP.J.,PL,Pologne,CZESTOCHOWA,,4771.0,Commerce de détail d'habillement en magasin spécialisé,,,,www.leecooper.pl,1.4574770292992,0.0153948561031042,0.672474015655742,9.31571821905252,7.05713213503848,10.7834923542203,0.06236143111768036,0.0021814606568961825,0.15645353316058508,0.07899980951416757
VANBRUUN AB,SE,Suède,BORAS,SANDWALLS PLATS 13,4777.0,Commerce de détail d'articles d'horlogerie et de bijouterie en magasin spécialisé,,,"Foretaget ska bedriva handel med adelstenar och adelmetaller.bolaget ska aven bedriva tillverkning, omarbetning ochreparationer av adelstenar och metaller samt darmed forenligverksamhet.",vanbruun.com,1.1184426984001,0.537758921539528,0.33818863760976,9.29619404510895,5.98172090226937,4.71750654608599,0.07168800600612786,0.08990036986438314,0.12031189247695959,0.09974234642671939
ELIS GROUP IMPEX SRL,RO,Roumanie,BUCURESTI SECTORUL 4,,4771.0,Commerce de détail d'habillement en magasin spécialisé,,,,,1.59873262302677,1.04212277985389,0.906278845031535,9.22447437315228,6.54805610820195,4.70553665106198,0.1925984031655559,0.15914994658468945,0.17331422456762,0.17321626230520457
PACIFICO DISTRIBUZIONE S.R.L.,IT,Italie,NAPOLI,CIS DI NOLA ISOLA 2 LOTTO 234/235,4771.0,Commerce de détail d'habillement en magasin spécialisé,,,,studiopacifico.com,0.569266,-0.366453,0.666845,9.215854,6.294371,9.587752,0.06955175728366775,-0.058219161215632184,0.0617702928019476,0.03465052183289514
NITTIS SIA,LV,Lettonie,ROPAZU NOV.,BRIVIBAS GATVE 372,4772.0,Commerce de détail de chaussures et d'articles en cuir en magasin spécialisé,Engaged in the retail distribution of footwear,Retail,Retail trade of footwear.,lv.nsking.eu,1.047649,-0.075115,0.174514,9.190789,7.524616,9.160127,0.019051482583156327,-0.009982569210176307,0.11398901661217552,0.044329446057379616
"BEONTIME - COMERCIO DE RELOGIOS E ACESSORIOS, S.A.",PT,Portugal,LISBOA,,4777.0,Commerce de détail d'articles d'horlogerie et de bijouterie en magasin spécialisé,,,,www.beontime.pt,0.51416241,0.05135378,0.20765865,9.188982379,6.22913764,7.53249709,0.02756836776952542,0.008244123499573208,0.05595422744253365,0.0336886296489519
MAESTRO,FR,France,LYON,,4777.0,Commerce de détail d'articles d'horlogerie et de bijouterie en magasin spécialisé,,,,"www.correodelmaestro.com
www.maestro-immobilier.com",1.476572,0.568614,0.493631,9.187207,6.935514,7.581201,0.06511250658042175,0.08198584848938376,0.1607204452887586,0.1071053558141138
CITOREL SL.,ES,Espagne,MADRID,,4777.0,Commerce de détail d'articles d'horlogerie et de bijouterie en magasin spécialisé,,,,citorel.pymes.com,1.502017,0.788846,1.764818,9.123231,5.262626,10.886362,0.16211274253051663,0.14989588847848964,0.1646365196715944,0.16047981382244272
MATRANGA S.R.L.,IT,Italie,PALERMO,VIA RUGGIERO SETTIMO 56/56 A,4777.0,Commerce de détail d'articles d'horlogerie et de bijouterie en magasin spécialisé,"Engaged in the retail sale of jewelry, watches, precious stones, and precious metals",Retail,"Engaged in the retail sale of jewelry, watches, precious stones, and precious metals [source: Bureau van Dijk]",www.matranga.it,0.633153,0.522908,0.416219,9.084752,9.041595,9.354485,0.0444940581977522,0.05783360126172429,0.06969403237424643,0.057213697168994014
SKOINVEST ALP AS,NO,Norvège,STJOERDAL,,4772.0,Commerce de détail de chaussures et d'articles en cuir en magasin spécialisé,Engaged in the sale of leather products in Nord-Trøndelag,Wholesale,Engaged in the sale of leather products in Nord-Troendelag [source: Bureau van Dijk],,0.285298564207857,0.0793911830030242,0.272318486363883,8.9271422312029,7.62441967597996,9.14304755668938,0.029784214144729575,0.010412750920983389,0.031958554800511345,0.02479151257272176
DAL BEN ABBIGLIAMENTO S.P.A.,IT,Italie,MONASTIER DI TREVISO,VIA DON ORIONE 2,4771.0,Commerce de détail d'habillement en magasin spécialisé,,,,www.dalben.it,0.373035,0.278745,0.345402,8.980563,5.56749,8.059412,0.04285697269230063,0.05006654704364085,0.04153804165729921,0.044108527869002566
KETER BANCO METALLI - SOCIETA' A RESPONSABILITA' LIMITATA,IT,Italie,ROMA,VIA MERULANA 7,4777.0,Commerce de détail d'articles d'horlogerie et de bijouterie en magasin spécialisé,,,,www.ketercomprooro.it,0.047517,0.015149,0.049812,8.855071,10.577606,8.271435,0.006022171485358949,0.0014321766191707273,0.005366077810104514,0.0040599749235781316
VERONESI GIULIO S.R.L.,IT,Italie,BOLOGNA,PIAZZA ENZO RE 1/H,4777.0,Commerce de détail d'articles d'horlogerie et de bijouterie en magasin spécialisé,Engaged in the manufacture and retail distribution of jewelry,Manufacturing; Retail,Engaged in the manufacture and retail distribution of jewelry [source: Bureau van Dijk],www.giulioveronesi.it,0.884902,0.476002,0.695345,8.822584,7.155758,8.280045,0.08397840832990643,0.06652013665079227,0.10029964010543849,0.08476445692782458
FERDINANDO VERONESI & FIGLI - S.R.L.,IT,Italie,BOLOGNA,PIAZZA MAGGIORE 4/A,4777.0,Commerce de détail d'articles d'horlogerie et de bijouterie en magasin spécialisé,Engaged in the retail distribution of jewellery,Retail,Engaged in the retail distribution of jewellery [source: Bureau van Dijk],"ferdinandoveronesi.com
www.ferdinandoveronesi.com",2.156762,1.084677,1.522407,8.788234,5.864732,6.83602,0.2227037077129675,0.1849491161744475,0.2454147215470139,0.22168779857737353
BECHA - B EOOD,BG,Bulgarie,SOFIA,,4777.0,Commerce de détail d'articles d'horlogerie et de bijouterie en magasin spécialisé,,,,,1.00568152766989,0.597686895956776,0.820108349522021,8.77504425998898,7.03777598190336,6.75566809366238,0.12139559524710519,0.08492553577914996,0.11460700343762743,0.1073832122522228
PALLAGROSI SHOES S.R.L.,IT,Italie,ROMA,VIA FONTANA DELL'OSTE 78/C,4772.0,Commerce de détail de chaussures et d'articles en cuir en magasin spécialisé,"Engaged in the retail of high quality, fashionable footwear for men, women and kids",Retail,"Engaged in the retail of high quality, fashionable footwear for men, women and kids [source: Bureau van Dijk]",www.gullivermoda.com,0.562857,0.483618,0.506662,8.727102,7.056584,8.544724,0.05929530316017228,0.0685342936468977,0.06449529293916813,0.06384046470772238
LO SCRIGNO S.R.L.,IT,Italie,OSTUNI,VIALE POLA 32,4777.0,Commerce de détail d'articles d'horlogerie et de bijouterie en magasin spécialisé,Engaged in the management and operation of jewelry stores,Retail,Engaged in the management and operation of jewelry stores [source: Bureau van Dijk],"www.gioiellerialoscrigno.it
www.loscrignodelbuongustaio.it",0.511839,0.719193,0.586974,8.721677,8.413464,8.932354,0.06571324871360898,0.0854812001335003,0.058685846770064984,0.06974225946912045
GIOIELLERIA ANGELINI S.R.L.,IT,Italie,SARONNO,PIAZZA LIBERTA' 10,4777.0,Commerce de détail d'articles d'horlogerie et de bijouterie en magasin spécialisé,,,,www.gioielleria-angelini.com,0.146257,0.143125,0.191659,8.717273,8.190084,9.478936,0.02021946345032818,0.017475400740700583,0.01677783866583047,0.01823071547033909
DELIBERTI G.2 S.R.L.,IT,Italie,NAPOLI,VIA JOHN FITZGERALD KENNEDY 5,4772.0,Commerce de détail de chaussures et d'articles en cuir en magasin spécialisé,Engaged in the retail trade and marketing of shoes and footwear products as well as leather items,Retail,Engaged in the retail trade and marketing of shoes and footwear products as well as leather items [source: Bureau van Dijk],"www.deliberti.it
deliberti.it",0.106004,0.23685,0.129673,8.681105,6.27078,7.477595,0.017341538288714486,0.03777042090457646,0.012210887899639504,0.021067229378478682
BRANDO KIDS AS,NO,Norvège,TRONDHEIM,POSTBOKS 4074 BAKKLANDET,4771.0,Commerce de détail d'habillement en magasin spécialisé,"Engaged in the retail distribution of knitted and crocheted apparel for men, women, and children",Retail,"Engaged in the retail distribution of knitted and crocheted apparel for men, women, and children [source: Bureau van Dijk]",brandokids.com.au,-0.00280293326239298,0.149992969091153,0.0315305470063915,8.63033161966736,7.91275010955774,9.54787544799653,0.003302362622776744,0.018955858205351114,-0.0003247770057879901,0.00684990518443613
BENICOM S.R.L.,IT,Italie,ERBA,VIALE PREALPI 20,4772.0,Commerce de détail de chaussures et d'articles en cuir en magasin spécialisé,Engaged in the retail sale of apparel products,Retail,Engaged in the retail sale of apparel products [source: Bureau van Dijk],www.taurussport.com,2.209091,1.433461,0.362168,8.577793,6.101573,7.535297,0.04806286998375777,0.23493302464790639,0.25753605851761635,0.18027372281091997
GUCAMASI SA,ES,Espagne,PONTEVEDRA,,4771.0,Commerce de détail d'habillement en magasin spécialisé,"Operates as a clothing store engaged in the retail distribution of a general line of new clothing and a range of accessories for men, women, and children",Retail,"Operates as a clothing store engaged in the retail distribution of a general line of new clothing and a range of accessories for men, women, and children [source: Bureau van Dijk]",,0.97435921,0.18034541,0.82789616,8.55196768,8.173374859,13.23589407,0.06254931896716215,0.022064986998781184,0.11393392099442545,0.06617219462178173
VEGAS S.R.L.,IT,Italie,TERRICCIOLA,VIA SALAIOLA 35/37,4771.0,Commerce de détail d'habillement en magasin spécialisé,Engaged in the retail distribution of knitted and crocheted apparel,Retail,Engaged in the retail distribution of knitted and crocheted apparel [source: Bureau van Dijk],"www.manginimagazzini.it
shop.manginimagazzini.it",0.245145,0.073362,0.139412,8.519953,6.234406,7.346021,0.018977892930063772,0.011767279833876716,0.028773046048493463,0.020719960471267913
SA ROUMEGOUX & GILLES,FR,France,GRADIGNAN,,4771.0,Commerce de détail d'habillement en magasin spécialisé,Engaged in the wholesale of clothing and footwear,Wholesale,Engaged in the wholesale of clothing and footwear [source: Bureau van Dijk],www.roumegouxetgilles.com,0.73414,0.061332,0.212386,8.503124,6.950772,9.315834,0.02279838820657388,0.008823768064899842,0.08633768012791534,0.04068909915449219
FORTE S.R.L.,IT,Italie,TREVIGLIO,VIALE CESARE BATTISTI 29,4772.0,Commerce de détail de chaussures et d'articles en cuir en magasin spécialisé,,,,"www.pozzilei.it
fortesrl.it",0.523849,0.470646,0.430056,8.445537,7.600311,8.852721,0.04857896233259808,0.06192457124451881,0.062026724884397526,0.0572141716256866
UAB BALTIJOS ARSENALAS,LT,Lituanie,KAUNO M.,,4771.0,Commerce de détail d'habillement en magasin spécialisé,,,,www.aic.lt,0.881085,0.339299,0.413635,8.437127,6.822026,7.30578,0.05661750011634623,0.04973581161959805,0.10442950544658151,0.07241408605113074
COMERCIO Y DISTRIBUCION DE TEJIDOS DEL MEDITERRANEO SL,ES,Espagne,ONTINYENT,,4751.0,Commerce de détail de textiles en magasin spécialisé,,,,www.cndfabrics.com,0.38797541,0.25957566,0.13173053,8.38379948,5.85657475,5.7277447,0.02299867345693673,0.04432209458267394,0.046276799788155236,0.03902628999415721
RUBINO KIDS S.R.L.,IT,Italie,AVERSA,PIAZZA VITTORIO EMANUELE 61,4771.0,Commerce de détail d'habillement en magasin spécialisé,,,,"www.rubinobimbi.it
www.rubinokids.it",0.586405,0.474206,0.172038,8.373723,7.605756,5.106363,0.03369090681567292,0.062348305677962845,0.07002918534563418,0.0584586093360654
PIKE SRL,IT,Italie,POGLIANO MILANESE,VIA SAN GIOVANNI BOSCO 24,4771.0,Commerce de détail d'habillement en magasin spécialisé,,,,www.hangar107.it,0.218681,-0.065442,0.279078,8.358118,6.175362,7.681125,0.03633295903920324,-0.010597273487772863,0.026163904362202114,0.019460935722242192
GUCCI BELGIUM,BE,Belgique,BRUSSEL,BOULEVARD DE WATERLOO 49,4771.0,Commerce de détail d'habillement en magasin spécialisé,,,,www.daelenberghutte.be,0.16698,0.337895,0.404738,8.326484,7.588661,10.20438,0.03966316424907736,0.044526300489638425,0.02005408285177753,0.03482502074597451
ERRANI S.R.L.,IT,Italie,FAENZA,VIA EVANGELISTA TORRICELLI 25,4777.0,Commerce de détail d'articles d'horlogerie et de bijouterie en magasin spécialisé,Engaged in the retail distribution of watches and jewelry,Retail,Engaged in the retail distribution of watches and jewelry [source: Bureau van Dijk],"www.gioielleriaerrani.it
www.erranijobs.com",2.557905,1.26813,0.487469,8.325916,6.844555,4.244049,0.11485941844686523,0.1852757410817796,0.30722205220422594,0.22217927612941243
MANGANARO RAFFAELE & C. - S.R.L.,IT,Italie,CATANIA,VIALE VITTORIO VENETO 287,4771.0,Commerce de détail d'habillement en magasin spécialisé,Engaged in the sale of motorcycle and motorcycle parts and supplies,Retail; Services,Engaged in the sale of motorcycle and motorcycle parts and supplies [source: Bureau van Dijk],www.manganaro.it,0.032998,0.051951,0.043543,8.318291,5.4344,5.865893,0.00742308119155941,0.009559656999852789,0.003966920609052989,0.0065495042863440095
FRANCESCO ESPOSITO GIOIELLERIE S.R.L.,IT,Italie,NAPOLI,PIAZZA VANVITELLI 5,4777.0,Commerce de détail d'articles d'horlogerie et de bijouterie en magasin spécialisé,,,,,0.095172,-0.033832,0.27084,8.313316,4.87444,7.593456,0.03566755374627838,-0.006940694725958265,0.01144813934656159,0.015984630732798454
GONZATO S.R.L.,IT,Italie,COLOGNOLA AI COLLI,VIA STRA' 166,4772.0,Commerce de détail de chaussures et d'articles en cuir en magasin spécialisé,Engaged in the retail sale and marketing of footwear and clothing,Retail,Engaged in the retail sale and marketing of footwear and clothing [source: Bureau van Dijk],"www.gonzatostyle.it
gonzatostyle.it",0.983916,0.475553,0.557771,8.305129,7.008859,8.012425,0.06961325691036109,0.06785027348959367,0.11847088708676289,0.08647879123121073
"COMERCIO TEXTIL ATLANTIC SUD, LDA",PT,Portugal,RIO COVO (SANTA EULALIA),,4771.0,Commerce de détail d'habillement en magasin spécialisé,,,,www.forcaportugal.com,0.48553285,-0.81343513,0.83524406,8.28778415,4.31011559,9.58005826,0.0871856973446005,-0.18872698725001016,0.058584157262348585,0.022875946469012164
EMPORIO COM SRL,RO,Roumanie,CONSTANTA,,4771.0,Commerce de détail d'habillement en magasin spécialisé,Engaged in the retail sale of clothing products,Retail,Engaged in the retail sale of clothing products [source: Bureau van Dijk],,0.346283696826051,0.410579000775475,0.475030617560506,8.27696885879397,7.27452812841945,16.0302936661057,0.02963330725281136,0.05644063690831892,0.0418370182048151,0.03900644294317634
"PIRES & IRMAO, LDA",PT,Portugal,BRAGA,,4777.0,Commerce de détail d'articles d'horlogerie et de bijouterie en magasin spécialisé,"Engaged in the wholesale distribution of the watches, clocks and electronic items for upscale consumer market and promotion market",Wholesale,"Engaged in the wholesale distribution of the watches, clocks and electronic items for upscale consumer market and promotion market [source: Bureau van Dijk]","www.piresjoalheiros.pt
piresjoalheiros.pt",0.78189589,0.56916681,1.0127583,8.21653159,7.64407254,11.296543129,0.08965205447674435,0.07445858304217506,0.09516130759499702,0.08704231624389852
RAMIKA PRO OY,FI,Finlande,VANTAA,,4771.0,Commerce de détail d'habillement en magasin spécialisé,,,"Yhtion toimiala on Lastentarvikkeiden vahittaiskauppa-, vuokraus-, tuonti-, vienti seka agentuuritoiminta. Yhtio harjoittaa myos arvopaperikauppaa- ja kiinteistojen omistusta, vuokrausta, valitysta ja kauppaa.",www.lastenturva.fi,0.807,0.548,0.164,8.19,6.497,4.946,0.033158107561666,0.08434662151762352,0.09853479853479855,0.0773697346304691
TAMAR Y ARIMA S.L.,ES,Espagne,SANTANDER,,4771.0,Commerce de détail d'habillement en magasin spécialisé,,,,www.donacarmen.es,0.57246699,0.17365178,0.2808482,8.18710525,5.951335359,5.96909614,0.04705037302347755,0.029178624548084387,0.0699230036159606,0.05107373333787759
P. BASTIANI S.R.L.,IT,Italie,TRIESTE,VIA SAN NICOLO' 19,4777.0,Commerce de détail d'articles d'horlogerie et de bijouterie en magasin spécialisé,,,,www.orologeriabastiani.com,1.05442,0.14568,0.121164,8.080424,5.701757,7.37281,0.016433896980933997,0.025550019055529727,0.13049067722188834,0.06245637258838824
JARL SANDIN & SONER GULD OCH SILVER AKTIEBOLAG,SE,Suède,GOTEBORG,,4777.0,Commerce de détail d'articles d'horlogerie et de bijouterie en magasin spécialisé,Engaged in the retail sale of jewelry and related articles,Retail,Bolaget skall bedriva detaljhandel med adelmetaller och darmedforenlig verksamhet.,www.jarlsandin.se,0.325500137223264,0.307547077811524,0.239594157921661,8.07674079992347,6.3284338911567,6.68164259338705,0.035858571387639315,0.04859765987937201,0.04030092648588502,0.04138326619822548
GIOIELLERIE VERONELLI S.R.L.,IT,Italie,LURAGO D'ERBA,VIA ROMA 64,4777.0,Commerce de détail d'articles d'horlogerie et de bijouterie en magasin spécialisé,,,,www.veronelligioielli.it,1.818479,1.513577,1.707394,8.055473,6.125277,6.82031,0.2503396473180838,0.24710343711802749,0.22574453418191584,0.23996169717147608
MINIPRIX SRL,RO,Roumanie,ORAS OTOPENI,,4771.0,Commerce de détail d'habillement en magasin spécialisé,Engaged in the retail distribution of ready-made clothing,Retail,Engaged in the retail distribution of ready-made clothing [source: Bureau van Dijk],www.miniprix.ro,0.570192514132022,0.0876727757135336,0.377063424955346,8.05435553000518,7.04607343308941,11.7027229629281,0.03222014450395929,0.01244278484266275,0.0707930649457754,0.03861220194017959
SWAP S.R.L.,IT,Italie,NAPOLI,PIAZZA DEI MARTIRI 58,4777.0,Commerce de détail d'articles d'horlogerie et de bijouterie en magasin spécialisé,,,,en.swapparty.com,0.521385,0.085547,0.375044,8.032385,6.255008,6.659666,0.05631573715558708,0.013676561245005601,0.06491035974993728,0.046878943721884773
ARYA SRL,IT,Italie,PESCHIERA BORROMEO,VIA DELLA LIBERAZIONE 43,4771.0,Commerce de détail d'habillement en magasin spécialisé,,,,www.aryasrl.it,0.426854,0.21881,0.412301,7.966963,5.97525,8.045736,0.05124465928287977,0.03661938831011255,0.05357800707747733,0.04811567463613819
GIOIELLI DI MENICHELLI FRANCO & C. SRL,IT,Italie,VITERBO,PIAZZA GIUSEPPE VERDI 22,4777.0,Commerce de détail d'articles d'horlogerie et de bijouterie en magasin spécialisé,Engaged in the sale of jewelry or precious stones,Retail,Engaged in the sale of jewelry or precious stones [source: Bureau van Dijk],www.menichelli1912.it,0.954601,0.806419,0.551605,7.966898,6.497188,6.835228,0.08070030729040788,0.12411815696267368,0.11982091398684909,0.10857744056921272
DANIEL MOSKOU,RU,Fédération de Russie,MOSCOW,,4751.0,Commerce de détail de textiles en magasin spécialisé,Engaged in the retail trade and marketing of textile products,Retail,Engaged in the retail trade and marketing of textile products [source: Bureau van Dijk],,0.275456940893809,0.166448219551722,0.305572582613578,7.89216580110181,6.04826212435897,9.33830445152315,0.0327224909189737,0.027520007587198143,0.03490257906839121,0.03210989889630557
E-SPACE S.R.L.,IT,Italie,UDINE,VIALE TRICESIMO 187,4771.0,Commerce de détail d'habillement en magasin spécialisé,Engaged in the retail sale of clothing in specialised stores,Retail,Engaged in the retail sale of clothing in specialised stores [source: Bureau van Dijk],"www.e-space.it
www.espacesrl.com",1.074059,-0.583981,0.196364,7.863274,5.403512,7.985586,0.024589804680583242,-0.10807434128026365,0.13659183185019372,0.03229954755168035
PEPPA S.R.L.,IT,Italie,CASORATE PRIMO,VIA S. PROTASO 7,4771.0,Commerce de détail d'habillement en magasin spécialisé,,,,www.reclamesc.com,0.604946,0.354094,0.335935,7.950006,6.034854,5.34392,0.06286302938666746,0.05867482461050425,0.07609377904872021,0.06699724452345156
WUNDERWEAR A/S,DK,Danemark,KGSLYNGBY,,4771.0,Commerce de détail d'habillement en magasin spécialisé,Engaged in the retail sale of clothing in specialized stores,Retail,Engaged in the retail sale of clothing in specialized stores [source: Bureau van Dijk],www.wunderwear.dk,0.524611138748122,0.0553965650132445,-0.0561106380455898,7.9932614126069,6.48610412542209,8.97689859367081,-0.006250559417608969,0.008540807230663987,0.06563167544110468,0.022335059955594542
"PASSO, A.S.",SK,Slovaquie,BRATISLAVA,,4777.0,Commerce de détail d'articles d'horlogerie et de bijouterie en magasin spécialisé,"Retail sale of jewelry, watches, precious stones, and precious metals",Retail,"Retail sale of jewelry, watches, precious stones, and precious metals [source: Bureau van Dijk]",www.sheron.sk,1.977433,1.292458,1.132794,7.823414,6.659535,6.993288,0.16198303287380703,0.19407631313597723,0.25275832264533105,0.20500262685683718
ABATEX A,BE,Belgique,SART-LEZ-SPA,,4764.0,Commerce de détail d'articles de sport en magasin spécialisé,,,,abatex.be,0.450514,0.450239,0.501917,7.788924,5.044926,6.184611,0.08115579136666799,0.08924590767039992,0.05784033840874555,0.07375307602439544
GIACOBAZZI GIOIELLI S.R.L.,IT,Italie,BOLOGNA,VIA SAN FELICE 14/A,4777.0,Commerce de détail d'articles d'horlogerie et de bijouterie en magasin spécialisé,,,,www.giacobazzigioielli.it,0.280799,0.067657,0.200291,7.770069,4.807351,5.34946,0.037441349220295135,0.01407365511692406,0.03613854651741188,0.030610290245709236
P M C,FR,France,BERCK,CENTRE COMMERCIAL CARREFOUR,4771.0,Commerce de détail d'habillement en magasin spécialisé,,,,"www.magasin-abyss.com
fiaf.org",0.533948,0.322416,0.325728,7.871626,7.319254,8.437078,0.038606730908497,0.044050390927818595,0.06783198287113743,0.050029376216091125
SCOPAGIOIELLI S.R.L.,IT,Italie,ROVIGO,PIAZZA VITTORIO EMANUELE II 19,4777.0,Commerce de détail d'articles d'horlogerie et de bijouterie en magasin spécialisé,"Engaged in the retail distribution of a range of jewelry and other related products; and provision of engraving, personalization, and customization services, as well as jewelry repair services",Retail; Services,"Engaged in the retail distribution of a range of jewelry and other related products; and provision of engraving, personalization, and customization services, as well as jewelry repair services [source: Bureau van Dijk]","www.scopagioielli.com
scopagioielli.com",1.030088,0.409081,0.41122,7.68054,5.384396,5.465539,0.07523869100558975,0.07597528116431258,0.13411661159241406,0.0998565336290624
PASQUALI DOMENICI SOCIETA' A RESPONSABILITA' LIMITATA,IT,Italie,VIAREGGIO,VIA CESARE BATTISTI 159/161,4777.0,Commerce de détail d'articles d'horlogerie et de bijouterie en magasin spécialisé,,,,www.pasqualidomenici.it,0.120865,0.085104,-0.193212,7.654342,7.083933,5.213665,-0.03705876768070062,0.012013665290171434,0.015790384072203723,0.000639386445628847
8 MARZO S.R.L.,IT,Italie,CASIER,VIA ENRICO BARONE 1 C-D,4771.0,Commerce de détail d'habillement en magasin spécialisé,,,,www.nanaitalianheart.com,0.235228,-0.362337,0.232841,7.652483,5.964798,8.692887,0.026785232570031105,-0.06074589617284609,0.030738781125028307,0.0047391843934120065
MONTRES & BIJOUX S.R.L.,IT,Italie,GENOVA,PIAZZA RAFFAELE DE FERRARI 3/R,4777.0,Commerce de détail d'articles d'horlogerie et de bijouterie en magasin spécialisé,Engaged in the organization of worldwide trade fairs,Services,Engaged in the organization of worldwide trade fairs [source: Bureau van Dijk],"www.montresbijoux.com
montresbijoux.com",1.606137,0.956028,0.941426,7.647459,5.295034,6.049864,0.15561110134045988,0.18055181515359484,0.210022309370995,0.18447373330229627
JOYERIA CALVO MACIAS A CORUNA SL,ES,Espagne,A CORUNA,,4777.0,Commerce de détail d'articles d'horlogerie et de bijouterie en magasin spécialisé,,,,www.joyeriacalvo.com,0.48230986,0.20728289,0.22245541,7.62587229,5.70941055,6.43885358,0.034548915771431474,0.03630547990632763,0.06324651681257043,0.046123286530861306
"MASALVES - CALCADO UNIPESSOAL, LDA",PT,Portugal,FELGUEIRAS,,4772.0,Commerce de détail de chaussures et d'articles en cuir en magasin spécialisé,Engaged in the wholesale distribution of men's and boys' clothing and furnishings,Wholesale,Engaged in the wholesale distribution of men's and boys' clothing and furnishings [source: Bureau van Dijk],"www.manuelalves.pt
manuelalves.pt",0.17523901,-0.07440242,0.17761898,7.55084647,6.78277055,9.77032307,0.01817943774504071,-0.010969325801534004,0.023207862945728786,0.011552284355184022
DAD & SONS S.R.L.,IT,Italie,NAPOLI,VIA TOLEDO 418,4771.0,Commerce de détail d'habillement en magasin spécialisé,,,,,0.511304,-0.485622,0.42411,7.520678,4.790273,9.053324,0.04684577730787057,-0.10137668562939942,0.06798642356447118,0.02105346425282393
MARTA SRL,IT,Italie,MONTICELLO CONTE OTTO,VIA VENEZIA 5,4771.0,Commerce de détail d'habillement en magasin spécialisé,An Italy based enterprise engaged in the manufacture and distribution of clothing and other related products,Manufacturing; Wholesale,An Italy based enterprise engaged in the manufacture and distribution of clothing and other related products [source: Bureau van Dijk],www.martait.it,0.750299,0.607754,0.394475,7.498943,5.802365,7.1072,0.055503573840612344,0.1047424627716457,0.1000539676058346,0.08587242144305698
BB NEW LOOK D.O.O. MOSTAR,BA,Bosnie-Herzégovine,MOSTAR,,4771.0,Commerce de détail d'habillement en magasin spécialisé,,,"Retail sale of footwear;Retail sale of men's and women's assemblies;Trade in household goods;Importer and distributor of fashion brands for clothing and footwear: Bugatti, Fynch Hatton, Gant, Lacoste, MAC, Pepe Jeans, Pierre Cardin, Ralph Lauren, Esprit, s.Oliver, Marco Tozzi, Skechers, U.S. Polo Assn, Jack & Jones etc.",www.retrohome.ba,0.338714184701723,0.287068617852452,0.591232007210282,7.44454892358017,6.1435754473022,7.76953207063503,0.07609621812938326,0.04672663668165924,0.045498281786941555,0.05698260074072021
MAT - STAR BG EOOD,BG,Bulgarie,MIROVYANE,,4772.0,Commerce de détail de chaussures et d'articles en cuir en magasin spécialisé,Engaged in the retail sale of footwear,Retail,Engaged in the retail sale of footwear [source: Bureau van Dijk],www.matstar.bg,1.65091288909307,0.592062810537166,1.16625133744372,7.44316811378661,5.96101926429432,8.13563843989676,0.14335093011563574,0.09932241187065781,0.22180244539084992,0.15827551559068448
EUROFESHN TREJD UV IZ SKOPJE DOO,MK,Macédoine du Nord,SKOPJE,,4771.0,Commerce de détail d'habillement en magasin spécialisé,,,trade in clothes,,0.762752295703766,0.492215755042181,0.412211679599378,7.42526117696643,6.20090948907812,6.27367806874689,0.06570494613883072,0.07937799381028508,0.10272396856151886,0.0837785127195741
G&G.PL SP. Z O.O. SP.K.,PL,Pologne,WARSZAWA,,4771.0,Commerce de détail d'habillement en magasin spécialisé,Primarily engaged in the wholesale of clothing and footwear products,Wholesale,"Trade: outwear, footwear",www.terranova-on-line.com,1.18825044585062,-0.1606702587662,0.506054862251916,7.39285759639308,6.97907370972697,18.5212798079768,0.027322888455794874,-0.02302171684220335,0.16072951904691882,0.046624668051307244
GIOIELLERIA WARGAS SISTI DEI F.LLI MELANI S.R.L.,IT,Italie,ANCONA,CORSO GIUSEPPE GARIBALDI 39,4777.0,Commerce de détail d'articles d'horlogerie et de bijouterie en magasin spécialisé,"Engaged in the manufacture, repair and retail sale of jewelry products",Manufacturing,"Engaged in the manufacture, repair and retail sale of jewelry products [source: Bureau van Dijk]","wargasisti.com
gioielleriawargasisti.com",0.361417,0.247477,0.23936,7.383005,5.951011,6.169668,0.03879625289399689,0.041585707033645204,0.04895256064434468,0.04349198848791849
SKLEP JUBILERSKI SEZAM BOGDAN BUCZEK,PL,Pologne,STARY SACZ,,4777.0,Commerce de détail d'articles d'horlogerie et de bijouterie en magasin spécialisé,,,,www.jubilersezam.pl,1.17498483875016,1.12035523217943,1.24579971879061,7.35914990621979,6.16054438875206,6.98890126343927,0.17825401616527436,0.18185977755877838,0.15966312056737544,0.17266612819169297
GLN S.R.L.,IT,Italie,TARANTO,VIA PRINCIPE AMEDEO 54,4771.0,Commerce de détail d'habillement en magasin spécialisé,,,,,0.044096,0.024177,0.054539,7.353558,5.846756,6.062036,0.0089968122921078,0.0041351135569878406,0.005996552961165195,0.0063757537372127505
MALALAN D.O.O.,HR,Croatie,ZAGREB,,4777.0,Commerce de détail d'articles d'horlogerie et de bijouterie en magasin spécialisé,,,,malalan.si,1.82674704954812,1.23929229855733,1.18947187349403,7.31874182717498,5.36111249575912,5.2904456035398,0.22483396723674137,0.231163270596852,0.24959850923628504,0.23680802429625827
SHOE HOUSE OY,FI,Finlande,PIRKKALA,,4772.0,Commerce de détail de chaussures et d'articles en cuir en magasin spécialisé,,,"Yhtion toimialana on sijoitus-, kehitys- ja rahoitusyhtiona toimiminen, toimisto- ja hallinnollisten palveluiden tuottaminen, vuokraus, valitys ja kauppa seka liikkeenjohdon, sijoitustoiminnan, hallinnon ja markkinoinnin koulutus ja konsultointi, kiinteistojen, asunto-, kiinteisto-, loma- ja peliosakkeiden, osuuksien ja oikeuksien omistaminen, hallinnointi, osto, myynti ja vuokraus, arvopaperikauppa, isannointitoiminta, kiinteisto- ja siivouspalvelutoiminta, paivittaistavaroiden kauppa, vienti ja tuonti, tilitoimistotoiminta, kuljetuspalvelut, vaatteiden ja tekstiilien, kodin kayttotavaroiden, tietotekniikan, oheislaitteiden, ohjelmistojen ja tarvikkeiden osto, myynti, vuokraus, maahantuonti ja vienti seka alaan kuuluva konsultointi, mietojen alkoholijuomien ja oluiden maahantuonti ja vienti seka kauppa, ravintolatoiminta, vapaa-ajan tavaroiden vienti, tuonti, vuokraus, osto ja myynti, autojen osto, myynti, vuokraus, tuonti ja vienti. Lisaksi yhtion toimialaan kuuluu kenka- ja vaatetavaroiden maahantuonti, tukku- ja vahittaismyynti, huolinta seka tavaramerkkien rakentaminen, kenka- ja vaatealan seka muiden alojen franchising-toiminnan ja ketjukonseptien kehittaminen, tuotteistaminen, myyminen seka liiketoiminnan kaynnistaminen ja toiminnan yllapitaminen. Toimialana on lisaksi franchising- seka ketjutoiminnan ja vahittaiskaupan alan konsultointi ja koulutustoiminta.","www.clickshoes.fi
veska.fi",0.606,0.209,0.431,7.317,5.186,6.36,0.06776729559748428,0.04030080987273428,0.08282082820828209,0.06605524041774903
LUIGI VERGA OROLOGI & C. SRL,IT,Italie,MILANO,LARGO SETTIMIO SEVERO 2,4777.0,Commerce de détail d'articles d'horlogerie et de bijouterie en magasin spécialisé,Engaged in providing repair and maintenance of watches and other personal goods,Services,Engaged in providing repair and maintenance of watches and other personal goods [source: Bureau van Dijk],www.vergaorologi.it,0.59436,0.175548,0.133569,7.242392,4.984883,6.643109,0.020106398976744173,0.03521607227290992,0.0820668088664629,0.0478780400017297
PICCINI UGO E FIGLIO - S.P.A.,IT,Italie,FIRENZE,VIA POR SANTA MARIA 9 R-11 R,4777.0,Commerce de détail d'articles d'horlogerie et de bijouterie en magasin spécialisé,,,,www.ugopiccini.it,0.87904,0.169818,0.107263,7.232978,5.563982,5.049098,0.021243992491332114,0.030520947048354934,0.12153223748226526,0.06478299017071447
UNO-NK,ME,Monténégro,NIKSIC,,4772.0,Commerce de détail de chaussures et d'articles en cuir en magasin spécialisé,"Engaged in the operation of a chain of shoe stores; Involved in the retail trade of footwear for men, women and children",Retail,Retail sale of footwear and leather goods in specialised stores,,1.318241,-0.040529,0.287707,7.232559,6.766765,9.438902,0.03048098179216184,-0.005989420350788006,0.18226481111318968,0.06678914180621007
MARDI SAS,FR,France,ANDREZIEUX BOUTHEON,,4772.0,Commerce de détail de chaussures et d'articles en cuir en magasin spécialisé,,,,www.dalery.com,0.450076,0.219725,0.457632,7.225204,6.342367,8.005857,0.05716215016081351,0.03464400593658487,0.06229249720838332,0.05226026202233599
TIGER STORES SPAIN 5 SL.,ES,Espagne,BILBAO,,4751.0,Commerce de détail de textiles en magasin spécialisé,,,,www.tiger-stores.es,1.084991,1.00023945,1.02261388,7.212067,6.52949454,7.50458333,0.13626524418911343,0.15318788366733208,0.15044105940779529,0.14627803533375794
OTTODISANPIETRO SA,ES,Espagne,A CORUNA,,4771.0,Commerce de détail d'habillement en magasin spécialisé,Engaged in the retail sale of clothing and accessories in Spain,Retail,Engaged in the retail sale of clothing and accessories in Spain [source: Bureau van Dijk],www.ottodisanpietro.com,0.99809785,1.08146151,0.17875252,7.17650378,6.64301502,6.73928731,0.026523950052516756,0.16279678831736255,0.13907856535679272,0.10984645061181525
GULBA TEKSTIL INSAAT MADEN TURIZM GIDA REKLAM SANAYI VE TICARET ANONIM SIRKETI,TR,Turquie,MERKEZ,,4771.0,Commerce de détail d'habillement en magasin spécialisé,Engaged in the retail sale of outerwear and other related products,Retail,Subject is involved in retail trade of outerwear.,www.kasaba.com.tr,0.229383034531484,0.0291089214784494,0.0162644490802026,7.16523576660588,7.61379143884668,14.1128351215182,0.0011524579533565,0.003823183457578233,0.03201332684690445,0.009509819823336515
SOCIETE NANTAISE DE BIJOUTERIE,FR,France,NANTES,BP 1231,4777.0,Commerce de détail d'articles d'horlogerie et de bijouterie en magasin spécialisé,"Primarily engaged in the retail sale of jewelry, watches, precious stones, and precious metals",Retail,"Primarily engaged in the retail sale of jewelry, watches, precious stones, and precious metals [source: Bureau van Dijk]",,0.669874,0.392233,0.061944,7.14875,5.674336,5.615952,0.011030008803494046,0.06912403495316456,0.09370505333100192,0.06096039283611216
MOVEM & CO,RS,Serbie,BEOGRAD (NOVI BEOGRAD),,4771.0,Commerce de détail d'habillement en magasin spécialisé,Engaged in the retail distribution of clothing for men and women,Retail,Retail sale of clothing in specialised stores,www.movem.rs,0.521923752616846,0.246471425609087,0.248342295728915,7.14494536029789,5.00035517342051,5.4185385619874,0.04583196979921991,0.0492907837665634,0.07304796976013343,0.05788811138695932
L'ANGOLO DELLE ORE S.R.L.,IT,Italie,MEDE,CORSO CAMILLO BENSO DI CAVOUR 1,4777.0,Commerce de détail d'articles d'horlogerie et de bijouterie en magasin spécialisé,,,,www.angolodelleore.com,1.094317,0.535405,0.382633,7.105167,5.628852,6.76538,0.056557503052304524,0.0951179743222952,0.15401706954952643,0.10320087301152206
ESPANSIONE SOCIETA' A RESPONSABILITA' LIMITATA,IT,Italie,BARI,VIA PASQUALE FIORE 34,4772.0,Commerce de détail de chaussures et d'articles en cuir en magasin spécialisé,,,,,0.48905,0.095952,0.075875,7.094521,5.241141,5.907186,0.0128445252951236,0.018307463966338627,0.06893347697469639,0.03622663522713121
S.C.A.R.ING.I. S.R.L.,IT,Italie,MISTERBIANCO,VIA CARLO MARX 174,4771.0,Commerce de détail d'habillement en magasin spécialisé,Engaged in the operation and management of clothing stores,Retail,Engaged in the operation and management of clothing stores [source: Bureau van Dijk],www.scaringi.it,0.326318,-0.044147,0.15966,7.048399,6.254356,9.383482,0.017015005730282213,-0.007058600437838844,0.04629675476657891,0.019475728830656226
ARIDON MOLDOVA SRL,RO,Roumanie,BUCURESTI SECTORUL 1,,4771.0,Commerce de détail d'habillement en magasin spécialisé,,,,,1.05257623882111,-0.519636803639909,0.125591079587863,7.04592306745753,5.03267417477535,7.19721255218928,0.01744996117276822,-0.10325262188528324,0.14938798348261334,0.03416357194807052
PROJECT DISTRIBUTION,BE,Belgique,BRUXELLES,BOLLINCKXSTRAAT 254 B.1,4771.0,Commerce de détail d'habillement en magasin spécialisé,Engaged in the wholesale distribution of the finest skateboarding products,Wholesale,Engaged in the wholesale distribution of the finest skateboarding products [source: Bureau van Dijk],www.projectdistribution.com,0.611578,0.064397,0.066512,7.038435,4.714967,5.482323,0.012132083425219565,0.013657995909621424,0.08689119101050162,0.04307837355260658
TORGOVYI DOM ORBI,RU,Fédération de Russie,KOSTROMA,,4771.0,Commerce de détail d'habillement en magasin spécialisé,"Engaged in the wholesale of clothing, including underwear, and footwear",Wholesale,"Engaged in the wholesale of clothing, including underwear, and footwear [source: Bureau van Dijk]",orby.ru,0.187179515880468,0.185212115201366,0.132188073594966,7.03204324349336,5.62463491411013,9.48658286062914,0.01393421377718293,0.03292873546987685,0.02661808373457633,0.022787054908549022
VIKTORIYA,RU,Fédération de Russie,MOSCOW,"PROEZD KHLEBOZAVODSKII D. 7, STR. 9, E/POM/K/OF 8/XV/10A/10",4771.0,Commerce de détail d'habillement en magasin spécialisé,"Engaged in the retail of clothing products and accessories, specialising in fur products",Retail,"Engaged in the retail of clothing products and accessories, specialising in fur products [source: Bureau van Dijk]",alefmex.ru,0.214680049197763,0.185212115201366,0.37331303890705,6.97976370759761,6.45495660102627,13.2997335509676,0.02806921187378902,0.028693007040809418,0.03075749526650588,0.028921675653709948
PARABITA S.A.,GR,Grèce,ATHENS,,4771.0,Commerce de détail d'habillement en magasin spécialisé,,,"Imports and trade of women's wear, accessories, swimming suits, underwear and cosmetics (sales mainly via internet). Operation of a furnished villa",www.parabita.com,0.486499,-0.138452,0.04234,6.97133,5.038954,6.728303,0.006292820046897412,-0.02747633735096609,0.06978567934669569,0.02083332110366699
ANDROMEDA SRL,IT,Italie,PONTEDERA,PIAZZA MARTIRI DELLA LIBERTA' 1,4777.0,Commerce de détail d'articles d'horlogerie et de bijouterie en magasin spécialisé,,,,www.casacapone.com,0.562211,0.194041,0.581248,6.894787,4.858957,4.72695,0.12296470239795215,0.03993470203584843,0.08154146023655263,0.08115556298782077
AMBROSIO OLBIA FLY SHOP S.R.L.,IT,Italie,OLBIA,CORSO UMBERTO I 175,4771.0,Commerce de détail d'habillement en magasin spécialisé,,,,www.ambrosiolacorte.it,0.100927,0.138149,0.142911,6.865362,4.2117,8.821868,0.01619963028238464,0.03280124415319229,0.014700899967110256,0.019196358799191716
ASKELAND AS,NO,Norvège,STAVANGER,,4777.0,Commerce de détail d'articles d'horlogerie et de bijouterie en magasin spécialisé,Engaged in the manufacture and sale of watches,Manufacturing; Retail; Services,Engaged in the manufacture and sale of watches [source: Bureau van Dijk],www.askeland.no,0.807545093847292,0.493639281078973,0.313683319735612,6.84756596002605,5.50388213333842,5.528491087648,0.056739409499358184,0.08968929005381016,0.11793169990059064,0.09031729237517648
KL MOBERG SKOTOEYFORRETNING AS,NO,Norvège,PARADIS,POSTBOKS 6083,4772.0,Commerce de détail de chaussures et d'articles en cuir en magasin spécialisé,"Engaged in the operation of a chain of shoe stores; Involved in the retail trade of footwear for men, women and children",Retail,"Engaged in the operation of a chain of shoe stores; Involved in the retail trade of footwear for men, women and children [source: Bureau van Dijk]",,0.633262707782071,0.0253172845918188,0.215239071686718,6.82924678906113,4.88212783853254,6.50502558528647,0.03308812069449212,0.005185707017337879,0.09272804561645233,0.047968811282635464
NAHKAPAIKKA OY TOIVONEN,FI,Finlande,TUURI,,4772.0,Commerce de détail de chaussures et d'articles en cuir en magasin spécialisé,Engaged in the retail distribution of footwear and leather goods,Retail,"Yhtion toimialana on nahka-alan tuotteiden ja tarvikkeiden, laukkujen ja kenkien, seka pukeutumisen vahittais- ja tukkukauppa, seka maahantuonti. Yhtio voi omistaa arvopapereita, osakkeita ja kiinteistoja, seka kayda niilla kauppaa.",www.nahkapaikka.fi,0.612,0.692,0.982,6.805,6.745,8.9,0.11033707865168539,0.10259451445515196,0.0899338721528288,0.10182628062360799
VESCHETTI GIOIELLI DUE S.R.L.,IT,Italie,BRESCIA,CORSO PALESTRO 10/A,4777.0,Commerce de détail d'articles d'horlogerie et de bijouterie en magasin spécialisé,,,,www.veschetti.com,0.961078,0.601471,0.276667,6.800021,5.467415,5.536273,0.04997351106059979,0.11001012361417599,0.14133456352561263,0.10330521578396949
SAJLILA KUNDLANI SL,ES,Espagne,SAN BARTOLOME DE TIRAJANA,,4771.0,Commerce de détail d'habillement en magasin spécialisé,"Engaged in the retail sale of apparel, accessories and other textile products",Retail,"Engaged in the retail sale of apparel, accessories and other textile products [source: Bureau van Dijk]",www.mosfashion.es,0.77922293,-0.19648411,1.02097586,6.73029707,4.07166594,8.91372493,0.1145397539208112,-0.04825644168637273,0.1157783856931593,0.0813420604383942
BIAGINI 1863 - S.P.A.,IT,Italie,PERUGIA,VIA GUGLIELMO CALDERINI 13,4777.0,Commerce de détail d'articles d'horlogerie et de bijouterie en magasin spécialisé,,,,"www.biagini1863.it
biagini1863.com",1.46347,0.937406,0.893299,6.686141,5.20727,5.933371,0.15055505546509731,0.18001870461873495,0.21888111542966265,0.18478797799849686
AKCAN TOPTAN VE PERAKENDE EV TEKSTILI TUHAFIYE YUN IPLIK ITHALAT IHRACAT SANAYI VE TICARET,TR,Turquie,MAMAK,,4771.0,Commerce de détail d'habillement en magasin spécialisé,Engaged in the retail trade of clothing apparels,Retail,"Subject is involved in wholesale and retail trade of home textile and haberdashery products such as wool & yarn, duvet cover sets, blankets, sleeping sets, quilts, pillow, socks, underwear, bathrobes, pyjamas, buttons, etc.",www.akcan.com.tr,0.624913848535151,0.736109148254697,1.34660248080431,6.68008339407847,7.63037232685723,10.9177678369067,0.12334045758439932,0.09647093440824046,0.09354880944886153,0.10732525305978077
DEDICATED SWEDEN AB,SE,Suède,STOCKHOLM,ALSTAVIKSVAGEN 3,4771.0,Commerce de détail d'habillement en magasin spécialisé,,,"Foremalet for bolagets verksamhet ar handel med klader,bijouterier, sportartiklar och liknande varor, forvaltning av ochhandel med vardepapper och darmed forenlig verksamhet.",www.tshirtstoreonline.com/sv/start,0.3699486853735,0.143608340611279,0.241221445450494,6.67675806686627,4.99918472594279,4.42765792036214,0.05448059669224952,0.028726352092179608,0.05540843050902024,0.04687016803750832
EMPORIO GIGLIO CALZATURE ED ABBIGLIAMENTO SOCIETA' A RESPONSABIL TA' LIMITATA S.R.L. IN SIGLA EMPORIO GIGLIO S.R.L.,IT,Italie,COSENZA,PIAZZA PRIMO MAGGIO 11/12,4772.0,Commerce de détail de chaussures et d'articles en cuir en magasin spécialisé,Engaged in the operation and management of shoe stores,Retail,Engaged in the operation and management of shoe stores [source: Bureau van Dijk],www.giglioluxury.com,0.234603,0.051581,0.151008,6.654414,5.55931,6.660542,0.022672028792851993,0.009278309718292379,0.035255245615917495,0.023163390830668595
"PETIT PIED - COMERCIO DE CALCADO, VESTUARIO E ACESSORIOS, LDA",PT,Portugal,BARREIRO,,4772.0,Commerce de détail de chaussures et d'articles en cuir en magasin spécialisé,,,,www.petitpied.pt,0.02928534,0.02822979,0.08807182,6.64038899,5.65366345,9.15514669,0.009619924506092212,0.004993185436250189,0.004410184409994933,0.006787523819310077
VESCHETTI GIOIELLI S.R.L.,IT,Italie,BRESCIA,CORSO MAGENTA 27/E,4777.0,Commerce de détail d'articles d'horlogerie et de bijouterie en magasin spécialisé,,,,"www.veschetti.it
www.veschetti.com",1.234071,0.40453,0.291922,6.610909,4.92762,6.210943,0.04700123636620075,0.08209439851287234,0.18667190850758947,0.10876509453351627
ZHAKKARD,RU,Fédération de Russie,MOSCOW,,4751.0,Commerce de détail de textiles en magasin spécialisé,Engaged in the retail distribution of ready-made clothing,Retail,Engaged in the retail distribution of ready-made clothing [source: Bureau van Dijk],www.gakkard.ru,0.147556880582342,0.0966103457375557,-0.237084407422365,6.57482607936934,5.27537935845853,7.60849991922675,-0.03116046657544814,0.018313440450998263,0.02244270476527886,0.00036399229895142427
PUNTO SCARPE S.R.L.,IT,Italie,SONA,VIA DEL COMMERCIO 1,4772.0,Commerce de détail de chaussures et d'articles en cuir en magasin spécialisé,Engaged in the retail distribution of footwear products and accessories,Retail,Engaged in the retail distribution of footwear products and accessories [source: Bureau van Dijk],www.puntoscarperovato.com,1.195028,0.747769,1.017889,6.559136,4.984922,6.443601,0.15796896797303248,0.1500061585717891,0.18219289857688575,0.16459540399337122
VENDRELL JOYERO SL,ES,Espagne,BARCELONA,,4777.0,Commerce de détail d'articles d'horlogerie et de bijouterie en magasin spécialisé,"Engaged in the buying, selling and distribution of all kinds of jewelry and watches",Retail,"Engaged in the buying, selling and distribution of all kinds of jewelry and watches [source: Bureau van Dijk]",www.unionsuiza.com,0.63240003,0.03953542,0.29300343,6.53008374,5.55824301,7.09723607,0.041284160074444305,0.007112934776128114,0.09684409192584106,0.0502950520166184
BOSIO FASHION SRL,IT,Italie,SOVERE,VIA PAPA GIOVANNI PAOLO I 9,4771.0,Commerce de détail d'habillement en magasin spécialisé,,,,"www.bosioabbigliamento.it
www.bosiofashion.it",0.124526,-0.142322,0.092935,6.515089,4.406941,6.402537,0.014515339778590894,-0.03229496378553741,0.01911347642372959,0.004337135814130305
COPPO GIAN PIERO S.R.L.,IT,Italie,MILANO,VIA DANTE ALIGHIERI 69,4777.0,Commerce de détail d'articles d'horlogerie et de bijouterie en magasin spécialisé,,,,www.coppogioielli.it,0.669325,0.171587,0.137441,6.456286,4.867895,4.193071,0.03277812371886858,0.035248706062887554,0.10367028350354986,0.0630493724017629
META SP. Z O.O. SP.K.,PL,Pologne,OLSZANY,,4772.0,Commerce de détail de chaussures et d'articles en cuir en magasin spécialisé,Engaged in the retail sale of footwear and leather goods,Retail,Engaged in the retail sale of footwear and leather goods [source: Bureau van Dijk],www.meta.com.pl,0.291843356210017,0.312667359164454,0.401984293081073,6.4268604367173,5.88495478161058,7.72044235889468,0.052067520796648274,0.053129950996647066,0.045409941461103866,0.05024371339953052
MICHAEL SANDSTROM AKTIEBOLAG,SE,Suède,VIMMERBY,STORA TORGET 4,4771.0,Commerce de détail d'habillement en magasin spécialisé,Engaged in the retail trade of clothing apparels,Retail,Bolaget skall bedriva herr- och damkonfektionsrorelse jamtedarmed forenlig verksamhet.,www.michaelsandstrom.se,0.283002745168593,0.0107884127885621,0.0989902272204609,6.13887665510705,6.55770269600969,10.4954549857742,0.009431723289236598,0.0016451512501667335,0.04610008655788148,0.016936047069955794
MATTY SRL,IT,Italie,MODICA,CORSO SANDRO PERTINI 32,4772.0,Commerce de détail de chaussures et d'articles en cuir en magasin spécialisé,,,,viaggidamatty.com,0.051546,0.069226,0.065153,6.408771,4.028263,4.908393,0.01327379449852528,0.017185074559431694,0.008043039765346587,0.012115987388294898
FATTORI EUR SRL,IT,Italie,ROMA,VIALE EUROPA 83,4777.0,Commerce de détail d'articles d'horlogerie et de bijouterie en magasin spécialisé,"Engaged in the retail distribution of a range of jewelry and other related products; and provision of engraving, personalization, and customization services, as well as jewelry repair services",Retail; Services,"Engaged in the retail distribution of a range of jewelry and other related products; and provision of engraving, personalization, and customization services, as well as jewelry repair services [source: Bureau van Dijk]",www.fattorieur.it,0.294406,0.344733,0.321393,6.37028,5.10845,8.854348,0.036297760151283866,0.0674828959860623,0.046215550964792754,0.047239871897407755
L.A. RETAIL SOCIETA' A RESPONSABILITA' LIMITATA,IT,Italie,VIAREGGIO,VIA ANTONIO FRATTI 250,4771.0,Commerce de détail d'habillement en magasin spécialisé,Engaged in the retail sale of a range of clothing and footwear products,Retail,Engaged in the retail sale of a range of clothing and footwear products [source: Bureau van Dijk],"mail.talamoni.net
www.talamoni.net",0.129087,-0.197071,0.19789,6.367823,4.97688,7.045668,0.028086761964940726,-0.0395972979055151,0.020271763206986128,0.0070638052924544064
PL-CC SP. Z O.O.,PL,Pologne,GOSPODARZ,,4771.0,Commerce de détail d'habillement en magasin spécialisé,,,,www.pakolorente.eu,1.0640756646316,-0.281443989039848,0.198765411389358,6.34313488370623,5.07271350045243,8.06078124726419,0.024658330910148258,-0.05548194058559513,0.16775233132199632,0.050388445308718166
TRITON,RU,Fédération de Russie,YAKUTSK,UL. LERMONTOVA D. 25,4777.0,Commerce de détail d'articles d'horlogerie et de bijouterie en magasin spécialisé,Operates as other miscellaneous store retailer,Retail,Operates as other miscellaneous store retailer [source: Bureau van Dijk],www.triton.ru,0.872102046624793,1.43691066862001,1.25250104976499,6.32853348971177,6.24058929699362,8.34938869242164,0.15001110810685198,0.23025240089301122,0.1378047612519646,0.17025655809991805
VALENTI MULTISTORE S.R.L.,IT,Italie,ROGNO,VIA SANTA RITA DA CASCIA 5,4771.0,Commerce de détail d'habillement en magasin spécialisé,"Engaged in the wholesale and retail distribution of a general line of new clothing for men, women, and children",Wholesale; Retail,"Engaged in the wholesale and retail distribution of a general line of new clothing for men, women, and children [source: Bureau van Dijk]",www.tankfashion.com,0.529459,-0.264861,0.02976,6.304052,4.059482,5.666929,0.005251521591323979,-0.06524502387250393,0.08398709274606236,0.018362414111183188
JOYERIA AURELIO MARCOS SL,ES,Espagne,MALAGA,,4777.0,Commerce de détail d'articles d'horlogerie et de bijouterie en magasin spécialisé,,,,www.joyeriamarcos.com,0.87449766,0.5988444,0.68874137,6.29389456,4.91321633,5.35041327,0.12872676095168253,0.12188439502316806,0.13894380524862177,0.13058011627264932
TEBRO SRL,IT,Italie,ROMA,VIA DEI PREFETTI 46,4771.0,Commerce de détail d'habillement en magasin spécialisé,Engaged in retail trade of articles of knitwear for men and women and household linen,Retail,Engaged in retail trade of articles of knitwear for men and women and household linen [source: Bureau van Dijk],"www.tebro.it
tebro.it",0.158601,0.154431,0.169714,6.353038,5.117695,5.81014,0.029209967401818204,0.03017588973160769,0.024964591743351763,0.027935278501265533
"ANTONIO RODRIGUES MOTA & FILHOS, LDA",PT,Portugal,PONTA DELGADA,,4751.0,Commerce de détail de textiles en magasin spécialisé,Operates as a drug store engaged in the retail sale of pharmaceutical goods,Retail,Operates as a drug store engaged in the retail sale of pharmaceutical goods [source: Bureau van Dijk],www.euromotas.com,0.21822817,0.04806103,0.06211297,6.27612727,6.01704366,6.7902016,0.009147441218829204,0.007987482344444215,0.034771151159272144,0.0172088119897956
PRZEDSIEBIORSTWO PRODUKCYJNO-HANDLOWE ELWIX SP. Z O.O.,PL,Pologne,LUBLIN,,4771.0,Commerce de détail d'habillement en magasin spécialisé,,,,www.elwix.pl,0.745483625251816,0.0782752542707129,0.393546138823977,6.27289240676448,4.72296838926501,6.64035861398647,0.0592657959759971,0.016573317418051597,0.11884208701681398,0.06902301394907653
FCR FRANCONVILLE,FR,France,FRANCONVILLE,,4771.0,Commerce de détail d'habillement en magasin spécialisé,,,,,0.642163,0.209877,0.592085,6.240872,5.855236,7.184589,0.08241042041514135,0.03584432805099573,0.10289635807303851,0.0749000412173896
OLIMPINVEST,RU,Fédération de Russie,SOCHI,,4771.0,Commerce de détail d'habillement en magasin spécialisé,,,,,0.736524655058801,0.44544671971092,0.255921171961623,6.23779599106114,4.8254981378357,7.95278133400803,0.03218008407539658,0.09231103338705438,0.11807450197381454,0.07561457933506188
SAVVA,RU,Fédération de Russie,SAINT-PETERSBURG,,4772.0,Commerce de détail de chaussures et d'articles en cuir en magasin spécialisé,,,,fondsavva.ru,0.350578319933836,0.0531809176525184,0.792668306863493,6.1732992778749,4.40716585404884,8.24188972166172,0.09617555362093297,0.01206691996936339,0.05678945797918925,0.06356417960221064
PIRETTI ANTICHITA' S.R.L.,IT,Italie,BOLOGNA,GALLERIA CAMILLO BENSO CONTE DI CAVOUR 7/F,4777.0,Commerce de détail d'articles d'horlogerie et de bijouterie en magasin spécialisé,,,,www.piretti.it,0.338482,0.366501,0.309078,6.156991,5.958897,6.586853,0.04692347013057678,0.06150483889887676,0.05497523059559451,0.0542199135410152
UNION MAGAZZINI MODA - S.R.L.,IT,Italie,TERRANUOVA BRACCIOLINI,VIA POGGILUPI 420,4771.0,Commerce de détail d'habillement en magasin spécialisé,Engaged in the operation of a chain of family clothing stores,Retail,Engaged in the operation of a chain of family clothing stores [source: Bureau van Dijk],www.porcellottimoda.com,0.136094,-0.119259,0.120168,6.147217,4.325844,6.75491,0.017789726287989034,-0.0275689553298732,0.022139124094691952,0.007952358405989885
OESTFOLD MOTE AS,NO,Norvège,TOENSBERG,SJOEVEIEN 6,4771.0,Commerce de détail d'habillement en magasin spécialisé,Operates as a clothing and apparel store,Retail,Operates as a clothing and apparel store [source: Bureau van Dijk],,0.698230696613966,0.557935630249894,0.602223309382526,6.12500980688489,4.9851166415136,5.1104832249234,0.1178407760826869,0.11192027596780393,0.113996665903965,0.1145696538954937
MAMIC 1970 D.O.O.,HR,Croatie,ZAGREB,,4777.0,Commerce de détail d'articles d'horlogerie et de bijouterie en magasin spécialisé,,,,mamic.hr,1.16953525656211,0.914360460260587,0.937898644534276,6.0502961412797,4.70527128822801,4.34502538288188,0.21585573429083302,0.19432683138763976,0.19330215071336015,0.20011097570140957
ILIC-TRGOVINA D.O.O.,BA,Bosnie-Herzégovine,ZVORNIK,,4772.0,Commerce de détail de chaussures et d'articles en cuir en magasin spécialisé,,,Retail sale of footwear and leather goods in specialised stores,www.solekomerc.co.rs,0.502950143707148,0.484466926637862,0.465113206457748,5.92918719832805,4.8099078664714,5.94813111190561,0.07819484771053392,0.10072270406985406,0.08482615354916996,0.08704444114447571
VACCARI GIOIELLI SRL,IT,Italie,REGGIO NELL'EMILIA,VIA EMILIA SAN PIETRO 27/B,4777.0,Commerce de détail d'articles d'horlogerie et de bijouterie en magasin spécialisé,,,,"www.vaccarigioielli.com
vaccarigioielli.com",0.712186,0.5808,0.571135,5.926758,5.871501,5.856305,0.09752480446288231,0.09891848779383669,0.12016451490005159,0.10558861719836297
SPORT CHIC,FR,France,NEUILLY SUR SEINE,,4771.0,Commerce de détail d'habillement en magasin spécialisé,,,,,0.8198,0.400943,0.092736,5.900012,4.689219,4.408398,0.02103621315498283,0.08550315095114987,0.1389488699345018,0.08757911000465472
CHARGET S.R.L.,IT,Italie,SAN GIULIANO TERME,VIA GIOSUE' CARDUCCI 64/A,4771.0,Commerce de détail d'habillement en magasin spécialisé,Engaged in the operation and management of clothing stores,Retail,Engaged in the operation and management of clothing stores [source: Bureau van Dijk],www.charget.it,0.494013,0.282522,0.108907,5.894248,5.558993,11.660621,0.009339725560070943,0.0508225140776396,0.0838127272554531,0.03830783449343082
SI ANELLI S.R.L.,IT,Italie,RAVENNA,VIA CAMILLO BENSO CONTE DI CAVOUR 2,4777.0,Commerce de détail d'articles d'horlogerie et de bijouterie en magasin spécialisé,,,,www.sianelli.it,0.329903,0.249897,0.314188,5.878418,4.50955,8.257316,0.03804965196923553,0.055415063587275895,0.05612105161626819,0.04794713773198628
LA VESTI BENE S.R.L.,IT,Italie,SOLESINO,VIA NAZIONALE 1269 INT.2,4771.0,Commerce de détail d'habillement en magasin spécialisé,"Engaged in the retail distribution of a general line of new clothing for men, women, and children",Retail,"Engaged in the retail distribution of a general line of new clothing for men, women, and children [source: Bureau van Dijk]",www.lavestibene.it,0.377019,-0.248158,0.113611,5.866873,4.390905,7.112263,0.015973959343179522,-0.0565163673547936,0.06426234213694416,0.013959207119891083
SQUALO S.R.L.,IT,Italie,MILANO,VIA ALFREDO CAPPELLINI 23,4771.0,Commerce de détail d'habillement en magasin spécialisé,Engaged in the retail distribution of men's and women's clothing and furnishings,Retail,Engaged in the retail distribution of men's and women's clothing and furnishings [source: Bureau van Dijk],www.furla.com,0.129431,0.078498,0.516549,5.838188,4.820943,5.827635,0.08863784365355758,0.0162827065161318,0.022169721153207124,0.0439430025269965
BLU SRL,IT,Italie,CARPI,VIA LAGO SCAFFAIOLO 29,4771.0,Commerce de détail d'habillement en magasin spécialisé,,,Clothing retailer [source: Bureau van Dijk],"www.blusrl.eu
www.bluitaliasrl.com",0.319124,0.167461,0.339471,5.834726,5.247317,6.501653,0.05221302951726277,0.03191364272446281,0.05469391364735894,0.046978519191869565
LACHU E HIJOS SOCIEDAD LIMITADA,ES,Espagne,LAS PALMAS DE GRAN CANARIA,,4771.0,Commerce de détail d'habillement en magasin spécialisé,,,,www.yogijeans.com,1.41763011,1.30478391,0.99890834,5.799165,5.13331065,5.861495479,0.1704186830099575,0.2541798069438872,0.2444541774548577,0.2215868022765612
LE FOLLIE S.R.L.,IT,Italie,AFFI,VIA PASCOLI 36,4772.0,Commerce de détail de chaussures et d'articles en cuir en magasin spécialisé,,,,www.lefollieshop.com,0.44267,0.304955,0.434903,5.779842,5.013176,6.525056,0.06665122874041234,0.060830698942147654,0.07658859878868661,0.06828288180313816
JOSE LUIS OLAZABAL OZCARIZ SL,ES,Espagne,DONOSTIA/SAN SEBASTIAN,,4777.0,Commerce de détail d'articles d'horlogerie et de bijouterie en magasin spécialisé,,,,www.joyeriaolazabal.com,0.81901762,0.5176457,0.58190688,5.77357075,4.431991479,4.32548821,0.13452975750915294,0.11679753953786878,0.1418563408095415,0.1320324506513813
VM S.R.L.,IT,Italie,FOSSALTA DI PORTOGRUARO,VIA IPPOLITO NIEVO 24,4771.0,Commerce de détail d'habillement en magasin spécialisé,"Operates as a clothing store engaged in the retail distribution of a general line of new clothing for men, women, and children",Retail,"Operates as a clothing store engaged in the retail distribution of a general line of new clothing for men, women, and children [source: Bureau van Dijk]","www.magazzinivoltolina.com
www.vm-italia.com",0.30938,0.287701,0.590219,5.772316,5.233619,7.095826,0.08317833610914362,0.054971712690587524,0.05359720431105989,0.06559030361742153
"CASA DAS PELES - CONFECCOES, S.A.",PT,Portugal,LISBOA,,4771.0,Commerce de détail d'habillement en magasin spécialisé,Engaged in the management and operation of family clothing stores,Retail,Engaged in the management and operation of family clothing stores [source: Bureau van Dijk],www.casadaspeles.pt,0.0994425,-0.1500997,2.18779019,5.75686844,5.051155489,9.67904398,0.22603370689508945,-0.029715913581926958,0.01727371417923179,0.10431619592870849
ARTE S.R.L.,IT,Italie,TREVIGLIO,VICOLO ANTONIO GENDERINI 1,4771.0,Commerce de détail d'habillement en magasin spécialisé,,,,"www.nightmarket.it
www.bertoliniarte.it",0.281456,0.406341,0.239042,5.734759,6.17474,6.803238,0.03513650411759812,0.06580698134658301,0.0490789586798678,0.049529846970007646
LIMITED LIABILITY COMPANY SUNSHINE,RU,Fédération de Russie,MOSCOW,,4771.0,Commerce de détail d'habillement en magasin spécialisé,,,,suns.ru,0.624644784423961,0.26769162594351,0.390266126992382,5.71724678629413,4.12641340949911,6.05149034835651,0.06449091125103953,0.06487271133020191,0.10925622205454076,0.08069143691324886
GIOIELLERIA SALVINI - S.R.L.,IT,Italie,MASSA,VIALE EUGENIO CHIESA 7,4777.0,Commerce de détail d'articles d'horlogerie et de bijouterie en magasin spécialisé,,,,"gioielleriesalvini.it
www.gioielleriasalvini.it",0.53451,0.287916,0.366347,5.708086,4.28365,5.58262,0.06562277210342096,0.06721277415288364,0.09364084563547222,0.07632887035585935
LAHDEN KELLOKESKUS OY,FI,Finlande,LAHTI,PL 222,4777.0,Commerce de détail d'articles d'horlogerie et de bijouterie en magasin spécialisé,"Engaged in the retail sale of jewelry, watches, precious stones, and precious metals",Retail,"Yhtion toimialana on kello- ja kulta-alaan kuuluvien tuotteiden tukku- ja vahittaiskauppa seka alan huolto- ja korjaustoiminta. Edelleen yhtion toimialana on koti- ja ulkomaisten kiinteistojen, asunto-, kiinteisto-, loma- ja arvopaperiosakkeiden, osuuksien ja oikeuksien omistaminen, hallinnointi, osto, myynti ja vuokraus.","www.timanttiset.fi
www.kalevalashop.com",0.476,0.321,0.091,5.702,4.66,4.207,0.021630615640599003,0.06888412017167382,0.08347948088390038,0.06095133502642597
PROIEZIONE SRL,IT,Italie,MILANO,VIA ALESSANDRO MANZONI 44,4771.0,Commerce de détail d'habillement en magasin spécialisé,Engaged in the retail sale of specialized lines of apparel and accessories,Retail,Engaged in the retail sale of specialized lines of apparel and accessories [source: Bureau van Dijk],"www.dmagazine.it
www.dmag.eu",0.279633,-0.255568,0.073999,5.677852,4.399681,8.289276,0.008927076381580249,-0.05808784773259698,0.04924978671511692,0.005339196373196891
JOSE SANGIL SL,ES,Espagne,GANDIA,,4777.0,Commerce de détail d'articles d'horlogerie et de bijouterie en magasin spécialisé,,,,www.prjoyeros.com,0.54529631,0.73250665,0.36879975,5.67268518,5.447448979,6.35802415,0.05800540251172213,0.13446783124060904,0.09612666536167622,0.09420916557050049
NOSSA S.R.L.,IT,Italie,VARESE,VIALE BELFORTE 315,4771.0,Commerce de détail d'habillement en magasin spécialisé,,,,,0.185196,0.024799,0.101051,5.66269,4.388471,5.758973,0.017546704942009626,0.00565094311891317,0.032704597991413974,0.019673837046542426
ZANABONI S.R.L.,IT,Italie,ARONA,VIA CAMILLO BENSO CONTE DI CAVOUR 97,4777.0,Commerce de détail d'articles d'horlogerie et de bijouterie en magasin spécialisé,,,,www.zanabonigioielli.it,1.040224,0.97918,0.809971,5.657736,4.747032,4.983787,0.16252119121463254,0.20627204535381266,0.18385870249159736,0.18386229246345742
SMART TRADING LTDOOD EOOD,BG,Bulgarie,SOFIA,"BUL. VITOSHA 38, MAGAZIN ROYAL HOUSE",4777.0,Commerce de détail d'articles d'horlogerie et de bijouterie en magasin spécialisé,,,"Trade in watches, jewellery and miscellaneous other present articles",,0.385502730992932,0.360964027840448,0.124243347215618,5.6337594069113,4.97322535241366,7.99707898682913,0.015536091042772222,0.07258147424694138,0.06842726200199652,0.04680214591443737
DANI GROUP SRL,IT,Italie,FONTANIVA,VIA DEL LAVORO 23,4771.0,Commerce de détail d'habillement en magasin spécialisé,,,,www.danishoppingonline.com,0.340017,-0.291759,0.081324,5.627473,4.068727,7.066649,0.011508141977902113,-0.07170768645819688,0.060420902952355346,0.00773030885143689
NITTA GIOIELLI S.R.L.,IT,Italie,UDINE,VIA RIALTO 19,4777.0,Commerce de détail d'articles d'horlogerie et de bijouterie en magasin spécialisé,Engaged in the operation of department stores,Retail,Engaged in the operation of department stores [source: Bureau van Dijk],"nittagioielli.com
www.nittagioielli.com",0.360272,0.159963,0.41259,5.621229,4.40003,5.380489,0.076682621226435,0.03635497939786774,0.06409132237807783,0.06056617729364225
VIA PARADISO,ME,Monténégro,PODGORICA,,4771.0,Commerce de détail d'habillement en magasin spécialisé,,,Retail sale of clothing in specialised stores,www.viaparadiso.me,0.301243,0.224907,0.970421,5.606622,5.747651,8.382391,0.11576899717514966,0.03913024642588772,0.05372985730088456,0.07582694826238112
UAB TOMAS GOLD,LT,Lituanie,KLAIPEDOS M.,,4777.0,Commerce de détail d'articles d'horlogerie et de bijouterie en magasin spécialisé,,,,www.tomasgold.lt,0.718986,0.639689,0.157578,5.588322,4.631686,5.093718,0.030935752627059446,0.13811147819606076,0.12865865639095242,0.09901267660137056
LIFESTYLE S.R.L.,IT,Italie,ROMA,VIA MONTE NIBBIO 25/G-H,4771.0,Commerce de détail d'habillement en magasin spécialisé,,,,www.lifestyle-bugatti.com,0.145167,0.109917,0.161201,5.584519,4.201664,5.10018,0.03160692367720355,0.026160349804268023,0.025994539547631583,0.027964184401522384
F.G. FECAROTTA GIOIELLI S.R.L.,IT,Italie,PALERMO,VIA RUGGIERO SETTIMO 68,4777.0,Commerce de détail d'articles d'horlogerie et de bijouterie en magasin spécialisé,Engaged in the retail trade of colored gemstones and studded jewelry,Retail,Engaged in the retail trade of colored gemstones and studded jewelry [source: Bureau van Dijk],"www.fecarotta.com
www.fecarotta.it",0.576884,0.416919,0.187487,5.562886,4.587067,4.894442,0.03830610312677114,0.09089010472269099,0.10370228690647264,0.07852027283250672
EMILIO LOPEZ ALVARINO SL,ES,Espagne,LUGO,,4771.0,Commerce de détail d'habillement en magasin spécialisé,,,,www.korner.es,0.61236075,0.26605815,0.82362576,5.55750637,5.11682482,6.78559612,0.12137854146261802,0.05199672831480676,0.11018624347523691,0.09748291787132302
BLONDI GIOIELLI S.P.A.,IT,Italie,MODENA,VIA EMILIA 88,4777.0,Commerce de détail d'articles d'horlogerie et de bijouterie en magasin spécialisé,"An Italy based enterprise engaged in the wholesale of jewelry, watches, precious stones, and precious metals",Wholesale; Services,"An Italy based enterprise engaged in the wholesale of jewelry, watches, precious stones, and precious metals [source: Bureau van Dijk]","www.blondi.it
blondi.it",0.250143,-0.021717,0.333133,5.609026,4.105281,6.925082,0.048105278753377945,-0.005290015470317379,0.04459651283484869,0.03374877527053427
E. CANALI SRL,IT,Italie,MONZA,VIA ITALIA 44,4777.0,Commerce de détail d'articles d'horlogerie et de bijouterie en magasin spécialisé,,,,www.gioielleriacanali.it,1.148222,1.446461,1.231431,5.538443,6.44901,6.863649,0.17941345776860093,0.22429194558544643,0.20731855505238567,0.20296500438011525
"TRGOS, PODJETJE ZA PROIZVODNJO, RACUNOVODSKE STORITVE, TRGOVINO, GOSTINSTVO IN TURIZEM, D.O.O., BLED",SI,Slovénie,BLED,,4771.0,Commerce de détail d'habillement en magasin spécialisé,,,,www.trgos.si,0.64379059,0.837338,0.22867659,5.47126589,5.98818165,4.30931308,0.05306567096768008,0.139831763453602,0.1176675750993341,0.10842990271736398
TORREGROSSA SOCIETA' A RESPONSABILITA' LIMITATA,IT,Italie,PALERMO,VIA DELLA LIBERTA' 3/5,4771.0,Commerce de détail d'habillement en magasin spécialisé,Engaged in the management and operation of clothing stores,Retail,Engaged in the management and operation of clothing stores [source: Bureau van Dijk],"www.torregrossaboutique.com
www.bizweek.it/index.php/it/ads/57d6be589313b/Abbigliamento/Torregrossa",0.502596,0.02254,0.093856,5.460612,4.967222,5.319501,0.017643760194800226,0.004537747658550394,0.09204023285302088,0.03930773048264992
SANDVIK SKO AS,NO,Norvège,GAUPNE,,4772.0,Commerce de détail de chaussures et d'articles en cuir en magasin spécialisé,Engaged in the management and operation of shoe stores,Retail,Engaged in the management and operation of shoe stores [source: Bureau van Dijk],,0.447368169629794,0.131363269108494,0.0606278685203284,5.45050393824189,4.04617976238758,4.73201527645118,0.012812272357201022,0.032465999244427744,0.08207831325301211,0.04493448826828691
STAR ALLIANCE EOOD,BG,Bulgarie,SOFIA,UL. VLADAYSKA REKA 8,4772.0,Commerce de détail de chaussures et d'articles en cuir en magasin spécialisé,,,,www.tendenzstore.com,0.635005824792071,0.236211587623636,0.0531741074503056,5.4241359059735,5.68134883479187,7.41472025234934,0.0071714246310853715,0.0415766738660907,0.11707041191441218,0.049912596551154556
"FATIMA MENDES, S.A.",PT,Portugal,GUIMARAES,,4771.0,Commerce de détail d'habillement en magasin spécialisé,Operates as a family clothing store,Retail,Operates as a family clothing store [source: Bureau van Dijk],www.fatimamendes.com,0.15893216,0.05854272,0.17016227,5.37970055,4.8871508,5.17516195,0.032880569080548296,0.01197890599160558,0.029542938035835468,0.025102759754778867
BRAVI S.P.A.,IT,Italie,CONEGLIANO,VIA ALESSANDRO VOLTA 16,4771.0,Commerce de détail d'habillement en magasin spécialisé,Engaged in the retail trade of garments for adults in Italy,Retail,Engaged in the retail trade of garments for adults in Italy [source: Bureau van Dijk],"www.bravispa.it
braviconegliano.it",0.185571,0.103366,0.155341,5.371043,4.281322,5.911901,0.026275981279118173,0.02414347717831081,0.034550272637921535,0.02854474473772165
GINEVRA CALZATURE S.R.L.,IT,Italie,ACQUALAGNA,VIA CASE NUOVE 25/D,4772.0,Commerce de détail de chaussures et d'articles en cuir en magasin spécialisé,,,,"www.calzatureginevra.com
calzatureginevra.it",0.223227,0.064839,0.142668,5.360636,4.542439,5.130086,0.027810060104255557,0.014274049690045369,0.041641887268600214,0.028652257499271104
TRADIZIONE MODA S.R.L.,IT,Italie,PAESE,VIA GIUSEPPE DI VITTORIO 2,4771.0,Commerce de détail d'habillement en magasin spécialisé,Engaged in the manufacture and distribution of clothing and other related products,Manufacturing; Wholesale,Engaged in the manufacture and distribution of clothing and other related products [source: Bureau van Dijk],,0.496479,0.339056,0.668387,5.312463,4.26161,6.243713,0.10704960333698875,0.0795605416732174,0.09345552147845547,0.09507790786902794
DOF,RU,Fédération de Russie,BUINAKSK,,4771.0,Commerce de détail d'habillement en magasin spécialisé,,,,,0.414183702092075,0.731052846850798,1.67996619192001,5.29535009970641,5.30701654406886,6.85147767289213,0.24519764525640883,0.1377521326304937,0.07821649075007119,0.16186707579171997
SG GIUGLIANO S.R.L.,IT,Italie,NOLA,CORSO TOMMASO VITALE 169/171,4771.0,Commerce de détail d'habillement en magasin spécialisé,,,,www.giuglianouomo.it,0.035901,0.028239,0.112885,5.262977,4.616216,4.988833,0.022627536339661,0.006117348061702486,0.006821424452358428,0.01190642254728368
QUATTRO STAGIONI - SOCIETA' A RESPONSABILITA' LIMITATA,IT,Italie,CESENA,VIA LUCIANO LAMA 51,4771.0,Commerce de détail d'habillement en magasin spécialisé,"Retail trade of personal linen, knitwear and hosiery",Retail,"Retail trade of personal linen, knitwear and hosiery [source: Bureau van Dijk]",www.quattrostagioniabbigliamento.it,0.072098,0.06358,0.083752,5.194971,4.536107,5.172875,0.0161906096706377,0.014016424215742705,0.013878422035464683,0.014722939612061309
ROSSOTOSCANA SOCIETA' A RESPONSABILITA' LIMITATA,IT,Italie,CRESPINA LORENZANA,VIA GALILEO GALILEI 9/11,4772.0,Commerce de détail de chaussures et d'articles en cuir en magasin spécialisé,,,,www.tuscanyleather.it,0.642177,0.442899,0.349147,5.188148,4.507062,4.650399,0.07507893408716111,0.09826778508926656,0.12377769485373201,0.0999764457542374
BRUXELLES ACHATS D OR,BE,Belgique,BRUXELLES,CHARLEROISE STEENWEG 63,4615.0,"Intermédiaires du commerce en meubles, articles de ménage et quincaillerie",,,,www.sellgold.be,0.056996,0.103829,0.121278,5.187805,6.242851,6.043957,0.020065993189561076,0.016631663962506874,0.010986534767594387,0.016143590704984428
SEVDA IMPEX SRL,RO,Roumanie,CONSTANTA,,4777.0,Commerce de détail d'articles d'horlogerie et de bijouterie en magasin spécialisé,Engaged in the wholesale distribution of furniture and home furnishings,Wholesale,Engaged in the wholesale distribution of furniture and home furnishings [source: Bureau van Dijk],www.sevda.ro,0.151777802435075,0.100761586026246,0.501594666853657,5.17199175599782,4.51215607146934,6.19286623422714,0.08099555971052799,0.022331139355610537,0.029346102932020793,0.0474984812877656
FASHION PEOPLE SL,ES,Espagne,MARBELLA,,4771.0,Commerce de détail d'habillement en magasin spécialisé,,,,missslorganization.net,0.18160954,0.33162746,-0.029136,5.17144856,4.26458171,4.10009855,-0.007106170655337052,0.07776318582954293,0.035117731114007254,0.03576362240914312
SPY STAFF S.R.L.,IT,Italie,POZZUOLI,CORSO GIUSEPPE GARIBALDI 40/44,4771.0,Commerce de détail d'habillement en magasin spécialisé,,,,,0.485688,0.29945,0.285122,5.156307,4.302548,4.761799,0.05987694986705654,0.06959829384820344,0.0941929951028905,0.07526095494623525
AKTSIONERNOE OBSHCHESTVO TORGOVYI DOM ALMAZ-KHOLDING,RU,Fédération de Russie,MOSCOW,,4777.0,Commerce de détail d'articles d'horlogerie et de bijouterie en magasin spécialisé,,,,almazholding.ru,1.26243373040753,0.861914748139291,0.714057168133625,5.14462008066438,4.14814467018682,6.03955560441179,0.1182300842817009,0.20778319385386165,0.24538910757516974,0.18512564184103625
MEGACALZADO PAMPLONA SL,ES,Espagne,ORKOIEN,,4772.0,Commerce de détail de chaussures et d'articles en cuir en magasin spécialisé,Engaged in the wholesale and retail distribution of footwear for all ages,Wholesale; Retail,Engaged in the wholesale and retail distribution of footwear for all ages [source: Bureau van Dijk],www.megacalzado.com,0.38924421,0.20591255,0.23061971,5.14376798,4.448478699,5.83540608,0.039520764594329655,0.04628830751651982,0.07567297193680964,0.053525736085696406
BEABA,FR,France,FLERS,,4771.0,Commerce de détail d'habillement en magasin spécialisé,,,,,0.319214,0.171559,0.113122,5.130847,4.459427,4.420193,0.025592095186793878,0.038471086083481126,0.06221467917480291,0.043103131394549514
LITTLE KINGS SL,ES,Espagne,ANDUJAR,,4771.0,Commerce de détail d'habillement en magasin spécialisé,,,,www.littlekings.es,0.01451889,0.0053291,0.36306634,5.05238077,4.7819671,6.50476811,0.05581541630082798,0.0011144158645508037,0.0028736729595303244,0.02343543741709825
VIOSIM IMPEX JUNIOR SRL,RO,Roumanie,IASI,,4771.0,Commerce de détail d'habillement en magasin spécialisé,,,,,0.580662275377752,0.616762232312134,0.259186200485029,5.03896490243886,4.51711325366677,4.27926504365852,0.06056792412732632,0.1365390234153365,0.1152344353691988,0.10528186306211368
JORDANS EOOD,BG,Bulgarie,PLOVDIV,,4772.0,Commerce de détail de chaussures et d'articles en cuir en magasin spécialisé,Engaged in the retail distribution of footwear,Retail,Engaged in the retail distribution of footwear [source: Bureau van Dijk],www.paolobotticelli.com,0.0373232087035597,0.0357896344884297,0.114017557321328,5.01102422607656,4.44558388395566,7.12788684581452,0.01599598307151563,0.008050603795284647,0.007448219569431686,0.011283454878277496
"MACHADO - JOALHEIRO, S.A.",PT,Portugal,PORTO,,4777.0,Commerce de détail d'articles d'horlogerie et de bijouterie en magasin spécialisé,"Engaged in the retail sale of jewelry, watches, precious stones, and precious metals",Retail,"Engaged in the retail sale of jewelry, watches, precious stones, and precious metals [source: Bureau van Dijk]",www.machadojoalheiro.com,0.268079,0.092445,0.341884,4.949893,4.636742,7.690476,0.044455505745028004,0.019937490591454086,0.054158544437223184,0.040655408187167404
DEPURTAT SRL,RO,Roumanie,BUCURESTI SECTORUL 3,,4772.0,Commerce de détail de chaussures et d'articles en cuir en magasin spécialisé,,,,www.depurtat.ro,0.0553755182905586,0.100233710334424,0.174456010838666,4.94435888897809,4.14453801503759,4.23915479373645,0.04115348915695009,0.024184531537832912,0.01119973681805362,0.024764702819941527
FERRACIN S.R.L.,IT,Italie,REFRONTOLO,VIA CREVADA 15,4751.0,Commerce de détail de textiles en magasin spécialisé,Engaged in the retail trade of clothing apparels,Retail,Engaged in the retail trade of clothing apparels [source: Bureau van Dijk],www.ferracinabbigliamento.it,0.214158,0.01711,0.146607,4.87334,4.271046,5.734968,0.02556369974514243,0.00400604442096854,0.043944809925020624,0.025395927807080866
IDRISI UOMO SL,ES,Espagne,BILBAO,,4771.0,Commerce de détail d'habillement en magasin spécialisé,,,,,0.37978989,0.24474275,0.25802577,4.85367847,4.26138124,4.33590747,0.05950905820414105,0.0574327280794994,0.07824784693659365,0.06561300746553453
SAVANNAH EMILIA AB,SE,Suède,STOCKHOLM,BIRGER JARLSGATAN 1  BV,4772.0,Commerce de détail de chaussures et d'articles en cuir en magasin spécialisé,,,Bolaget skall bedriva forsaljning av skor och vaskor samt darmedforenlig verksamhet.,eu.savannahs.com,0.458845781673971,0.307945713038758,-0.390644729715661,4.85026464980044,4.04734346211329,4.40449300377523,-0.08869232608175948,0.0760858859450407,0.09460221550855989,0.028277244453767343
MODA'S SRL,IT,Italie,POSSAGNO,VIA SCHIAVONESCA MAROSTICANA 14,4772.0,Commerce de détail de chaussures et d'articles en cuir en magasin spécialisé,Engaged in the sale of apparel for men and women,Retail,Engaged in the sale of apparel for men and women [source: Bureau van Dijk],www.modasboutique.com,0.108573,0.111686,0.062163,4.800862,4.887661,4.337502,0.0143315207693276,0.022850602772982825,0.022615313666587374,0.020135569414713006
ROMERO SRL,RO,Roumanie,GALATI,,4777.0,Commerce de détail d'articles d'horlogerie et de bijouterie en magasin spécialisé,,,,www.torneriaromero.it,0.0765873499230076,0.0867528459851233,0.0466905195273945,4.79706428889167,4.46343780948873,5.28046945367405,0.008842115258314414,0.019436329055755458,0.01596546248095053,0.014444063430263075
MARROCU RUDY S.R.L.,IT,Italie,TORINO,VIA VENTI SETTEMBRE 14,4777.0,Commerce de détail d'articles d'horlogerie et de bijouterie en magasin spécialisé,,,,www.compro-oro-usato.biz,0.072119,0.376919,0.28039,4.792652,6.625818,6.379572,0.04395122431410759,0.056886410100609464,0.015047827382417918,0.04098360932062078
GIOIELLERIA DELFINO S.R.L.,IT,Italie,SAVONA,VIA LUIGI CORSI 7/R,4777.0,Commerce de détail d'articles d'horlogerie et de bijouterie en magasin spécialisé,,,,"www.delfinogioielli.com
www.gioielleriadelfino.com",0.104747,0.093468,0.108379,4.772861,4.088402,5.463105,0.019838351999458187,0.022861744026150068,0.021946375559648606,0.021403666814480055
LERVIK UR AS,NO,Norvège,HAUGESUND,POSTBOKS 209,4777.0,Commerce de détail d'articles d'horlogerie et de bijouterie en magasin spécialisé,,,,www.lervikur.no,0.178386681199439,0.0818751430007121,0.105439771339701,4.75767889863397,4.36126053440199,4.27112181442206,0.024686669198632633,0.01877327491785324,0.037494476823700225,0.027311420671005306
JAN Y ALEX SL,ES,Espagne,BARCELONA,,4771.0,Commerce de détail d'habillement en magasin spécialisé,,,,www.nkn.es,0.26615209,0.158063,0.15469306,4.75144156,4.48624727,5.99226092,0.025815474670618982,0.035232788227475484,0.056015019155576024,0.03801116612351265
HOBB'S S.R.L.,IT,Italie,VILLA DEL CONTE,VIA ROMA 4,4772.0,Commerce de détail de chaussures et d'articles en cuir en magasin spécialisé,,,,"www.hobbsgroup.it
www.h-brands.com",0.065835,0.049677,0.033932,4.727964,4.405845,4.875769,0.006959312469479173,0.01127524912928167,0.013924598410647797,0.010667273489608324
AKSIOM,RU,Fédération de Russie,NOVOSIBIRSK,"PR-KT DIMITROVA D. 1, OFFICE 5",4777.0,Commerce de détail d'articles d'horlogerie et de bijouterie en magasin spécialisé,Engaged in the retail trade of grocery products,Retail,Engaged in the retail trade of grocery products [source: Bureau van Dijk],www.avsu.ru,0.576501024498134,0.927946893558909,0.706134223659479,4.67979689176807,4.79520674603445,5.14965508242275,0.137122625177309,0.1935155130331564,0.12318932591117789,0.15115444291765814
SOCIETE PARISIENNE SOILAINE,FR,France,PARIS,,4751.0,Commerce de détail de textiles en magasin spécialisé,Engaged in the retail sale of textiles and fabrics in Paris,Retail,Engaged in the retail sale of textiles and fabrics in Paris [source: Bureau van Dijk],www.tissus-reine.com,0.510745,0.481707,0.880293,4.664433,4.507407,6.292796,0.13988900959128503,0.10687009182884973,0.10949776746712837,0.12109855026655657
CONSORZIO PUNTO SCARPE,IT,Italie,SONA,VIA DON GIOVANNI BOSCO 8,4772.0,Commerce de détail de chaussures et d'articles en cuir en magasin spécialisé,,,,www.puntoscarpe.it,0.014521,0.058507,0.016042,4.66075,4.422018,5.864707,0.0027353455168348563,0.01323083714268011,0.0031155929839618082,0.005958865962311361
DEKORUS,RU,Fédération de Russie,MOSCOW,,4751.0,Commerce de détail de textiles en magasin spécialisé,Engaged in the management and operation of furniture stores,Wholesale; Retail,Engaged in the management and operation of furniture stores [source: Bureau van Dijk],www.dekorus.waw.pl,0.101896963121215,-0.0106339773111445,0.160515116451714,4.65489904505254,4.01371972463329,5.03460702663755,0.03188235260516784,-0.0026494070440147796,0.021890262739321105,0.01837363741968971
CARMEN Y LOLI HERMO SL,ES,Espagne,NOIA,,4771.0,Commerce de détail d'habillement en magasin spécialisé,,,,www.lolitamoda.com,0.06857583,0.02211274,0.08422985,4.62780823,4.16570717,4.67731299,0.018008170541522817,0.005308279986468659,0.014818209094200086,0.012984978721119316
A. PEZZOLI - SOCIETA' PER AZIONI,IT,Italie,GAZZANIGA,VIA SALICI 61,4751.0,Commerce de détail de textiles en magasin spécialisé,,,,"www.pezzolishop.com
www.ricamificiopezzoli.it",0.175444,0.052705,-0.178439,4.619748,4.002976,4.079738,-0.04373785767615469,0.013166454158106368,0.03797696324561426,0.0039134145805750096
BFC SRL,IT,Italie,GAZZO,VIA CAMPANELLO 61,4771.0,Commerce de détail d'habillement en magasin spécialisé,Engaged in the sale of clothing and accessories,Wholesale; Services,Engaged in the sale of clothing and accessories [source: Bureau van Dijk],"www.ducadisangiusto.it
bfcweb.it",0.344791,0.052213,0.372433,4.6159,4.003525,4.784927,0.07783462527223509,0.013041756951686329,0.07469637557139454,0.05740202883362061
FRADE ROPA DE TRABAJO SL,ES,Espagne,ALCORCON,,4771.0,Commerce de détail d'habillement en magasin spécialisé,,,,www.fraderopadetrabajo.es,0.11793288,0.10492588,0.07015467,4.59981532,4.04336939,4.41099247,0.015904509127398263,0.02595010989089968,0.02563861194322906,0.022445951664339218
30GRADI S.R.L.,IT,Italie,ROMA,VIA DEI MONTI DELLA FARNESINA 79,4771.0,Commerce de détail d'habillement en magasin spécialisé,Operates as a clothing store,Retail,Operates as a clothing store [source: Bureau van Dijk],"www.museumtheoriginal.com
www.italianrugbystyle.it",0.155112,0.19669,0.634501,4.595052,6.955658,5.883051,0.10785237115911454,0.0282776985297437,0.03375631004828672,0.056574310041304345
MARMON SPORTS,FR,France,AUBERVILLIERS,,4771.0,Commerce de détail d'habillement en magasin spécialisé,Engaged in the retail trade of sporting goods and equipment,Retail,Engaged in the retail trade of sporting goods and equipment [source: Bureau van Dijk],marmonsports.com,0.083331,-0.075603,0.126654,4.486321,4.838715,6.271068,0.0201965598204325,-0.015624602812936908,0.01857446223754386,0.008616382655565774
STAR SILVER S.R.O.,SK,Slovaquie,BRATISLAVA,,4777.0,Commerce de détail d'articles d'horlogerie et de bijouterie en magasin spécialisé,,,,klenotytrend.sk,0.562153,0.614777,0.721891,4.477904,4.878289,5.642125,0.12794665130602387,0.12602307899347498,0.12553931482229186,0.12660226300042443
AUZMENDI SA,ES,Espagne,DONOSTIA/SAN SEBASTIAN,,4771.0,Commerce de détail d'habillement en magasin spécialisé,,,Fashion mens' clothing retailer ; Online mens' clothing retailer ; Online womens' clothing retailer ; Fashion women's clothing retailer ; Online fashion clothing accessories retailer ; Fashion clothing accessories retailer [source: Bureau van Dijk],www.auzmendi.com,0.15558784,0.16324554,0.36352194,4.44028866,4.17129765,4.87962396,0.07449794143563472,0.039135433070809515,0.0350400282309574,0.05057776925449995
"CARVALHO, NOGUEIRA & BARBOSA, LDA",PT,Portugal,LISBOA,,4777.0,Commerce de détail d'articles d'horlogerie et de bijouterie en magasin spécialisé,,,,www.ourivesaria-portugal.pt,0.36750454,0.44667976,0.59196919,4.418836949,4.68564337,5.948429829,0.09951688210458673,0.0953294403197399,0.08316770775693991,0.09341406254170911
SCUDERI SPORT S.R.L.,IT,Italie,MONTEROTONDO,VIA PALOMBARESE 203/205,4771.0,Commerce de détail d'habillement en magasin spécialisé,,,,www.scuderistore.com,0.22514,0.153776,0.0748,4.40469,4.222796,4.133277,0.01809702083842917,0.036415682879305564,0.05111369926146902,0.035555554162396086
KOTKAN GARDEROBI OY,FI,Finlande,KOTKA,,4771.0,Commerce de détail d'habillement en magasin spécialisé,,,"Vaatteiden vahittaiskauppa ja konsultointi. Yhtio voi toimintansa puitteissa omistaa kiinteistoja, asunto- ja muita osakkeita seka muita arvopapereita.","www.vila.co
www.trio.fi",0.375,0.069237,-0.309,4.191,5.519703,7.293,-0.04236939531057178,0.012543609683347095,0.08947745168217609,0.00795338521262104
BIJOUX BOUTIQUE,FR,France,STRASBOURG,,4777.0,Commerce de détail d'articles d'horlogerie et de bijouterie en magasin spécialisé,Operates as a retailer of miscellaneous shopping goods,Retail,Operates as a retailer of miscellaneous shopping goods [source: Bureau van Dijk],www.boutiquesobijoux.com,0.666501,0.521213,0.437253,4.246854,4.614083,5.135795,0.08513832814588589,0.1129613403139909,0.15693993718644436,0.11609617159205451
PRO RETAIL FINLAND OY,FI,Finlande,ESPOO,C/O KOTKAN TILIPALVELU OY KIRKKOKATU 18,4771.0,Commerce de détail d'habillement en magasin spécialisé,,,"Yhtion toimialana on vaatteiden-, jalkineiden-, laukkujen-, muiden muotiin ja pukeutumiseen liittyvien tuotteiden ja oheistuotteiden, seka sisustus- ja tekstiilituotteiden myynti, maahantuonti, markkinointi ja esittely. Yhtio voi myos harjoittaa parturi- ja kampaamopalveluiden myyntia, seka muuta kauneudenhoito ja kosmetologisten palveluiden tarjoamista, tai alaan liittyvaa toimintaa. Yhtio voi omistaa koti- ja ulkomaisia osakkeita ja kiinteistoosakkeita, osuuksia ja oikeuksia, seka kayda niilla kauppaa, ja harjoittaa vuokraustoimintaa.",www.isoomena.fi,0.124,0.076,0.25,4.332,4.23,4.805,0.052029136316337155,0.01796690307328605,0.028624192059095107,0.03366499588538939
BIONDI S.R.L.,IT,Italie,VERCELLI,CORSO LIBERTA' 41,4777.0,Commerce de détail d'articles d'horlogerie et de bijouterie en magasin spécialisé,"Primarily engaged in the wholesale trade of jewelries, watches, precious stones and precious metals",Wholesale,"Primarily engaged in the wholesale trade of jewelries, watches, precious stones and precious metals [source: Bureau van Dijk]","www.biondigioielli.com
www.nautica-biondi.it",0.526155,0.676994,0.549799,4.311224,4.579774,6.494697,0.08465352579188837,0.14782257814468575,0.12204306711968574,0.11393362470788612
ARI S.R.L.,IT,Italie,VARESE,VIA CAMILLO BENSO CONTE DI CAVOUR 39,4771.0,Commerce de détail d'habillement en magasin spécialisé,,,,,0.986873,0.91636,0.34415,4.275292,5.887759,5.584542,0.061625465436556844,0.15563816385826934,0.23083171862880944,0.14271279426639996
KEEPSEA SL.,ES,Espagne,GUARDAMAR DEL SEGURA,,4751.0,Commerce de détail de textiles en magasin spécialisé,,,,www.cortinadecor.com,19.01842862,1.89428817,0.85753481,4.209872139,7.6934041,5.22895788,0.16399726861062416,0.24622236728732344,4.517578679840281,1.270718777760359
ZETEK SRL,IT,Italie,CERVIA,VIALE ROMAGNA 69/71,4771.0,Commerce de détail d'habillement en magasin spécialisé,Engaged in the manufacture and retail sale of clothing products in Italy,Manufacturing; Retail,Engaged in the manufacture and retail sale of clothing products in Italy [source: Bureau van Dijk],"www.tezuk.com
www.zetek.it",0.415383,0.397125,0.440186,4.183587,4.083184,4.969188,0.08858308439930226,0.09725865892891429,0.0992887204210167,0.09464323665553813
WADEL S.R.L.,IT,Italie,CAGLIARI,VIA DEL RISORGIMENTO 5,4772.0,Commerce de détail de chaussures et d'articles en cuir en magasin spécialisé,Primarily engaged in the retail sale of footwear products,Retail,Primarily engaged in the retail sale of footwear products [source: Bureau van Dijk],www.cralregionesardegna.it/?p=2693,0.297215,0.274663,0.529682,4.002288,6.221574,9.889344,0.05356088331035911,0.04414686701468149,0.0742612725521002,0.0547679967082324
